name,location,city,district,address,latitude,longitude,telephone
北市大安區幸安國民小學,幸安國小健康中心,台北市,大安區,仁愛路三度22號,25.03758,121.534866,27074191-2104
臺北市立陽明教養院華岡院區,文康大樓1樓,台北市,士林區,凱旋路61巷4弄9號,25.135194,121.541256,2861-1380-355
臺北市文山區武功國民小學,警衛室外牆,台北市,文山區,興隆路一段68號,25.003889,121.540493,02-29314360-31
臺北市文山區溪口國民小學,健康中心走廊,台北市,文山區,景福街225號,24.99413,121.538757,09350955＃741
臺北市文山區明道國民小學,健康中心內,台北市,文山區,臺北市文山區木柵路二段138巷61號,24.98732,121.562581,910919455
臺北市士林區雨聲國民小學,穿堂,台北市,士林區,至誠路一段62巷70號,25.102662,121.535265,28311004*225
臺北市大同區蓬萊國民小學,臺北市大同區蓬萊國民小學太原門穿堂,台北市,大同區,寧夏路35號,25.056387,121.51571,(02)25569835
國立臺灣師範大學校本部,校本部勤大樓一樓,台北市,大安區,和平東路1段162號,25.025005,121.527798,02-77343107
財團法人台北市私立陽明養護中心,辦公室前,台北市,北投區,台北市北投區公館路209巷18號,25.121445,121.502713,979167466
台北巿士林區福林國小,健康中心,台北市,士林區,福志路75號,25.098216,121.529446,2831-6293轉211
臺北市文山區興德國民小學,健康中心外,台北市,文山區,興隆路二段235號,25.001622,121.55077,02-29329431#46
臺北市士林區劍潭國民小學,川堂,台北市,士林區,通河街16號,25.079924,121.522887,28855491
臺北市萬華區福星國民小學,健康中心,台北市,萬華區,中華路一段66號,25.046784,121.507931,02-23144668-132
臺北市南港區修德國小,臺北市南港區修德國小健康中心,台北市,南港區,東新街118巷86號,25.045532,121.589636,02-27880500#133
台北健身中心有限公司,台北市中山區民生東路一段29號B1,台北市,中山區,民生東路一段29號B1,25.058208,121.525247,939677939
臺北市立濱江國中,體育館三樓,台北市,中山區,樂群二路262號,25.07955,121.56075,02-85020126*308
臺北市立新興國民中學,臺北市立新興國民中學健康中心外走廊,台北市,中山區,林森北路511號,25.062062,121.526717,02-25714211#305
臺北市中正區忠孝國小,忠孝國小,台北市,中正區,忠孝東路二段101號,25.042927,121.531533,23918170#823
全真概念健康事業股份有限公司-天母分公司,B1入口櫃台正對面,台北市,士林區,忠誠路二段188號B1,25.116401,121.533665,987630735
遠雄蘇黎世經貿,社區大樓中庭,台北市,內湖區,新湖一路133號,25.05877,121.576294,02-27955486
國立政治大學,自強十舍服務中心外面,台北市,文山區,指南路2段64號,24.987331,121.576128,(02)82375000
緹力士健康事業股份有限公司-大直會館,5F大廳櫃台正前方,台北市,中山區,樂群三路218號5樓,25.08237,121.557688,5581-9888#161
兒童新樂園麗陽美食街,美食街後方,台北市,士林區,承德路5段55號,25.097094,121.514709,02-28355500
國立政治大學,校門口警衛室外面,台北市,文山區,指南路2段64號,24.987331,121.576128,29387285
全真概念健康事業股份有限公司-南港分公司,全真瑜珈南港店,台北市,南港區,經貿二路188號B棟4樓,25.058113,121.616748,02-2653-0333
永吉大樓,1樓櫃檯後方,台北市,信義區,永吉路302號,25.045326,121.574878,02-27494853
台北兒童福利中心,育幼家庭1樓中庭,台北市,信義區,忠孝東路5段295巷8號,25.042138,121.57265,2767-9264
臺北市士林區百齡國民小學,臺北市士林區百齡國小活動中心二樓教務處旁,台北市,士林區,福港街205號,25.085358,121.518883,02-28817683*837
台北市永福之家,3樓護理站前走道,台北市,士林區,莊頂路2號,25.110627,121.549328,28611381
北投青磺名湯(立興朝代有限公司),一樓大廳,台北市,北投區,中央北路1段12號1樓,25.133912,121.500998,978555958
臺北市政府社會局老人自費安養中心,長青樓1樓服務台前面,台北市,文山區,興隆路4段109巷30弄6號,24.986284,121.562475,02-29393146-3101
大地國際酒店股份有限公司,一樓湯屋公共區,台北市,北投區,奇岩路1號,25.134518,121.50748,02-55518888#8311
大地國際酒店股份有限公司,三樓泳池旁,台北市,北投區,奇岩路1號,25.134659,121.507197,02-55518888#8311
臺北市士林老人服務暨日間照顧中心,日照大廳廁所旁,台北市,士林區,忠誠路二段53巷7號6樓,25.111436,121.532287,(02)2838-1571#215
犀利玩家體適能工作室,艋舺大道120巷11弄9號1F&amp;B1,台北市,萬華區,艋舺大道120巷11弄9號1F&amp;B1,25.032864,121.50251,978132932
臺北市大同區永樂國小,一樓健康中心門口,台北市,大同區,延平北路二段266號,25.061297,121.511085,02-25534882
臺北市文山區興華國民小學,學校健康中心,台北市,文山區,興隆路3段125巷6號,24.99975,121.558903,2239-3070*123
台北市文山區博嘉國民小學,校門口警衛室內,台北市,文山區,木柵路4段159巷14-1號,25.001764,121.57582,02-22302585轉115
臺北市大同區日新國民小學,警衛室門口,台北市,大同區,太原路151號,25.054389,121.516476,25584819
中華學校財團法人中華科技大學,學苑一樓入口,台北市,南港區,研究院路3段245號,25.032859,121.610348,02-27821862轉131
行政院人事行政總處公務人力發展中心福華文教會館,地下室一樓休閒中心櫃檯旁,台北市,大安區,新生南路三段30號,25.022831,121.534192,955108113
保證責任臺北市台北地下街場地利用合作社,"Y22出入口(封閉中), 33店旁, 近Y21出入口",台北市,中正區,市民大道一段100號B1,25.049573,121.512517,02-25594566分機508
保證責任臺北市台北地下街場地利用合作社,Y3出入口廁所,台北市,中正區,市民大道一段100號B1行政中心,25.048617,121.517514,02-25594566分機508
芝山巖惠濟宮,芝山巖惠濟宮聖母殿,台北市,士林區,至誠路一段326巷26號,25.103178,121.530618,02-28315656
臺北市立圖書館三民分館,5樓資訊檢索區,台北市,松山區,民生東路5段163-1號5樓,25.059315,121.562908,27600408
台北文華東方酒店,6F SPA 辦公室,台北市,松山區,敦化北路158號,25.055716,121.548346,02-2715-6888 ext. 1901 - 2
哈拉數位影城,四樓大廳中間,台北市,內湖區,康寧路3段72號,25.06982,121.611421,26322693#325
臺北市立大學博愛校區,公誠樓地下2樓游泳池櫃台對面,台北市,中正區,愛國西路1號,25.035559,121.513511,23113040
臺北市立圖書館大同分館,一樓入口處右側，服務台旁,台北市,大同區,重慶北路3段318號,25.074304,121.513555,02-25943236
祥禾園股份有限公司,一樓大廳,台北市,松山區,八德路四段656號,25.049853,121.575441,27489966
臺北市奎山實驗高級中等學校,健康中心,台北市,北投區,明德路200號,25.112701,121.522085,977075544
Force Fitness 古亭,門口旁,台北市,中正區,南昌路二段192號2樓之1,25.024285,121.523986,916095072
台北之家（光點台北）,1F入口處,台北市,中山區,中山北路二段18號,25.053279,121.522161,02-25117786分機650
桃園捷運A1台北車站,B2穿堂層詢問處附近,台北市,中正區,鄭州路8號,25.048674,121.514239,(03)283-8888分機71165
台北市文山區景美國小,健康中心,台北市,文山區,景文街108號,24.989527,121.540781,928120420
臺北捷運中山站G16,B1大廳層,台北市,大同區,南京西路55號,25.052654,121.520331,25505600#3636
台北市立興福國民中學,健康中心旁,台北市,文山區,福興路80號,25.004723,121.54995,29322024分機331
國立臺北教育大學,體育館一樓體育室門口,台北市,大安區,和平東路2段134號,25.024624,121.544637,02-27374154
桃園捷運A1台北車站,B1預辦登機層旅客穿廊走道(非付費區)(非付費區),台北市,中正區,鄭州路8號,25.049258,121.512276,(03)283-8888分機71165
台北市東湖國小,學校前川堂活動室,台北市,內湖區,東湖路115號,25.06916,121.616068,26332932
臺北市內湖區麗湖國民小學,1樓健康中心旁,台北市,內湖區,金湖路363巷8號,25.072992,121.601146,26343888-199
國立台北商業大學,衛生保健組,台北市,中正區,濟南路1段321號,25.041898,121.525662,02-23226095
國立臺灣科學教育館,本館1樓服務台旁,台北市,士林區,士商路189號,25.095757,121.516602,66101234*1706
吸引力生活事業股份有限公司 ATT 4 FUN,ATT 4 FUN B2F,台北市,信義區,松壽路12號,25.035666,121.566075,(02)8780-8111#7502
太平洋崇光百貨股份有限公司復興分公司,SOGO復興店B2樓服務台前,台北市,大安區,忠孝東路3段300號,25.041029,121.543148,0277135555#8754
全聯實業股份有限公司(大直總部),1樓電梯口旁走廊,台北市,中山區,敬業四路31、33號1樓,25.08076,121.557519,910901287
臺北捷運象山站R02,車站大廳親子/無障礙廁所旁,台北市,信義區,信義路5段152號,25.032806,121.57026,02-21812345
臺北捷運臺大醫院站R09,臺北捷運臺大醫院站,台北市,中正區,公園路52號,25.041297,121.515967,02-21812345
臺北市大同運動中心,1樓大廳,台北市,大同區,大龍街51號,25.064769,121.516146,02-2592-0055ext.101
臺北市內湖區新湖國民小學,學務處門口前,台北市,內湖區,民權東路6段138號,25.068804,121.588746,27963721#115
台北市國語實驗國民小學,健康中心走廊,台北市,中正區,南海路58號,25.042141,121.519872,23033555
前山公園男公共浴室,管理室內,台北市,北投區,建國街7-1號,25.150242,121.548548,02-28616361
大地清旅旅店,四樓大廳,台北市,中山區,長安東路2段246號4樓,25.048143,121.543278,02-27110102
臺北捷運忠孝復興站BR10,捷運文湖線忠孝復興站詢3樓大廳,台北市,大安區,復興南路1段180號,25.041643,121.543768,(02)27828660#3039
臺北捷運大橋頭站O12,臺北捷運大橋頭站O12,台北市,大同區,民權西路223號,25.063176,121.513109,(02)25505600轉7920
臺北捷運公館站G07,地下1樓大廳層詢問處附近,台北市,大安區,羅斯路4段74號,25.014981,121.534222,910690176
臺北捷運文德站BR18,主詢問處附近,台北市,內湖區,文德路214號,25.078552,121.584714,(02)87975345
鼎鼎大飯店股份有限公司,1F 商店旁走道內,台北市,大安區,敦化南路二段201號,25.026612,121.549282,931077362
臺北捷運中山站R14,捷運淡水線中山站B1大廳層詢問處左前方(非付費區),台北市,中山區,南京西路16號,25.052694,121.520369,25505600#3636
臺北捷運大安森林公園站R06,車站大廳詢問處旁,台北市,大安區,信義路3段100號,25.033544,121.534851,02-21812345
臺北捷運六張犁站BR07,捷運六張犁站3樓大廳,台北市,大安區,和平東路3段168號,25.023749,121.552984,(02)27828660#3039
臺北捷運劍南路站BR15,主詢問處附近,台北市,中山區,北安路798號,25.084875,121.555537,(02)87975345
臺北捷運台北車站BL12,捷運板南線台北車站B2層3號詢問處旁(付費區),台北市,中正區,忠孝西路1段49號,25.046273,121.517498,25505600-4131
臺北捷運南港展覽館站BR24,主詢問處附近,台北市,南港區,南港路1段32號,25.05539,121.617555,(02)87975345
臺北捷運後山埤站BL20,東側大廳,台北市,南港區,忠孝東路6段2號B1,25.045083,121.582453,02-2550-5600#6108
臺北捷運士林站R16,捷運淡水線士林站靠近2號出口側之男生廁所旁(付費區),台北市,士林區,福德路1號,25.093535,121.52623,25505600-4131
臺北捷運昆陽站BL21,東側大廳,台北市,南港區,忠孝東路6段451號,25.050461,121.593268,02-2550-5600#6108
臺北市中正區健康服務中心,側門入口電梯旁,台北市,中正區,牯嶺街24號,25.030429,121.516012,02-23215158#6563
台北市河濱自行車租借站大佳站,大佳租車站貨櫃內,台北市,松山區,大佳河濱公園八號水門旁,25.073899,121.535311,977320538
臺北市立松山高級商業家事職業學校,傳達室,台北市,信義區,松山路655號,25.034963,121.580112,27261118*342
台北市河濱自行車租借站大稻埕站,大稻埕租車站貨櫃內,台北市,大同區,民生西路底，大稻埕疏散門進入，大稻埕碼頭旁。,25.056367,121.507598,977320538
台北市河濱自行車租借站美堤站,台北市河濱自行車租借站美堤站,台北市,中山區,美堤疏散門(敬業三路底)進入後左轉，土坡曲道賽場旁。,25.075376,121.558549,977320538
台北市河濱自行車租借站雙溪站,台北市河濱自行車租借站雙溪站,台北市,北投區,洲美街轉入河濱公園往洲美橋方向自行車道旁,25.097987,121.510769,977320538
台北海洋技術學院士林校區,台北海洋技術學院士林校區樂群樓101教室旁,台北市,士林區,延平北路9段212號,25.108098,121.471255,28102292-7930
台灣高速鐵路公司,4號車列車長室(6.7車間),台北市,南港區,經貿二路66號,25.057297,121.61647,07-960-1000
台灣高速鐵路公司,9號車列車長室(6.7車間),台北市,南港區,經貿二路66號,25.057297,121.61647,07-960-1000
台灣高速鐵路公司,11號車列車長室(6.7車間),台北市,南港區,經貿二路66號,25.057297,121.61647,07-960-1000
台灣高速鐵路公司,12號車列車長室(6.7車間),台北市,南港區,經貿二路66號,25.057297,121.61647,07-960-1000
台灣高速鐵路公司,13號車列車長室(6.7車間),台北市,南港區,經貿二路66號,25.057297,121.61647,07-960-1000
台灣高速鐵路公司,15號車列車長室(6.7車間),台北市,南港區,經貿二路66號,25.057297,121.61647,07-960-1000
台灣高速鐵路公司,6號車列車長室(6.7車間),台北市,南港區,經貿二路66號,25.057297,121.61647,07-960-1000
台灣高速鐵路公司,20號車列車長室(6.7車間),台北市,南港區,經貿二路66號,25.057297,121.61647,07-960-1000
台灣高速鐵路公司,27號車列車長室(6.7車間),台北市,南港區,經貿二路66號,25.057297,121.61647,07-960-1000
台灣高速鐵路公司,30號車列車長室(6.7車間),台北市,南港區,經貿二路66號,25.057297,121.61647,07-960-1000
台灣高速鐵路公司,32號車列車長室(6.7車間),台北市,南港區,經貿二路66號,25.057297,121.61647,07-960-1000
臺北市第二殯儀館,第二殯儀館駐衛警隊入門處,台北市,大安區,辛亥路3段330號,25.013753,121.553039,02-87329721
富德靈骨樓,大門入口左方辦公室外牆,台北市,文山區,木柵路五段43巷190號,25.011621,121.591557,02-87329721
光點華山電影館,光點華山電影館(售票櫃台),台北市,中正區,八德路1段1號(中六電影館),25.044983,121.529005,(02)2394-0622分機150
臺北市第一殯儀館,臺北市第一殯儀館駐衛警,台北市,中山區,民權東路二段145號,25.062981,121.536136,02-87329721
林安泰古厝民俗文物館,書房,台北市,中山區,濱江街5號,25.072262,121.530628,02-25996026
臺北捷運南港軟體園區站BR23,主詢問處附近,台北市,南港區,經貿二路183號,25.059968,121.6159,(02)87975345
臺北市議會,1樓大廳右側警衛台旁,台北市,信義區,仁愛路4段507號,25.038463,121.562251,27297708#1110
台北文華東方酒店,地下3樓安全部辦公室,台北市,松山區,敦化北路158號,25.055779,121.548384,02-2715-6888 ext. 1901 - 2
台北文華東方酒店,一樓客務部辦公室,台北市,松山區,敦化北路158號,25.055726,121.548336,02-2715-6888 ext. 1901 - 2
今日秀泰影城,四樓大廳休息區,台北市,萬華區,峨眉街52號,25.043788,121.505393,970197547
陽明山臻愛樓,陽明山臻愛樓大廳電梯旁,台北市,北投區,泉源路220號,25.14203,121.527473,02-87329721
大同股份有限公司,北設工大樓一樓大廳,台北市,中山區,中山北路3段22號,25.064458,121.521578,02-25984405
體線運動工作室,櫃檯,台北市,松山區,民生東路五段30號5樓,25.058233,121.556689,928779623
悅庭牙醫診所,大廳櫃臺旁邊,台北市,士林區,中正路172號2樓,25.095829,121.527622,02-2834-2727
南港公園,南港公園駐警室內,台北市,南港區,東新街170之1號,25.045919,121.591476,2700-3830
誠品生活西門店,誠品生活西門店B1F,台北市,萬華區,峨眉街52號B1F-3F,25.043798,121.505412,2388-6588*9
誠品生活股份有限公司204號辦公室,大會議室1門口,台北市,信義區,松德路204號B1,25.034413,121.574268,02-66385168#704
臺北市政府社會局委託財團法人台北市自閉兒社會福利基金會經營管理臺北市慈祐發展中心,3樓辦公室,台北市,松山區,八德路四段688號3、4樓,25.049847,121.57685,02-2742-1213
Curves女性專用30分鐘健身中心萬華青年公園店,環狀運動圈內,台北市,萬華區,青年路30巷2-3號1樓,25.025995,121.504789,0905-789-311
國立國父紀念館,1樓西側門內右側,台北市,信義區,仁愛路4段505號,25.028702,121.576957,27588008-563
台灣高速鐵路(股)公司-南港車站,台灣高速鐵路(股)公司-南港車站,台北市,南港區,南港路一段313號,25.053189,121.607064,03-2623000ext29119
台灣高速鐵路(股)公司-南港車站,台灣高速鐵路(股)公司-南港車站,台北市,南港區,南港路一段313號,25.053189,121.607064,03-2623000ext29119
台灣高速鐵路(股)公司-南港車站,台灣高速鐵路(股)公司-南港車站,台北市,南港區,南港路一段313號,25.053189,121.607064,03-2623000ext29119
松山奉天宮,1樓大殿東側樓梯旁,台北市,信義區,福德街221巷12號,25.028702,121.576957,02-27279765
台北市私立達人女子高級中學,輔導中心前,台北市,內湖區,內湖路2段314號,25.081253,121.587643,02-27956899#207
保證責任臺北市台北地下街場地利用合作社,Y28出入口旁,台北市,中正區,市民大道一段100號B1,25.049989,121.510801,02-25594566分機508
保證責任臺北市台北地下街場地利用合作社,Y2出入口旁,台北市,中正區,市民大道一段100號B1,25.048368,121.518244,02-25594566分機508
大同股份有限公司,新設工2樓餐廳內,台北市,中山區,中山北路3段22號,25.064449,121.521711,912516721
指南宮管理委員會,純陽殿茶亭內,台北市,文山區,萬壽路115號,24.979845,121.586632,29399922
臺北捷運南京復興站G18,B2大廳層,台北市,中山區,南京東路3段172號,25.05227,121.543883,25505600#3636
臺北捷運松山站G22,B2大廳層主詢問處旁,台北市,松山區,八德路4段742號,25.050042,121.577631,25505600#3636
臺北捷運松江南京站G17,B1大廳層,台北市,中山區,南京東路2段108號B1,25.052035,121.533039,25505600#3636
臺北捷運台北小巨蛋站G19,B1大廳層主詢問處旁,台北市,松山區,南京東路4段10-1號,25.051687,121.551833,25505600#3636
臺北捷運南京三民站G21,B1大廳層主詢問處旁,台北市,松山區,南京東路5段237號,25.051449,121.563804,25505600#3636
台北市內湖區西湖國小,大門口川堂,台北市,內湖區,環山路一段25號,25.08383,121.565699,02-27971267*146
國立臺灣藝術教育館-南海書院,南海書院1樓大門,台北市,中正區,南海路43號,25.032293,121.512074,02-23110574-155
國立臺灣藝術教育館-南海劇場,南海劇場1樓前廳,台北市,中正區,南海路47號,25.031741,121.511894,02-23110574-155
臺北市立大學博愛校區,勤樸樓一樓健康促進中心門外,台北市,中正區,愛國西路1號,25.037044,121.51333,(02)2311-3040#4174
保證責任臺北市台北地下街場地利用合作社,Y15出入口廁所,台北市,中正區,市民大道1段100號B1,25.049321,121.514416,02-25594566分機508
台糖台北會館,台北會館,台北市,中正區,光復里中華路一段39號,25.04542,121.509521,0223885522#5101
太平洋崇光百貨股份有限公司敦化分公司,SOGO敦化館4樓貴賓廳旁,台北市,大安區,敦化南路1段246號,25.040444,121.548354,0227765555#1508
東吳大學〈城中校區〉,第六大樓門口,台北市,中正區,貴陽街1段56號,25.037856,121.509663,02-28819471-7523
台北市河濱自行車租借站木柵站,台北市河濱自行車租借站木柵站,台北市,文山區,新光路2段，動物園前方道南河濱公園廣場上。,24.999429,121.580152,977320538
台北市河濱自行車租借站華中站,台北市河濱自行車租借站華中站,台北市,萬華區,萬大路底，華中一疏散門內，華中橋下方。,25.01589,121.49556,977320538
台北市河濱自行車租借站彩虹站,彩虹租車站內,台北市,松山區,開車經越堤坡道(新湖2路與堤頂大道交會口臨河側附近)轉入河濱公園於麥帥一橋右岸下、步行由彩虹橋或行善路前往麥帥一橋右岸),25.052849,121.573795,977320538
國立政治大學附設實驗國民小學,健康中心,台北市,文山區,指南路三段12號,24.984837,121.57996,02-29393610分機623
台灣高速鐵路公司,1號車列車長室(6.7車間),台北市,南港區,經貿二路66號,25.057297,121.61647,07-960-1000
台灣高速鐵路公司,2號車列車長室(6.7車間),台北市,南港區,經貿二路66號,25.057297,121.61647,07-960-1000
台灣高速鐵路公司,7號車列車長室(6.7車間),台北市,南港區,經貿二路66號,25.057297,121.61647,07-960-1000
台灣高速鐵路公司,23號車列車長室(6.7車間),台北市,南港區,經貿二路66號,25.057297,121.61647,07-960-1000
台灣高速鐵路公司,24號車列車長室(6.7車間),台北市,南港區,經貿二路66號,25.057297,121.61647,07-960-1000
台灣高速鐵路公司,16號車列車長室(6.7車間),台北市,南港區,經貿二路66號,25.057297,121.61647,07-960-1000
台灣高速鐵路公司,26號車列車長室(6.7車間),台北市,南港區,經貿二路66號,25.057297,121.61647,07-960-1000
台灣高速鐵路公司,29號車列車長室(6.7車間),台北市,南港區,經貿二路66號,25.057297,121.61647,07-960-1000
台灣高速鐵路公司,31號車列車長室(6.7車間),台北市,南港區,經貿二路66號,25.057297,121.61647,07-960-1000
台灣高速鐵路公司,19號車列車長室(6.7車間),台北市,南港區,經貿二路66號,25.057297,121.61647,07-960-1000
台灣高速鐵路公司,25號車列車長室(6.7車間),台北市,南港區,經貿二路66號,25.057297,121.61647,07-960-1000
青年公園游泳池,入口內左側,台北市,萬華區,水源路199號,25.022041,121.506907,2550-9828
臺北巿松山運動中心,一樓大廳,台北市,松山區,敦化北路1號,25.048607,121.550231,02-66176789
新光保全科技總部,大門入口右側,台北市,內湖區,行愛路128號1樓,25.063886,121.580105,933886850
臺北市中山區公所,1樓大廳,台北市,中山區,松江路367號,25.064426,121.533457,25031369#613
最高行政法院,法院1樓,台北市,中正區,重慶南路1段126巷1號,25.037313,121.511829,02-23113691#157
臺北捷運唭哩岸站R20,捷運唭哩岸站一樓大廳,台北市,北投區,東華街2段301號,25.120872,121.506252,25505600轉4338
太平洋崇光百貨股份有限公司天母分公司,SOGO天母店1樓北大門旁,台北市,士林區,中山北路6段77號,25.104745,121.524536,(02)28345000#5272
臺北市內湖區麗湖國民小學,3樓游泳池,台北市,內湖區,金湖路363巷8號,25.072992,121.601146,26343888-199
臺北捷運松山機場站BR13,捷運松山機場站地下二樓大廳層,台北市,松山區,敦化北路338號,25.063039,121.551919,(02)87975345
誠品生活信義店,2F書店讀者服務中心,台北市,信義區,松高路11號,25.039357,121.565856,(02)87893388#2322
誠品生活股份有限公司武昌店,誠品武昌店4F服務台旁,台北市,萬華區,武昌街2段77號,25.04517,121.505568,02-23813838#2843
誠品敦南店,誠品敦南店2樓,台北市,大安區,敦化南路1段245號,25.039644,121.549296,27755977*527
臺北捷運石牌站R19,捷運石牌站一樓大廳,台北市,北投區,石牌路1段200號,25.114523,121.515559,25505600轉4338
臺北捷運台北車站R10,捷運淡水線台北車站B3層1號詢問處旁(付費區),台北市,中正區,忠孝西路1段49號,25.04623,121.517646,25505600-4131
臺北捷運奇岩站R21,捷運奇岩站一樓大廳,台北市,北投區,三合街2段489號,25.125543,121.501021,25505600轉4338
臺北捷運北門站G14,B2大廳層主詢問處旁,台北市,大同區,塔城街10號,25.049425,121.510243,25505600#3636
臺北市碧湖國小,健康中心內,台北市,內湖區,金龍路100號,25.085311,121.59111,02-27912790
國立臺北教育大學,泳健館內泳池入口櫃臺後方,台北市,大安區,和平東路二段134號,25.02224,121.544207,(02)27331588
Dr.Nail足研所,大門進入後的右手邊,台北市,大安區,大安路1段51巷36號1樓,25.042967,121.547586,0976-570-818
碧湖公園,管理室(小白宮),台北市,內湖區,內湖路2段175號,25.082751,121.582899,2700-3830
水美溫泉浴室企業股份有限公司,大廳右方,台北市,北投區,光明路224號,25.136189,121.505068,0960-022800
臺北市私立十信高級中學,教學大樓保健室內,台北市,北投區,北投路二段55號,25.133393,121.49689,953177662
保證責任臺北市台北地下街場地利用合作社,Y8出入口旁,台北市,中正區,市民大道一段100號B1,25.048463,121.516715,02-25594566分機508
誠品書店台大店,誠品書店台大店1F緊急逃生出口處,台北市,大安區,新生南路3段98號,25.016996,121.533065,02-23626132
誠品書店士林店,誠品書店士林店櫃台旁,台北市,士林區,文林路338-340-1號1樓,25.092712,121.525842,02-88611827
臺北捷運關渡站R25,二月台中間,台北市,北投區,大度路3段296巷51號,25.125651,121.46712,25505600轉4338
臺北捷運復興崗站R23,復興崗站_大廳,台北市,北投區,中央北路3段53巷10號,25.137474,121.485444,25505600轉4338
臺北捷運龍山寺站BL10,捷運龍山寺站B1層,台北市,萬華區,西園路1段153號,25.035338,121.499814,02-22724979
臺北捷運西門站BL11,捷運西門站B1層,台北市,中正區,寶慶路32之1號,25.04205,121.508178,02-22724979
臺北捷運台電大樓站G08,地下1樓大廳層詢問處附近,台北市,中正區,羅斯福3段126之5號,25.020785,121.528176,910690176
臺北捷運忠孝新生站O07,臺北捷運忠孝新生站O07,台北市,大安區,新生南路1段67號,25.042303,121.532816,(02)25505600轉7920
臺北捷運松江南京站O12,車站南側大廳,台北市,中山區,松江路126號,25.052042,121.533028,25505600#3636
臺北捷運中山國小站O10,臺北捷運中山國小站O10,台北市,中山區,民權東路一段71號,25.062646,121.526417,(02)25505600轉7920
臺北捷運民權西路站O11,臺北捷運民權西路站O11,台北市,大同區,民權西路72號,25.062724,121.519531,(02)25505600轉7920
臺北捷運東門站R07,車站大廳主詢問處旁,台北市,大安區,信義路2段166號,25.033868,121.528699,02-21812345
臺北捷運台北101/世貿站R03,車站大廳詢問處旁,台北市,信義區,信義路5段20號,25.032981,121.562503,02-21812345
臺北捷運大安站R05,信義線車站大廳詢問處旁,台北市,大安區,信義路3段180號,25.033259,121.543557,02-21812345
臺北捷運善導寺站BL13,西側大廳,台北市,中正區,忠孝東路1段58號B1,25.044746,121.523133,02-2550-5600#6108
臺北捷運小南門站G11,地下1樓大廳層詢問處附近,台北市,中正區,愛國西路22號,25.035569,121.510817,910690176
臺北捷運西湖站BR16,主詢問處附近,台北市,內湖區,內湖路1段256號,25.082159,121.56717,(02)87975345
臺北捷運萬隆站G06,地下1樓大廳層詢問處附近,台北市,文山區,羅斯路5段214號B1,25.001811,121.538937,910690176
臺北捷運動物園站BR01,捷運動物園站3樓大廳,台北市,文山區,新光路2段32號,24.998269,121.579412,(02)27828660#3039
臺北捷運大湖公園站BR20,主詢問處附近,台北市,內湖區,成功路5段11號,25.083867,121.60209,(02)87975345
臺北捷運民權西路站R13,捷運淡水線民權西路站1F大廳層詢問處旁靠近編號C016儲藏室,台北市,中山區,民權西路72號,25.062925,121.519266,25505600-4131
臺北捷運劍潭站R15,捷運淡水線劍潭站靠近1號出口側之女生廁所旁(付費區),台北市,士林區,中山北路5段65號,25.084873,121.525078,25505600-4131
臺北捷運信義安和站R04,車站大廳詢問處旁,台北市,大安區,信義路4段212之1號,25.033128,121.552768,02-21812345
臺北捷運芝山站R17,捷運淡水線芝山站1號出口詢問處旁(付費區),台北市,士林區,福國路70號,25.10306,121.522514,25505600-4131
臺北捷運萬芳醫院站BR04,捷運萬芳醫院站3樓大廳,台北市,文山區,興隆路3段113號,24.999386,121.558152,(02)27828660#3039
臺北捷運忠孝敦化站BL16,東側大廳,台北市,大安區,忠孝東路4段182號B1,25.041498,121.55105,02-2550-5600#6108
臺北捷運市政府站BL18,東側大廳,台北市,信義區,忠孝東路5段2號B1,25.041192,121.565172,02-2550-5600#6108
基督教台灣浸會神學院,二號辦公室,台北市,信義區,吳興街394巷1號,25.023742,121.566763,02-2723-8197
台灣高速鐵路(股)公司-台北車站,B1西進候車區,台北市,中正區,北平西路3號,25.047924,121.517081,03-2623000ext29119
台北市河濱自行車租借站景福站,景福租借站內,台北市,中正區,自來水園區公館水岸廣場上(思源路底)永福橋旁,25.011213,121.528235,977320538
中華學校財團法人中華科技大學,榮華樓入口右側,台北市,南港區,研究院路三段245號,25.033596,121.609887,02-27821862轉131
台灣高速鐵路公司,3號車列車長室(6.7車間),台北市,南港區,經貿二路66號,25.057297,121.61647,07-960-1000
台灣高速鐵路公司,5號車列車長室(6.7車間),台北市,南港區,經貿二路66號,25.057297,121.61647,07-960-1000
台灣高速鐵路公司,8號車列車長室(6.7車間),台北市,南港區,經貿二路66號,25.057297,121.61647,07-960-1000
台灣高速鐵路公司,10號車列車長室(6.7車間),台北市,南港區,經貿二路66號,25.057297,121.61647,07-960-1000
台灣高速鐵路公司,22號車列車長室(6.7車間),台北市,南港區,經貿二路66號,25.057297,121.61647,07-960-1000
台灣高速鐵路公司,33號車列車長室(6.7車間),台北市,南港區,經貿二路66號,25.057297,121.61647,07-960-1000
台灣高速鐵路公司,18號車列車長室(6.7車間),台北市,南港區,經貿二路66號,25.057297,121.61647,07-960-1000
台灣高速鐵路公司,21號車列車長室(6.7車間),台北市,南港區,經貿二路66號,25.057297,121.61647,07-960-1000
長庚生技身心靈轉化中心,健身房入口,台北市,松山區,民生東路4段54號1樓,25.05771,121.551082,935955098
大葉高島屋百貨股份有限公司,1F忠誠服務台旁,台北市,士林區,忠誠路2段55號,25.111857,121.531367,(02)2838-9951
臺北市立士林高級商業職業學校,健康中心,台北市,士林區,士商路150號,25.095825,121.515731,28313114-304
華泰王子大飯店,一樓大廳,台北市,中山區,林森北路369號,25.057855,121.525699,02-77216677
保證責任臺北市台北地下街場地利用合作社,Y13出入口廁所,台北市,中正區,市民大道一段100號B1,25.049398,121.514851,02-25594566分機508
太平洋崇光百貨股份有限公司,SOGO忠孝店1樓西後出入口旁,台北市,大安區,忠孝東路4段45號,25.041969,121.544902,02-77135555#8754
東吳大學(雙溪校區),雙溪校區綜合大樓1樓軍訓室門口,台北市,士林區,臨溪路70號,25.094004,121.546276,02-28819471-7523
老爺大酒店股份有限公司,在 1樓大廳,台北市,中山區,中山北路2段37-1號,25.053924,121.522844,02-25423299 分機357
台北君悅酒店,一樓商務中心旁,台北市,信義區,松壽路2號,25.035691,121.562593,02-27201200#3082
誠品站前店（台北車站K區地下街）,誠品站前店,台北市,中正區,忠孝西路1段47號B1F,25.046392,121.51743,02-6632-8168*100
三德觀光大飯店股份有限公司,一樓大廳,台北市,大同區,承德路3段49號,25.064848,121.518555,25963121#3310
誠品生活信義店,B2F外籍旅客退稅服務中心,台北市,信義區,松高路11號,25.039367,121.565775,(02)87893388#2322
誠品生活松菸店,3F 書店讀者服務中心,台北市,信義區,菸廠路88號,25.044545,121.561457,939400870
誠品生活松菸店,B2F 顧客服務中心,台北市,信義區,菸廠路88號,25.044545,121.561457,939400870
誠品書店劇場店,誠品書店劇場生活店後門旁,台北市,中正區,中山南路21-1號,25.035037,121.517911,02-23935559
臺北高等行政法院,本院1樓法警室,台北市,士林區,文林路725號,25.101359,121.518767,2833-3822分機311
臺北捷運木柵站BR02,捷運木柵站1樓大廳,台北市,文山區,木柵路4段135號,24.998241,121.573145,(02)27828660#3039
臺北捷運新北投站R22A,捷運新北投站_大廳,台北市,北投區,大業路700號,25.136933,121.50253,25505600轉4338
臺北捷運南京復興站BR11,捷運文湖線南京復興站3樓大廳,台北市,松山區,南京東路3段253號,25.052256,121.543969,(02)27828660#3039
國立國父紀念館,1樓東側門內左側,台北市,北投區,仁愛路4段505號,25.07996,121.480936,27588008-563
台灣高速鐵路(股)公司-南港車站,台灣高速鐵路(股)公司-南港車站,台北市,南港區,南港路一段313號,25.053189,121.607064,03-2623000ext29119
臺北市大同發展中心,臺北市大同區昌吉街52號7樓,台北市,大同區,昌吉街52號7樓,25.065787,121.51627,02-2598-6886#16
桃園捷運A1台北車站,B1預辦登機層詢問處附近,台北市,中正區,鄭州路8號,25.049258,121.512276,(03)283-8888分機71165
桃園捷運A1台北車站,B1預辦登機層預辦登機區,台北市,中正區,鄭州路8號,25.049258,121.512276,(03)283-8888分機71165
台北市景文高級中學,創新樓一樓走廊底(健康中心旁),台北市,文山區,保儀路127號,24.985368,121.567395,29390310#252
桃園捷運A1台北車站,B1預辦登機層預辦登機區,台北市,中正區,鄭州路8號,25.049258,121.512276,(03)283-8888分機71165
誠品股份有限公司196號辦公室,松德大辦公室門口,台北市,信義區,松德路196號B1F,25.034946,121.574281,02-87898880#235
臺北市大安區大安國民小學,大安國小,台北市,大安區,臥龍街129號,25.020009,121.549095,27322332*886
臺北捷運景美站G05,地下1樓大廳層詢問處附近,台北市,文山區,羅斯福路6段393號B1,24.992807,121.540836,910690176
臺北捷運行天宮站O09,臺北捷運行天宮站O09,台北市,中山區,松江路316號,25.059759,121.533095,(02)25505600轉7920
臺北捷運麟光站BR06,捷運麟光站1樓大廳,台北市,大安區,和平東路3段410號,25.018535,121.558791,(02)27828660#3039
臺北捷運中正紀念堂站R08,臺北捷運中正紀念堂站,台北市,中正區,中正區羅斯福路1段8-1號,25.032755,121.51822,02-21812345
臺北捷運北投站R22,北投站付費大廳詢問處旁,台北市,北投區,台北市北投區光明路1號,25.131956,121.498645,25505600轉4338
臺北捷運雙連站R12,捷運淡水線雙連站B1大廳層南非付費區通道,台北市,大同區,民生西路47號,25.057779,121.520661,25505600-4131
臺北捷運大直站BR14,詢問處附近,台北市,中山區,北安路534-1號,25.079497,121.546844,(02)87975345
臺北捷運圓山站R14,捷運淡水線圓山站1F大廳層詢問處對面靠近親子廁所(付費區),台北市,大同區,酒泉街9之1號,25.071353,121.520118,25505600-4131
臺北捷運萬芳社區站BR03,捷運萬芳社區站1樓大廳,台北市,文山區,萬芳路60號,24.998605,121.568058,(02)27828660#3039
臺北捷運南港展覽館站BL23,西側大廳,台北市,南港區,研究院路1段1號B1,25.055288,121.61744,02-2550-5600#6108
臺北捷運東湖站BR22,主詢問處附近,台北市,內湖區,康寧路3段235號,25.067274,121.611483,(02)87975345
台灣高速鐵路(股)公司-台北車站,二月台站務室北側柱面,台北市,中正區,北平西路3號,25.047924,121.517081,03-2623000ext29119
伸適開發股份有限公司,1F大廳,台北市,中山區,林森北路477號,25.060814,121.525722,02-77431300
財團法人國家實驗研究院國家實驗動物中心-台北中心,國家實驗動物中心前棟1樓大廳,台北市,南港區,研究院路2段128號,25.04413,121.613116,02-27895881
前山公園女公共浴室,管理室內,台北市,北投區,紗帽路108-1號,25.149135,121.548604,02-28616361
禮客時尚館 公館店,特賣區正對面走道上,台北市,中正區,思源街16號1F,25.014415,121.531095,02-23625556
國家文官學院,教學大樓1樓服務中心前,台北市,南港區,忠孝東路7段576號,25.052615,121.613619,02-26531667
國家圖書館,入口左側,台北市,中正區,中山南路20號,25.037241,121.516883,(02)23619132#850
誠品敦南店,誠品敦南店1樓,台北市,大安區,敦化南路1段245號,25.039489,121.549328,27755977*527
臺北捷運忠義站R24,一月台中間,台北市,北投區,中央北路4段301號,25.130969,121.47341,25505600轉4338
臺北捷運中山國中站BR12,捷運中山國中站3樓大廳,台北市,中山區,復興北路376號,25.060809,121.544151,(02)27828660#3039
臺北捷運大安站BR09,捷運文湖線大安站1樓大廳,台北市,大安區,信義路4段2號,25.033246,121.543572,(02)27828660#3039
臺北捷運科技大樓站BR08,捷運科技大樓站3樓大廳,台北市,大安區,復興南路2段235號,25.026154,121.543422,(02)27828660#3039
臺北捷運辛亥站BR05,捷運辛亥站1樓大廳,台北市,文山區,辛亥路4段128號,25.005475,121.557107,(02)27828660#3039
臺北捷運古亭站G09,地下1樓大廳層詢問處附近,台北市,中正區,羅斯福路2段164-1號,25.026377,121.522814,910690176
臺北捷運內湖站BR19,主詢問處附近,台北市,內湖區,成功路4段186號,25.083682,121.594368,(02)87975345
臺北捷運葫洲站BR21,主詢問處附近,台北市,內湖區,康寧路3段16號,25.072723,121.607111,(02)87975345
臺北捷運明德站R18,捷運淡水線明德站詢問處旁(付費區),台北市,北投區,明德路95號,25.109721,121.518848,25505600-4131
臺北捷運忠孝新生站BL14,西側大廳,台北市,中正區,新生南路1段67號B1,25.042378,121.532862,02-2550-5600#6108
臺北捷運忠孝復興站BL15,西側大廳,台北市,大安區,忠孝東路4段47號B1,25.041654,121.543706,02-2550-5600#6108
臺北捷運國父紀念館站BL17,東側大廳,台北市,信義區,忠孝東路4段400號B1,25.04137,121.557764,02-2550-5600#6108
臺北捷運永春站BL19,東側大廳,台北市,信義區,忠孝東路5段455號B1,25.040879,121.576233,02-2550-5600#6108
臺北捷運南港站BL22,中偏東側大廳,台北市,南港區,忠孝東路7段380號B1,25.052139,121.606652,02-2550-5600#6108
教育部第二辦公室,大門電梯入口處,台北市,中正區,忠孝東路1段172號,25.043878,121.526315,277366014
歐艾斯綜合設施管理服務,台資大樓10樓歐艾斯設施管理服務公司門口,台北市,松山區,八德路三段20號10樓之1及之2,25.04807,121.551105,926671897
臺北市勞動檢查處,大門左手邊走道旁,台北市,萬華區,艋舺大道101號7樓,25.03346,121.501347,02-2308-6101#804
台灣高速鐵路(股)公司-台北車站,一月台站務室北側柱面,台北市,中正區,北平西路3號,25.047924,121.517081,03-2623000ext29119
台北市河濱自行車租借站關渡站,關渡租借站內,台北市,北投區,知行路上，關渡宮北側，關渡碼頭旁。,25.12242,121.461888,977320538
台北市河濱自行車租借站觀山站,台北市河濱自行車租借站觀山站,台北市,大同區,塔悠路轉入塔悠疏散門往大直橋方向，高速公路橋下方。,25.071062,121.570179,977320538
台灣高速鐵路公司,14號車列車長室(6.7車間),台北市,南港區,經貿二路66號,25.057297,121.61647,07-960-1000
台灣高速鐵路公司,17號車列車長室(6.7車間),台北市,南港區,經貿二路66號,25.057297,121.61647,07-960-1000
台灣高速鐵路公司,28號車列車長室(6.7車間),台北市,南港區,經貿二路66號,25.057297,121.61647,07-960-1000
臺北市立動物園,新光特展館,台北市,文山區,新光路二段30號,24.998347,121.581036,02-29382300-613
內湖區忠勇山步道旁慈聖宮,慈聖宮門口前方右手邊,台北市,內湖區,內湖路2段256巷16號,25.086703,121.575101,02-27828877
臺北市政府衛生局社區心理衛生中心,1樓大廳,台北市,中正區,金山南路一段5號,25.041679,121.529652,02-33936779#69
保證責任臺北市台北地下街場地利用合作社,Y19出入口廁所,台北市,中正區,市民大道一段100號B1,25.049598,121.512922,02-25594566分機508
台北市立木柵高工,健康中心,台北市,文山區,木柵路4段77號,24.996002,121.571925,953761751
美麗華大直影城,6樓客梯左方,台北市,中山區,敬業三路22號6樓,25.08343,121.556949,285022208
臺北市政府社會局大同之家,大同之家社工員辦公室內,台北市,北投區,東昇路12巷4號,25.146091,121.523027,23036783
臺北市立圖書館景新分館,7樓的落地窗旁,台北市,文山區,景後街151號5-10樓,24.990124,121.542015,2933-1244
臺北市立圖書館葫蘆堵分館,圖書館五樓,台北市,士林區,延平北路五段136巷1號5樓,25.082193,121.510873,922366336
衛理女中,健康中心,台北市,士林區,至善路2段321號,25.101757,121.55231,28411487143
臺北市立圖書館東湖分館,圖書館大門入口右側,台北市,內湖區,五分街6號,25.067415,121.61261,02-26323378
欣欣秀泰影城,5樓客梯左側,台北市,中山區,林森北路247號3~5樓,25.05421,121.525601,25371889
洛德城堡親水體驗教育區,洛德城堡二樓櫃台旁,台北市,中正區,汀州路三段160巷底,25.012334,121.533275,23677556
臺北市立大學天母校區,體育館一樓保全櫃台旁,台北市,士林區,忠誠路二段101號,25.115977,121.535104,02-28718288*1201
中國文化大學推廣教育部 大新館,大新館一樓,台北市,中正區,延平南路127號一樓,25.038274,121.50869,02-27005858#8331
台北市北投區春天酒店股份有限公司,1樓大廳櫃台,台北市,北投區,幽雅路18號,25.137602,121.513616,975359014
臺北市立社會教育館-城市舞台(後台),本館城市舞台後台處,台北市,松山區,八德路三段25號,25.048514,121.551849,02-25775931分機550
台北市私立方濟高級中學--川堂,本校川堂入口處,台北市,內湖區,成功路3段61號,25.077309,121.59053,27910279*65
臺北市私立強恕高中,健康中心內,台北市,中正區,汀州路2段143號,25.025111,121.520172,23656571
台北市私立再興中學,教官室,台北市,文山區,興隆路四段二號,24.990528,121.558974,29366803#153
香港商世界健身事業有限公司南京分公司,一樓櫃檯,台北市,松山區,南京東路5段196號1樓,25.051197,121.564067,02-2766-9888
臺北市北投區文化國民小學,學校正門穿堂,台北市,北投區,文化三路一號,25.137094,121.496669,28933828#125
臺北市政府社會局委託天主教耕莘醫療財團法人永和耕莘醫院經營管理臺北市至善老人安養護中心,安養區3樓工作站正前方,台北市,士林區,仰德大道二段二巷50號,25.101946,121.543183,2883-2666#156
台北市私立華岡藝術學校,保健室,台北市,士林區,建業路73巷8號,25.136665,121.550028,(02)28612354#34
立榮航空股份有限公司,立榮客機,台北市,中山區,長安東路二段117號8樓,25.048523,121.535525,03-3515340
台北喜來登大飯店,17樓俱樂部內,台北市,中正區,忠孝東路1段12號,25.044972,121.522054,02-66331680
立榮航空股份有限公司,立榮客機,台北市,中山區,長安東路二段117號8樓,25.048501,121.535545,03-3515340
立榮航空股份有限公司,立榮客機,台北市,中山區,長安東路二段117號8樓,25.048501,121.535545,03-3515340
立榮航空股份有限公司,立榮客機,台北市,中山區,長安東路二段117號8樓,25.048501,121.535545,03-3515340
立榮航空股份有限公司,立榮客機,台北市,中山區,長安東路二段117號8樓,25.048501,121.535545,03-3515340
和泰汽車股份有限公司,4樓管理部入口,台北市,中山區,松江路121號8樓,25.052523,121.533406,(02)2506-2121#1293
北都汽車股份有限公司-內湖所廠,營業櫃檯後方,台北市,內湖區,內湖路一段91巷34號,25.085628,121.56227,938991062
國都汽車天母營業所,營業所展示間,台北市,士林區,忠誠路1段22號,25.104391,121.525951,2833-5215
臺北市立桃源國小,教務處,台北市,北投區,中央北路三段40巷45號,25.139607,121.484481,02-28941208-106
華山1914文化創意產業園區,紅磚區哨亭,台北市,中正區,八德路一段一號,25.04413,121.529399,02-23581914#582
台北市立新民國民中學,健康中心門口,台北市,北投區,新民路10號,25.138039,121.507974,28979001#331
士林市場自治會,士林市場服務台內,台北市,士林區,基河路101號,25.087887,121.52411,28837901
台北世貿中心展覽大樓,展覽大樓5樓D區21室前,台北市,信義區,信義路5段5號,25.033259,121.562324,02-27251361
國立臺灣師範大學公館校區,公館校區體育運動大樓一樓,台北市,文山區,汀州路4段88號,25.007989,121.536899,02-77343107
衛生福利部國民健康署台北辦公室,1樓梯廳北側,台北市,大同區,塔城街36號,25.051644,121.510316,(02)2522-0941
台北世貿中心展覽三館,大聽內左側,台北市,信義區,松壽路六號,25.035487,121.564467,02-27255200轉2803
Curves女性專用30分鐘健身中心天母店,3樓健身房面向運動區左方柱子後側,台北市,士林區,天母西路3號3樓之11,25.118609,121.529291,02-28766108
北都汽車股份有限公司-信義廠,客休室助理背後,台北市,信義區,基隆路二段149-36號,25.02652,121.555235,02-23773278
南港展覽館,1樓大廳,台北市,南港區,經貿二路1號,25.056916,121.617875,02-27255200-5518
Curves女性專用30分鐘健身中心民權龍江店,大門入口旁,台北市,中山區,民權東路三段21號7樓701室,25.062559,121.541708,02-25093303
北都汽車股份有限公司-文山所廠,一樓辦公室左側,台北市,文山區,羅斯福路六段92巷2號B1,24.998245,121.540099,02-29339938
永豐證券投資信託股份有限公司,13樓電梯梯廳,台北市,中正區,博愛路17號13樓,25.045649,121.511466,939598333
家福股份有限公司,5樓總機,台北市,北投區,大業路136號5樓,25.124113,121.499354,02-2898-1999#8653
城市學校財團法人臺北城市科技大學,財經大樓大廳,台北市,北投區,學園路2號,25.136126,121.47023,02-2895-2619
臺北市文山區萬芳國民小學,學校川堂,台北市,文山區,萬和街1號,25.003231,121.567433,22301232*25
台北市立吳興國小,健康中心內,台北市,信義區,松仁路226號,25.025743,121.568716,02-27589615
臺北市立關渡國民中學,學務處走廊,台北市,北投區,知行路212號,25.119885,121.467145,02-28581770*36
臺北市立大學附設實驗國民小學,學生事務處健康中心,台北市,中正區,公園路29號,25.036073,121.515246,23113040*118
玉山商業銀行股份有限公司,玉山銀行總部大樓大門入口右側,台北市,松山區,民生東路3段115號,25.058139,121.546428,02-21751313#8725
臺北市立士林國民中學,繁星樓B1游泳池,台北市,士林區,中正路345號,25.094225,121.522739,02-88613411
臺北市立士林國民中學,健康中心,台北市,士林區,中正路345號,25.092619,121.51961,02-88613411
好動魂企業社,門口進入後的柱子上,台北市,信義區,嘉興街180號6樓,25.028075,121.557003,916070280
台北市立百齡高級中學,活動中心2樓樓梯口右側,台北市,士林區,承德路4段177號,25.08705,121.522991,0933-054454
臺北市立濱江國中,文樓1樓健康中心外走廊,台北市,中山區,樂群二路262號,25.079733,121.56088,02-85020126*308
國立臺灣師範大學圖書館校區,圖書館校區教育學院一樓大廳左側,台北市,大安區,和平東路1段129號,25.027644,121.529431,02-77343107
家樂福重慶店,B1收銀線,台北市,大同區,重慶北路二段171號,25.059148,121.513807,932005709
臺北市立明德國民中學,活動中心1樓,台北市,北投區,台北市北投區明德路50號,25.108023,121.51866,28232539-511
可爾姿女性專用30分鐘運動劍潭店,台北市士林區承德路4段191號2樓,台北市,士林區,承德路4段191號2樓,25.088152,121.522336,28821978
南山民生大樓,1F櫃台旁,台北市,中山區,民生東路三段8號、10號,25.057677,121.538479,25159530
國立臺灣工藝研究發展中心臺北當代工藝設計分館,台北市南海路41號4樓,台北市,中正區,台北市南海路41號,25.031964,121.512364,23887066*116
裕融企業股份有限公司,13樓電梯出口左手處,台北市,大安區,敦化南路二段2號13樓,25.033037,121.54904,27025055#1131
光鹽國際健康實業有限公司,"莊敬路325巷60號3F 入門口, 鞋櫃旁邊",台北市,信義區,莊敬路325巷60號3樓,25.028979,121.565036,02-23459995
勞動部,1樓大廳,台北市,大同區,延平北路二段83號,25.056186,121.511767,85902966
大同區景星里辦公處,大同區景星里辦公處,台北市,大同區,伊寧街79號,25.064706,121.510266,953830518
文山雅筑社區管理委員會會客室,文山雅筑社區管理委員會會客室,台北市,文山區,興隆路四段29巷4弄1號,24.990773,121.559839,0939-570597
英業達股份有限公司,台北市士林區後港街66號,台北市,士林區,後港街66號,25.085703,121.52206,(02)2881-0721#21294
臺北市立永春高級中學,行政大樓1樓穿堂,台北市,信義區,松山路654號,25.032819,121.578569,27272983-306
臺灣集中保管結算所股份有限公司(2F),台北市松山區復興北路363號2樓,台北市,松山區,復興北路363號2樓,25.060561,121.544388,02-25141432
中租控股股份有限公司,公司咖啡廳門口,台北市,內湖區,瑞光路362號,25.077252,121.572369,87526388#5955
臺灣集中保管結算所股份有限公司(11F),台北市松山區復興北路363號11樓,台北市,松山區,復興北路363號11樓,25.060561,121.544388,02-25141432
臺北市青少年發展處,9F攀岩館入口,台北市,中正區,仁愛路1段17號,25.039224,121.522475,02-23514078#1753
臺北市古亭地政事務所,本所3F入口處,台北市,文山區,萬隆街47之12號3樓,25.000663,121.536167,02-29355969轉417
奧斯卡建設股份有限公司,辦公室門口右側,台北市,中山區,南京東路二段206號9樓之1,25.05176,121.535832,02-25083385
醫療財團法人好心肝基金會好心肝診所,醫療財團法人好心肝基金會好心肝診所,台北市,中正區,公園路30號2樓之2,25.044454,121.516835,920050872
洛陽立體停車場,管理室布告欄旁,台北市,萬華區,環河南路1段1號,25.047898,121.505319,02-2381-2484
臺北市立永春高級中學,英華樓圖書館前,台北市,信義區,松山路654號,25.032801,121.578562,27272983-306
峨眉立體停車場,管理室附近,台北市,萬華區,峨眉街83號,25.044327,121.505325,2382-2854
大安森林公園地下停車場,管理室附近,台北市,大安區,建國南路2段2號B1,25.033303,121.535844,2709-2940
臺北巿大安區龍安國民小學,臺北巿大安區龍安國民小學,台北市,大安區,新生南路3段33號,25.023922,121.534885,23632077#722
百齡高中地下停車場,管理室服務窗口旁,台北市,士林區,承德路4段175號B1,25.085786,121.52357,2723-6456
台北金融大樓股份有限公司,辦公大樓B2F貨梯管制站,台北市,信義區,信義路5段7號,25.033718,121.564809,02-81018709
臺北市中正區東門國民小學,川堂,台北市,中正區,仁愛路一段2-4號,25.038642,121.520876,23412822
統一時代百貨台北店,B2樓,台北市,信義區,忠孝東路5段8號,25.040587,121.565888,27299699
遠傳股份有限公司-台北館前門市,櫃檯後方,台北市,中正區,館前路43號,25.045439,121.515142,02-23888825
武甲運動事業有限公司古亭營業所,台北市羅斯福路二段93號B1,台北市,大安區,羅斯福路二段93號B1,25.025228,121.524275,963207063
台北市古亭國民小學,健康中心,台北市,大安區,羅斯福路三段201號,25.020583,121.528777,2363-9795
臺北市民生社區中心(民政局管理樓層),9樓健身房,台北市,松山區,民生東路5段163之1號,25.059315,121.562908,02-27606294
臺北市立大安高級工業職業學校,大安高工活動中心管控室,台北市,大安區,復興南路2段52號,25.031843,121.541786,02-27091630#1205
遠傳股份有限公司-台北西寧南門市,櫃檯右後方,台北市,萬華區,西寧南路62號,25.043783,121.506114,02-23148300
新生高架橋下運動場,滑板場與籃球場中間,台北市,中正區,八德路一段1號附近,25.045092,121.530429,02-25702330分機6507
台北市私立薇閣小學,私立薇閣小學健康中心,台北市,北投區,育仁路106號,25.136058,121.50088,28912668#306
臺北市勞動力重建運用處,本處5樓,台北市,萬華區,艋舺大道101號4樓、5樓,25.03335,121.499863,23381600
台北世貿中心展覽大樓,世貿中心展覽大樓南大門哺乳室旁,台北市,信義區,台北市信義路5段5號,25.033962,121.561685,02-27251361
curves女性專用30分鐘健身中心中山錦州店,伸展區,台北市,中山區,中山北路2段117號3樓,25.061077,121.523133,989740126
北投麗禧溫泉酒店,一樓大廳櫃檯旁,台北市,北投區,幽雅路30號,25.137952,121.514833,972769826
立偉電子股份有限公司,3樓辦公室內,台北市,大同區,鄭州路139號3樓,25.050395,121.510304,2553-7885#306
中國文化大學推廣教育部 忠孝分部,忠孝分部國際語言中心一樓服務櫃台旁,台北市,中正區,忠孝東路1段41號1樓,25.044425,121.525787,02-27005858#8331
臺北市立龍門國民中學,龍門國中學務處外,台北市,大安區,建國南路2段269號,25.024673,121.538208,02-27330299轉1006
優力國際安全認證有限公司,一樓逃生疏散樓梯旁,台北市,北投區,大業路260號1F,25.126384,121.498596,02-28967790 # 62727
中國人壽保險股份有限公司-總公司,1樓大廳,台北市,松山區,敦化北路122號,25.053985,121.548513,02-25146263
臺北市立五常國民中學,1樓東側川堂男廁旁,台北市,中山區,復興北路430巷1號,25.063482,121.5431,25014320轉101
台灣精品館,台灣精品館,台北市,中山區,中山北路三段181號,25.072594,121.524852,(02)27255200#1355
台北市中山區永安國小,健康中心前走廊,台北市,中山區,明水路397巷19弄1號,25.078776,121.549406,25334799
臺北市立敦化國民小學,健康中心內,台北市,松山區,敦化北路2號,25.049104,121.548531,2741-4065#127
潤泰旭展股份有限公司,B棟2樓服務台右側,台北市,南港區,忠孝東路七段369號,25.052749,121.606124,02-2652-9051
跨越體適能有限公司,場館必經出入口,台北市,信義區,和平東路三段333號地下,25.018705,121.558744,928055110
財團法人公共電視文化事業基金會,C棟大廳警衛室右邊,台北市,內湖區,康寧路3段75巷100號C棟,25.080745,121.590836,02-26338191
康體健身器材有限公司,店內入口處,台北市,中山區,民權西路36號3樓,25.062605,121.521303,927301027
臺北市萬華區福星國民小學,警衛室,台北市,萬華區,中華路一段66號,25.046784,121.507931,23144668轉132
臺灣菸酒股份有限公司,法務處門口右側,台北市,中正區,南昌路1段四號,25.03407,121.514877,02-23214567#642
臺北市大同區雙蓮國小,活動中心三樓,台北市,大同區,錦西街51號,25.060161,121.51669,02-25570309#1026
國立臺北護理健康大學(城區部),學生活動中心外,台北市,萬華區,內江街89號,25.041755,121.503359,02-28227101*2451
微風置地股份有限公司南京分公司,3F贈獎處旁,台北市,松山區,南京東路三段337號,25.052006,121.548289,02-2175-0999#3528
中鼎工程公司,1F大廳服務台旁,台北市,士林區,中山北路六段89號,25.105726,121.524397,28339999轉12225
臺北市大安地政事務所,1樓大廳,台北市,大安區,信義路4段335巷6號,25.033834,121.556434,(02)2754-8900#402
臺北市市政大樓,市政大樓1樓西大門,台北市,信義區,市府路1號,25.037525,121.563782,227258658
華信航空,27排CD行李櫃內,台北市,松山區,敦化北路405巷123弄3號,25.06304,121.557636,0227171188 ext.3603
華信航空,27排CD行李櫃內,台北市,松山區,敦化北路405巷123弄3號,25.06304,121.557636,0227171188 ext.3603
臺北市立大學天母校區,行政大樓一樓警衛室,台北市,士林區,忠誠路二段101號,25.115897,121.537253,02-28718288*1201
陽明山國家公園管理處遊客中心,遊客中心服務台旁,台北市,北投區,竹子湖路1-20號,25.155336,121.546662,(02)28613601-810
臺北市立大學天母校區,綜合體育館一樓保全櫃台旁,台北市,士林區,忠誠路二段101號,25.114404,121.536998,02-28718288*1201
國立臺灣師範大學,公館校區學七舍1樓,台北市,文山區,汀州路4段88號,25.007963,121.536905,02-77343107
臺北市藝文推廣處,藝文大樓一樓大廳服務台處,台北市,松山區,八德路三段25號,25.048342,121.552247,2577-5931*342
振興醫療財團法人振興醫院,急診入口處,台北市,北投區,振興街45號,25.117512,121.522467,28264400#6588
欣葉國際餐飲-日本料理健康店,餐廳入口處,台北市,松山區,健康路156號,25.053597,121.557174,0976-183-107
漾館時尚溫泉飯店,大廳公廁前方,台北市,北投區,溫泉路63號,25.135224,121.504667,02-28911118
中國文化大學,大恩館,台北市,士林區,華岡路55號,25.137718,121.541006,(02)28610511#12304
臺北市內湖運動中心,7樓游泳池,台北市,內湖區,洲子街12號,25.078266,121.575229,02-26277776#128
交通部民用航空局臺北國際航空站(松山機場)-3樓全區,3樓觀景台,台北市,松山區,敦化北路340-9號,25.064152,121.550637,02-87703418
交通部民用航空局臺北國際航空站(松山機場)-國內線候機室,國內線內候機室1樓,台北市,松山區,敦化北路340-9號,25.064167,121.549717,02-87703418
國立臺灣科技大學,第4教學大樓,台北市,大安區,基隆路4段43號,25.014101,121.541458,02-27376136
台北威斯汀六福皇宮,面對大廳右側門邊,台北市,中山區,南京東路3段133號,25.052132,121.541281,02-35183119
台北銘傳大學,A棟學務處1樓誠實商店,台北市,士林區,中山北路5段250號,25.086068,121.527551,03-3507001*3172
國立陽明大學,人文與社會教育中心1樓便利商店學生休息區,台北市,北投區,立農街2段155號,25.119633,121.513336,28267000#2358
新光三越百貨(股)公司台北南西分公司二館,服務台,台北市,中山區,南京西路14號B1樓,25.052374,121.520706,2564-1111#303
新光三越百貨（股）公司台北南西分公司,1樓服務台,台北市,中山區,南京西路12號1樓服務台,25.052266,121.521052,02-25682868#3617
新光三越百貨股份有限公司台北天母分公司,A棟6樓醫護室,台北市,士林區,天母東路68號,25.11792,121.53393,28756000分機3023
交通部臺灣鐵路管理局臺北運務段臺北站,1F值班站長室旁,台北市,中正區,北平西路3號,25.047924,121.517081,02-2381-5226#2476
香港商世界健身事業有限公司台北分公司,忠孝西路店客服櫃台正前方,台北市,中正區,忠孝西路1段50號6樓、6樓之一,25.046387,121.51584,(02)2311-7000
香港商世界健身事業有限公司內湖分公司,內湖店6樓心肺區,台北市,內湖區,康寧路3段72號6樓,25.070238,121.611276,02-26345488
台北日新威秀影城,2F大廳,台北市,萬華區,武昌街2段87號,25.045406,121.504409,23315256
交通部民用航空局臺北國際航空站(松山機場)-出境證照查驗大廳,國際線共用貴賓室,台北市,松山區,敦化北路340-9號,25.063677,121.551881,02-87703418
交通部民用航空局臺北國際航空站(松山機場)-國際線入境大廳,國際線入境行李提領大廳,台北市,松山區,敦化北路340-9號,25.064337,121.551238,02-87703418
國立臺灣科技大學,警衛室大門口,台北市,大安區,基隆路4段43號,25.013731,121.540643,02-27376136
國立臺灣科技大學,TR1F,台北市,大安區,基隆路4段43號,25.015088,121.542743,02-27376136
立法院群賢樓,立法院群賢樓一樓大廳,台北市,中正區,濟南路一段1號,25.043252,121.519895,02-2358-1473
臺北市災害應變中心,5樓辦公室入口處,台北市,信義區,莊敬路391巷11弄2號,25.028846,121.566153,27297668#8825
德明財經科技大學,學務處衛保組,台北市,內湖區,環山路1段56號,25.086532,121.565506,(02)26585801-2241
德明財經科技大學,又新樓1樓,台北市,內湖區,環山路1段56號,25.086532,121.565506,(02)26585801-2241
行政院人事行政總處公務人力發展中心福華國際文教會館,1樓大廳東側,台北市,大安區,新生南路3段30號,25.022831,121.534192,955108113
國立臺北藝術大學,警衛室,台北市,北投區,學園路1號,25.132508,121.46957,02-28938803
玉成公園游泳池,入口大廳,台北市,南港區,中坡南路55號,25.041859,121.585279,02-2726-5151
交通部公路總局台北市區監理所士林監理站,辦公大樓一樓,台北市,士林區,承德路5段80號,25.094378,121.51417,(02)27630155*711
衛生福利部食品藥物管理署,本署大門右側,台北市,南港區,昆陽街161之2號,25.048951,121.594442,02-27877851
華信航空,27排CD行李櫃內,台北市,松山區,敦化北路405巷123弄3號,25.06304,121.557636,0227171188 ext.3603
華信航空,27排CD 行李櫃內,台北市,松山區,敦化北路405巷123弄3號,25.06304,121.557636,0227171188 ext.3603
交通部鐵路管理局南港火車站,第二月台行車室門前,台北市,南港區,南港路1段313號,25.053216,121.607058,02-23815226*8722
台北金融大樓股份有限公司,台北101尊榮俱樂部,台北市,信義區,市府路45號,25.033493,121.564101,02-81018929
香港商世界健身事業有限公司忠孝分公司,三樓櫃檯旁,台北市,大安區,忠孝東路4段201號3樓,25.041677,121.551655,(02)27739000
台北醫學大學,綜合大樓,台北市,信義區,吳興街250號,25.025529,121.561582,27361661~2250
臺北市政府消防局城中分隊,1樓值班室,台北市,中正區,忠孝西路1段86號,25.046998,121.513444,23812839
國立台灣大學-芳蘭校區(芳蘭路71號),環研大樓,台北市,大安區,芳蘭路71號,25.011865,121.545055,33662003
國立台灣大學,戲劇1號館,台北市,大安區,羅斯福路四段1號,25.016741,121.534654,33662003
國立台灣大學,文學院大樓,台北市,大安區,羅斯福路四段1號,25.018034,121.536783,33662003
國立故宮博物院,地下一樓醫務室醫務室,台北市,士林區,至善路2段221號,25.10409,121.555946,66103600*2267
交通部民用航空局臺北國際航空站(松山機場)-國際線出境報到大廳,國際線報到大廳,台北市,松山區,敦化北路340-9號,25.06369,121.552742,02-87703418
交通部民用航空局臺北國際航空站(松山機場)-國際線候機室,國際線2樓內候機室,台北市,松山區,敦化北路340-9號,25.064497,121.551788,02-87703418
交通部民用航空局臺北國際航空站(松山機場)-入境證照查驗大廳,國際線入境證照查驗大廳,台北市,松山區,敦化北路340-9號,25.064259,121.55157,02-87703418
台北私立華興高級中學,美齡樓4樓,台北市,士林區,仰德大道1段101號,25.104975,121.538437,28316834
和泰興業股份有限公司,1樓大門口,台北市,內湖區,新湖一路36巷18號1樓,25.058408,121.574789,02-25148887分機238
德明財經科技大學,宿舍門口,台北市,內湖區,環山路1段56號,25.086532,121.565506,(02)26585801-2241
立法院,中山南路大門口左側,台北市,中正區,中山南路1號,25.044,121.51958,02-23585238
統一綜合證券集團大樓,10樓梯廳,台北市,松山區,東興路8號,25.050177,121.565239,02-27478266轉3499
統一綜合證券集團大樓,1樓大廳,台北市,松山區,東興路8號,25.050093,121.565294,(02)27478266轉3385
芙尼斯有限公司(Body Body Fitness),櫃台右邊牆掛上,台北市,松山區,八德路四段620號1樓,25.049851,121.573798,0953-264300
誠隆汽車股份有限公司民權分公司,服務廠客休室,台北市,內湖區,民權東路六段23號2樓,25.068579,121.5828,02-87925000
誠隆汽車股份有限公司承德服務廠,承德服務廠客休室,台北市,北投區,承德路6段339號,25.103888,121.511629,02-87925000
誠隆汽車股份有限公司新生展示中心,新生展示中心,台北市,大安區,新生南路一段175號,25.034032,121.532956,02-87925000
誠隆汽車股份有限公司景美展示中心,景美展示中心,台北市,文山區,羅斯福路五段88號,25.00747,121.538115,02-87925000
南海開發大樓,台北市南海路20號一樓,台北市,中正區,南海路20號,25.032422,121.517117,972110368
臺灣菸酒股份有限公司台北啤酒工場,打卡室內,台北市,中山區,八德路二段85號,25.047119,121.534198,0227719131#392
台北市萬華老人服務中心,台北市萬華老人服務中心,台北市,萬華區,西寧南路4號A棟3樓,25.0479,121.506969,02-23610666
台北亞都麗緻大飯店,台北市民權東路二段41號,台北市,中山區,民權東路2段41號,25.06282,121.530058,02-25971234
臺灣集中保管結算所股份有限公司(7F),台北市松山區復興北路363號7樓,台北市,松山區,復興北路363號7樓,25.060561,121.544388,02-25141432
活泉足體養身世界,大門右側,台北市,中山區,民權東路2段134號1樓,25.062315,121.532887,02-25712017
臺灣集中保管結算所股份有限公司(9F),台北市松山區復興北路363號9樓,台北市,松山區,復興北路363號9樓,25.060561,121.544388,02-25141432
財團法人台灣省私立健順養護中心受託經營管理臺北市南港老人服務暨日間照顧中心,二樓日照中心外,台北市,南港區,重陽路187巷5號,25.057718,121.598498,02-26535311轉13
統一超商股份有限公司總公司,總公司辦公室2F,台北市,信義區,東興路65號2F,25.046907,121.566594,02-2747-8711 #3880
韋德伍斯健身有限公司,館內三樓,台北市,大同區,天水路1號,25.05364,121.514046,925951256
臺灣集中保管結算所股份有限公司(南港),台北市南港區三重路19 之6 號C 棟5. 樓,台北市,南港區,三重路19 之6 號C 棟5. 樓,25.056034,121.613791,02-2655-3788#629
台北市文山區明興社區生態館,台北市文山區明興社區生態館,台北市,文山區,秀明路一段19巷1號,24.98958,121.563719,0966-100368
財團法人台北市中山基督長老教會,大教堂內,台北市,中山區,林森北路62號,25.049055,121.524417,02-2551-8480#117
社團法人中華民國軍人之友社台北國軍英雄館,一樓大廳服務櫃檯旁,台北市,中正區,台北市長沙街1段20號,25.040286,121.508698,02-23715434
玉山銀行商業股份有限公司-登峰大樓A棟,辦公大樓門口左側,台北市,中山區,撫順街四十一巷十三號,25.06427,121.519508,02-21751313#8709
南方桃花源社區管理委員會,南方桃花源社區管理委員會26弄口,台北市,文山區,木柵路二段109巷27弄2號,24.990486,121.563053,0963-391503
金色三麥餐飲股份有限公司-南港店,南港店門口,台北市,南港區,忠孝東路7段299號C棟1樓,25.052672,121.605048,(02)2782-7000
臺北市立南港國小-緯創運動行銷公司,活動中心,台北市,南港區,惠民街67號,25.057163,121.610384,02-2785-2354
新光三越百貨(股)公司台北南西分公司三館,4F顧客服務中心,台北市,中山區,南京西路15號4樓,25.052708,121.520607,02-25641111#2303
欣欣大眾市場股份有限公司,B1美食街,台北市,中山區,林森北路247號,25.054093,121.525708,920685177
時代國際飯店股份有限公司(台北W飯店),10樓服務中心櫃檯後方,台北市,信義區,忠孝東路5段10號,25.040671,121.565975,02-77038911
京庚健康世界股份有限公司101分公司,健身中心6樓,台北市,信義區,市府路45號6樓之2,25.033493,121.564101,02-81018018
京庚健康世界股份有限公司民生分公司,地下1樓入口左側,台北市,松山區,民生東路3段156號地下1樓,25.057461,121.547572,02-87128200
台北金融大樓股份有限公司,辦公大樓35樓,台北市,信義區,信義路5段7號35樓,25.033718,121.564809,02-81018709
台北金融大樓股份有限公司,觀景台B1團客區,台北市,信義區,信義路5段7號,25.033718,121.564809,989135840
國立台灣大學,女八.九舍,台北市,大安區,羅斯福路4段1號,25.016959,121.533851,33662003
國立台灣大學,女一舍,台北市,大安區,羅斯福路4段1號,25.015132,121.534815,33662003
台北金融大樓股份有限公司,商場B2停車場橘2梯廳,台北市,信義區,市府路45號,25.033493,121.564101,02-81018929
國立台灣大學-長興校區(長興街50號),男七舍,台北市,大安區,長興街50號,25.014937,121.547021,33662003
君品酒店,六樓大廳,台北市,大同區,承德路1段3號,25.049469,121.516874,975684830
國立台灣大學,語文中心,台北市,大安區,羅斯福路4段1號,25.020644,121.54097,33662003
台北金融大樓股份有限公司,商場1樓保全中繼站,台北市,信義區,市府路45號,25.033493,121.564101,02-81018929
國立台灣大學,普通大樓,台北市,大安區,羅斯福路四段1號,25.018563,121.536633,33662003
台北金融大樓股份有限公司,商場4樓都會廣場,台北市,信義區,市府路45號,25.033493,121.564101,02-81018929
國立台灣大學-水源校區(思源街18號),水源校區修齊會館,台北市,大安區,思源街18號,25.013948,121.530447,33662003
國立台灣大學,管理研教館,台北市,大安區,羅斯福路四段1號,25.013041,121.538728,33662003
國立台灣大學,化學思亮館,台北市,大安區,羅斯福路四段1號,25.020877,121.538599,33662003
國立台灣大學-醫學校區,醫學基醫大樓,台北市,中正區,仁愛路1段1號,25.040558,121.521285,33662003
國立台灣大學,生科館,台北市,大安區,羅斯福路四段1號,25.014976,121.538739,33662003
國立台灣大學,資工德田館,台北市,大安區,羅斯福路四段1號,25.019468,121.541681,33662003
台北銘傳大學,男生宿舍2樓,台北市,士林區,中山北路5段250號,25.086063,121.527542,916134606
交通部臺灣鐵路管理局臺北運務段松山站,松山站旅客諮詢服務中心旁,台北市,信義區,松山路11號,25.04919,121.578299,02-2766-6323
世新大學,後校門警衛室,台北市,文山區,試院路148號,24.989972,121.546917,22368225#2079
公務人員保障暨培訓委員會,玉衡樓1樓大廳,台北市,文山區,試院路1之3號,24.987862,121.549293,02-82366922
台北金融大樓股份有限公司,觀景台89樓西面服務台,台北市,信義區,信義路5段7號,25.033718,121.564809,989135840
國立台灣大學,辛亥路警衛室內,台北市,大安區,羅斯福路四段1號,25.020795,121.543344,33662003
國立台灣大學,農產中心,台北市,大安區,羅斯福路四段1號,25.015773,121.538149,33662003
台北金融大樓股份有限公司,商場B2-B5停車場機巡,台北市,信義區,市府路45號,25.033493,121.564101,02-81018929
香港商世界健身事業有限公司西門分公司,會員休息區,台北市,萬華區,西寧南路36號B1,25.045226,121.506498,913706806
國立台灣大學,羅斯福路崗亭,台北市,大安區,羅斯福路四段1號,25.016677,121.533632,33662003
國立台灣大學-芳蘭校區(基隆路三段155巷50號),動科畜產館,台北市,大安區,基隆路三段155巷50號,25.01272,121.5442,33662003
國立台灣大學,電機明達館,台北市,大安區,羅斯福路四段1號,25.018068,121.543591,33662003
國立台灣大學,第2活動中心,台北市,大安區,羅斯福路4段1號,25.016959,121.533851,33662003
國立台灣大學,電機2館,台北市,大安區,羅斯福路4段1號,25.016959,121.533851,33662003
國立台灣大學,女四舍,台北市,大安區,羅斯福路四段1號,25.041758,121.523632,33662003
台北市私立文德女子高級中學,海星樓一樓川堂,台北市,內湖區,成功路3段70號,25.077577,121.589714,27904570-232
臺北市政府環境保護局山水綠生態公園,管理站,台北市,南港區,南深路37號,25.029077,121.622338,26511434*104
國立台灣大學,園藝加工館,台北市,大安區,羅斯福路四段1號,25.016872,121.537647,33662003
國立台灣大學-長興校區(長興街31號),男八宿舍,台北市,大安區,長興街31號,25.017071,121.545103,33662003
國立台灣大學,應力館,台北市,大安區,羅斯福路四段1號,25.019818,121.540863,33662003
國立台灣大學-醫學校區,醫學國際會議中心,台北市,中正區,仁愛路1段1號,25.040582,121.519091,33662003
國立台灣大學,法律霖澤館,台北市,大安區,羅斯福路四段1號,25.0206,121.54373,33662003
南山人壽保險股份有限公司-南山金融中心,1樓大廳,台北市,信義區,莊敬路168號,25.031794,121.561091,02-87589539
士林203號公園,士林203號公園管理所,台北市,士林區,中山北路五段378巷26號,25.090522,121.530027,02-28832130轉106
僑安地下停車場,監控室附近,台北市,大安區,忠孝東路4段306號B1,25.040691,121.556672,02-2711-5547
城市學校財團法人臺北城市科技大學,愛園大樓2樓宿舍旁,台北市,北投區,學園路2號,25.133617,121.468879,02-2895-2619
臺北市龍山啟能中心,會議室,台北市,萬華區,梧州街36號4樓,25.037327,121.497521,928464177
全球人壽保險股份有限公司,4樓大廳,台北市,信義區,市民大道六段288號4樓,25.049366,121.579005,6613-6557
上海商業儲蓄銀行股份有限公司(總行),一樓保全櫃檯,台北市,中山區,民權東路一段2號,25.062524,121.522997,02-25817111#4226
臺北市政府社會局大安老人服務中心,大廳右側角落,台北市,大安區,辛亥路三段223號3樓,25.016022,121.550788,2733-4012
臺北市大同區太平國民小學,行政大樓一樓中央川堂靠總務處門口,台北市,大同區,延平北路二段239號,25.061411,121.511471,931801803
臺北市北投區湖山國民小學,行政大樓穿堂,台北市,北投區,湖底路11號,25.150082,121.535783,28610148分機1912或122
臺北市政府社會局松山老人服務中心,民生活動中心九樓老人服務中心,台北市,松山區,民生東路五段163號之1九樓,25.059157,121.56257,27565018
臺北巿士林區陽明山國民小學,活動中心1樓川堂,台北市,士林區,仰德大道3段61號,25.119332,121.552817,(02)28616366#132
台北市萬華區西園國民小學,書香樓一樓走廊,台北市,萬華區,東園街73巷65號,25.026663,121.498884,2303-0257#100
臺北市民生社區中心(民政局管理樓層),11樓管理員室,台北市,松山區,民生東路5段163之1號,25.059315,121.562908,02-27606294
南港區胡適國民小學,聯合辦公室外牆面上,台北市,南港區,舊莊街1段一號,25.042389,121.617235,27824949
世新大學,大禮堂4樓體育館,台北市,文山區,試院路148號,24.989642,121.547464,22368225#2079
李長榮化學工業股份有限公司,4樓安全門旁,台北市,松山區,八德路4段83號4樓,25.048609,121.560537,02-27631611#110448
北投焚化廠回饋設施洲美運動公園游泳館,北投焚化廠回饋設施洲美運動公園游泳館,台北市,北投區,洲美街271號(洲美運動公園),25.108801,121.499718,02-28360050轉162
臺北市士林區公所,士林行政中心一樓電梯左側,台北市,士林區,中正路439號1樓,25.092762,121.519559,28826200#6601
臺北市職能發展學院,行政大樓1樓志工服務台旁,台北市,士林區,士東路301號,25.11374,121.537773,28721940#246
衛生福利部疾病管制署,昆陽園區研檢大樓一樓,台北市,南港區,昆陽街161號,25.049134,121.594411,26531336
衛生福利部中央健康保險署臺北業務組,聯合服務中心五樓一號服務台右側,台北市,中正區,公園路15之1號5樓,25.044786,121.517406,02-2388-3417
臺北市政府環境保護局木柵垃圾焚化廠,木柵路5段53號廠房2樓中控室,台北市,文山區,木柵路5段53號,25.005555,121.587701,22300800-216
華信航空,27排CD行李櫃內,台北市,松山區,敦化北路405巷123弄3號,25.06304,121.557636,0227171188 ext.3603
台北華國大飯店,一樓大廳,台北市,中山區,林森北路600號,25.065946,121.525563,02-25965110分機2550
國立教育廣播電臺,大門進入後之大廳右側,台北市,中正區,南海路45號,25.032621,121.51123,02-23880600#180
國立臺灣大學工學院綜合大樓,工學院綜合大樓,台北市,大安區,羅斯福路4段1號,25.018785,121.540994,233663286
中國文化大學推廣教育部 大夏館,六樓電梯口處,台北市,大安區,建國南路2段231號六樓,25.026078,121.538016,02-27005858#8331
陽明山國家公園天溪園生態教育中心,服務站入口進入左側處,台北市,士林區,至善路三段336巷45號,25.133181,121.591633,2841-4855
健身工廠信義廠,4F健身工廠,台北市,信義區,松壽路22號4樓,25.035675,121.567907,07-345-3838
台北市私立延平高級中學,操場 司令台,台北市,大安區,建國南路1段275號,25.036378,121.538413,02-27071478-126
國立歷史博物館,大門入口志工服務台旁,台北市,中正區,南海路49號,25.031454,121.511227,02-23610270-316
中國文化大學,大孝館(體育館),台北市,士林區,華岡路55號,25.137688,121.540962,(02)28610511#12304
國立臺灣師範大學,校本部樂智樓一樓監控室外,台北市,大安區,和平東路1段162號,25.02603,121.528283,02-77343107
交通部民用航空局臺北國際航空站(松山機場)-入境證照查驗大廳,國內線內候機室2樓,台北市,松山區,敦化北路340-9號,25.064201,121.550787,02-87703418
交通部民用航空局臺北國際航空站(松山機場)-行李提領區,國內線行李提領區,台北市,松山區,敦化北路340-9號,25.064167,121.550452,02-87703418
交通部民用航空局臺北國際航空站(松山機場)-3樓全區,國際線3樓入境廊道,台北市,松山區,敦化北路340-9號,25.06423,121.553062,02-87703418
博嘉運動公園,1F服務臺後方,台北市,文山區,木柵路4段159巷16號,25.000284,121.575257,2239-5494分機9
熱海大飯店,飯店大廳,台北市,北投區,光明路258號,25.13677,121.509374,(02)2891-5161分機2299
新光三越百貨股份有限公司台北信義分公司二館,4F醫護室,台北市,信義區,松高路12號,25.038021,121.56673,87801000
交通部臺灣鐵路管理局臺北運務段臺北站,B3F捷運共構轉乘處候車休息區內,台北市,中正區,北平西路3號,25.047924,121.517081,02-2381-5226#2476
中央研究院,綜合體育館大廳,台北市,南港區,研究院路2段128號,25.040461,121.613245,02-27852717-6707
北投公園露天溫泉浴池,整容區,台北市,北投區,中山路6號旁,25.137023,121.508675,02-2896-6939
中國科技大學臺北校區,中正樓2樓,台北市,文山區,興隆路3段56號,24.999143,121.555375,2931-3416#2150
中國科技大學臺北校區,中山育樂館2樓,台北市,文山區,興隆路3段56號,24.999143,121.555375,2931-3416#2150
臺北市政府消防局信義分隊,1樓值班室,台北市,信義區,忠孝東路5段32號,25.040833,121.568976,27588864
三民公園游泳池,大門入口右側,台北市,松山區,撫遠街298號,25.060954,121.566643,2700-3830
台北世界貿易中心國際貿易大樓,一樓大廳服務台,台北市,信義區,基隆路1段333號,25.034417,121.560814,02-27576925
民航人員訓練所,105教室前面,台北市,松山區,濱江街362號,25.071979,121.551039,87703639
統一時代百貨台北店,一樓服務台,台北市,信義區,忠孝東路5段8號,25.040587,121.565888,(02)27299699
臺北市客家文化主題公園,文化中心正門口進去後右側處,台北市,中正區,汀州路3段2號,25.020235,121.525426,23691198#505
北都汽車南港廠,客戶休息室內,台北市,南港區,南港路3段92號,25.053879,121.590551,933129502
北都汽車股份有限公司-萬大廠,客戶休息室,台北市,萬華區,艋舺大道91號,25.033782,121.502704,02-23042255
北都汽車lexus南港營業所、服務廠,門口入口旁,台北市,南港區,南港路3段168號,25.053135,121.587513,27865588
北都汽車股份有限公司-lexus內湖所廠,入口玻璃門旁,台北市,內湖區,瑞光路356號,25.077034,121.572925,2658-8977
國立臺灣師範大學,校本部樸大樓2樓,台北市,大安區,和平東路1段162號,25.026414,121.527575,02-77343107
Curves 可爾姿女性30分鐘環狀運動西門漢中店,櫃台附近更衣室內,台北市,萬華區,漢中街157號2樓,25.041502,121.507173,922859889
Curves女性專用30分鐘健身中心市府永春店,會員等待區,台北市,信義區,忠孝東路5段259號3樓,25.041146,121.57177,02-27566078
Curves女性專用30分鐘健身中心-信義通化店,大門入口側邊櫃子上,台北市,大安區,信義路四段263號3樓之1,25.033406,121.553989,(02)27043470
南港展覽館,4樓服務台,台北市,南港區,經貿二路1號,25.056931,121.617987,02-27255200-5518
台北市私立開南高級商工職業學校,健康中心,台北市,中正區,濟南路一段6號,25.04242,121.521821,02-23941773
台北市私立東山高級中學,健康中心,台北市,文山區,老泉街26巷3號,24.972689,121.561698,29395901-248
日勝生加賀屋國際溫泉飯店,5樓櫃台後方逃生口旁走道,台北市,北投區,光明路236號,25.135951,121.506987,0975-355-636
臺北轉運站,1樓大廳,台北市,大同區,市民大道1段209號1樓,25.049102,121.517077,77335888#3234
台北凱撒大飯店,飯店大廳,台北市,中正區,忠孝西路1段38號,25.046259,121.516422,02-23115151
臺北市私立中興高中,警衛室,台北市,中山區,朱崙街42號,25.049822,121.542091,02-27412542轉216
私立稻江商業職業學校,警衛室,台北市,大同區,民權西路225巷24號,25.06419,121.512032,02-2591-2001
台北金融大樓股份有限公司,觀景台88樓西北側OB電梯入口,台北市,信義區,信義路五段7號,25.033992,121.564756,989135840
臺北市萬華親子館,臺北市萬華親子館,台北市,萬華區,水源路199號2樓,25.02386,121.506936,02-23047468
博嘉運動公園,B1泳池櫃檯,台北市,文山區,木柵路4段159巷16號,25.000284,121.575257,2239-5494分機9
臺北市士林區天母國小,警衛室內,台北市,士林區,天玉街12號,25.120167,121.527422,02-28723336*9307
臺北市政府社會局委託天主教耕莘醫療財團法人永和耕莘醫院經營管理臺北市至善老人安養護中心,地下1樓健身房,台北市,士林區,仰德大道二段二巷50號,25.101946,121.543183,2883-2666#156
全真健身中心古亭店,1F櫃檯旁,台北市,中正區,和平西路一段2號,25.026785,121.521713,976113600
全真概念健康事業股份有限公司-忠孝分公司,地下一樓教練部櫃檯旁,台北市,信義區,忠孝東路4段563號地下一樓,25.041589,121.56405,916592659
台北市中華基督教青年會唭哩岸會館,1樓櫃台旁,台北市,北投區,承德路七段312號,25.117058,121.504508,28227070
糖部文化園區,糖業文化展示館左邊大門入口右側,台北市,萬華區,大理街132-10號,25.033203,121.495065,27208889#3540
臺北市南港運動中心,二樓健身入口處,台北市,南港區,玉成街69號,25.048938,121.58184,0937-995523
凱基證券股份有限公司,員工餐廳入口,台北市,中山區,明水路700號4樓,25.085031,121.551862,02-77358499
實踐大學,體育館1樓衛生保健一組內,台北市,中山區,大直街70號,25.085026,121.544822,915292426
臺北市中山運動中心,2樓健身房旁,台北市,中山區,中山北路2段44巷2號,25.054856,121.521417,02-25811060轉222
淡江大學台北校園,大門警衛台旁,台北市,大安區,金華街199巷5號,25.031176,121.528366,(02)23214032
台北喜來登大飯店,1樓員工出入口安全室門口外面,台北市,中正區,忠孝東路1段12號,25.044972,121.522054,02-66331680
立榮航空股份有限公司,立榮客機,台北市,中山區,長安東路二段117號8樓,25.048501,121.535545,03-3515340
立榮航空股份有限公司,立榮客機,台北市,中山區,長安東路二段117號8樓,25.048501,121.535545,03-3515340
立榮航空股份有限公司,立榮客機,台北市,中山區,長安東路二段117號8樓,25.048501,121.535545,03-3515340
羅氏大藥廠股份有限公司,11樓電梯出口正對面,台北市,松山區,民生東路3段134號9樓,25.057459,121.546833,225446511
南湖高中運動中心,游泳池看台後方休息區,台北市,內湖區,康寧路三段220號,25.066822,121.610897,02-26322525
台北市北投區湖田國民小學,健康中心內,台北市,北投區,竹子湖路17-2號,25.168429,121.538771,28616963#32
Curves女性專用30分鐘健身中心-景美店,店內儲藏室旁,台北市,文山區,車前路2號3樓,24.991379,121.541214,02-29315118
陽明山國家公園小油坑遊客服務站,小油坑遊客服務站內,台北市,北投區,竹子湖路69號,25.176434,121.546896,02-28617024
微風置地股份有限公司松高分公司,3F服務台旁,台北市,信義區,松高路16號,25.038983,121.567273,02-6636-9959#3528
國都汽車L松江營所,營業所展間,台北市,士林區,松江路433號,25.065868,121.533494,2508-1088
國都汽車南松江營業所,營業所展示間,台北市,中山區,松江路127號,25.053374,121.533248,2517-6761
Curves女性專用30分鐘健身中心古亭店,置物櫃左側,台北市,中正區,羅斯福路二段116號3樓之1,25.026369,121.52274,02-23643002
馥裕商旅台北凱達大飯店,3F宴會廳手扶梯旁,台北市,萬華區,艋舺大道167號,25.033223,121.499696,02-23836789#6536
馥裕商旅台北凱達大飯店,一樓大廳門口,台北市,萬華區,艋舺大道167號,25.033223,121.499696,02-23836789#6536
臺北市政府社會局委託財團法人育成社會福利基金會辦理臺北市鵬程啟能中心,大廳飲水機旁,台北市,松山區,健康路399號6樓,25.054666,121.568804,02-27606277
妮飛健身空間,妮飛健身空間,台北市,內湖區,瑞湖街99號,25.073447,121.576145,989119229
台南海鮮會館,會館大廳櫃檯,台北市,士林區,基河路130號B1,25.089169,121.523022,976802847
臺北市建成地政事務所,8樓民眾服務區,台北市,萬華區,和平西路3段120號7-9樓,25.035002,121.499888,02-23062122*403
臺北市立聯合醫院林森中醫昆明院區,中醫中心二樓候診室出口,台北市,萬華區,昆明街100號,25.044324,121.50492,23887088-3911
巴克斯有限公司,運動區,台北市,中山區,台北市長安東路一段75號B1,25.04846,121.527843,917715879
台灣飛利浦股份有限公司(台北),台灣飛利浦門口接待大廳,台北市,南港區,園區街3-1號G棟14樓,25.058486,121.611882,02-37892969
布勒斯運動顧問,布勒斯運動顧問,台北市,中山區,復興北路446號,25.059159,121.547119,973209167
極進化體能中心,會員休息區,台北市,信義區,基隆路1段153號B1F,25.042259,121.565464,02-27492565
臺北市朱崙老人公寓,老人公寓4樓,台北市,中山區,龍江路15號4樓,25.047436,121.540497,2778-5153*101
晶鑽時尚診所,診所內手術室旁,台北市,信義區,忠孝東路四段563號3樓,25.041574,121.563037,925521617
聯意製作股份有限公司,台北市內湖區瑞光路451號1樓ATM旁,台北市,內湖區,瑞光路451號,25.078836,121.57008,21628281
臺北市南港區舊莊國民小學,健康中心,台北市,南港區,舊莊街一段100號,25.040245,121.619539,02-27821418#123
臺灣集中保管結算所股份有限公司(3F),台北市松山區復興北路363號3樓,台北市,松山區,復興北路363號3樓,25.060561,121.544354,02-25141432
陸軍後勤指揮部,忠勤營區醫務所,台北市,南港區,忠孝東路六段360號,25.0496,121.591483,02-26512300
陸軍後勤指揮部,忠勤營區醫務所,台北市,南港區,忠孝東路六段360號,25.0496,121.591483,02-26512300
南機場樂活園地,南機場樂活園地,台北市,中正區,中華路二段315巷16、18號,25.028396,121.506896,02-23036281
民權里里辦公處,台北市大同區蘭州街12號,台北市,大同區,蘭州街12號,25.062724,121.511306,932844756
國立臺北護理健康大學,學生餐廳一樓外,台北市,北投區,明德路365號,25.117539,121.520679,02-28227101*2451
國立臺灣工藝研究發展中心臺北當代工藝設計分館,台北市南海路41號2樓,台北市,中正區,台北市南海路41號,25.031964,121.512364,23887066*116
復興航空運輸股份有限公司,8樓,台北市,大安區,敦化南路二段39號8樓,25.031708,121.549225,27552377*25967
Curves女性專用30分鐘健身中心六張犁店,店內,台北市,大安區,和平東路三段258號4樓,25.02152,121.555324,936235922
臺北市大龍老人住宅,臺北市大龍老人住宅,台北市,大同區,民族西路105號4樓,25.068726,121.517358,02-66178186
臺北市文山區萬和里辦公處,關懷據點內,台北市,文山區,汀洲路4段215號1樓,25.002948,121.535594,932915189
MAJI MAJI集食行樂,集食行樂服務台外,台北市,中山區,玉門街1號(好味全市集),25.069604,121.522012,02-25977112#109
國都汽車陽明服務廠,服務廠客休室,台北市,北投區,大業路6號,25.121955,121.499694,28950404
臺北市私立復興實驗高級中學,私立復興實驗高級中學,台北市,大安區,敦化南路一段262號,25.03936,121.548383,27715859轉224
臺北市文山運動中心,二樓健身房,台北市,文山區,興隆路三段222號,24.997017,121.559673,02-22308268
寶藏巖國際藝術村,三角窗服務棧,台北市,中正區,汀洲路3段230巷14弄2號,25.010654,121.532383,02-2364-5313*133
全真概念事業股份有限公司仕女館,C教室門口,台北市,大安區,忠孝東路4段178號3樓,25.041275,121.551319,27787000
國立交通大學台北分部,警衛室內,台北市,中正區,忠孝西路1段118號,25.047273,121.512032,03-5731906
國立臺灣科技大學,體育館1樓衛生保健組,台北市,大安區,基隆路4段43號,25.014169,121.542993,02-27376136
國立中正紀念堂管理處,國立中正紀念堂護理服務站入口處,台北市,中正區,中山南路21號,25.034677,121.521787,23431100-1072
財團法人臺灣敦睦聯誼會所屬作業組織圓山大飯店,1樓大廳服務台旁邊,台北市,中山區,中山北路4段1號,25.078575,121.526143,28861818ext 1866
國立臺北護理健康大學,科技大樓一樓健康中心對面,台北市,北投區,明德路365號,25.117539,121.520679,02-28227101*2451
交通部民用航空局臺北國際航空站(松山機場)-國內線報到大廳,國內線報到大廳,台北市,松山區,敦化北路340-9號,25.063749,121.550227,02-87703418
世新大學,衛生保健組保健室內,台北市,文山區,試院路148號,24.989821,121.54634,22368225#2078
國立臺灣科技大學,第三學生宿舍,台北市,大安區,基隆路4段43號,25.012506,121.542306,02-27376136
交通部民用航空局臺北國際航空站(松山機場)-3樓全區,國際線3樓入境廊道,台北市,松山區,敦化北路340-9號,25.064142,121.550787,02-87703418
台北市立百齡高級中學,健康中心,台北市,士林區,承德路四段177號,25.08699,121.523062,0933-054454
新光三越台北站前店,8樓育嬰室內醫護室,台北市,中正區,忠孝西路1段66號8F,25.046245,121.515283,02-23885552#5508
康寧醫護暨管理專科學校,宿舍門口,台北市,內湖區,康寧路3段75巷137號,25.07517,121.609939,02-26321181分機430
新光三越百貨股份有限公司台北信義分公司三館,3F醫護室,台北市,信義區,松壽路9號,25.036086,121.566478,87801000
台北京站威秀影城,5F大廳,台北市,大同區,市民大道1段209號5F,25.048786,121.518569,02-77386608#201
時代國際飯店股份有限公司(台北W飯店)12樓健身中心,12樓健身中心,台北市,信義區,忠孝東路5段10號,25.040671,121.565975,02-77038911
中國青年救國團臺北市信義運動中心,一樓大廳入口,台北市,信義區,松勤街100號,25.031804,121.566736,02-87861911
台北金融大樓股份有限公司,觀景台5樓售票櫃台,台北市,信義區,信義路5段7號,25.033718,121.564809,989135840
台北金融大樓股份有限公司,辦公大樓1樓圓形櫃台,台北市,信義區,信義路5段7號,25.033718,121.564809,02-81018709
國立台灣大學,圖書館,台北市,大安區,羅斯福路4段1號,25.016959,121.533851,33662003
國立台灣大學,鹿鳴會館7-11,台北市,大安區,羅斯福路4段1號,25.016959,121.533851,33662003
台北金融大樓股份有限公司,商場3樓中環,台北市,信義區,市府路45號,25.033493,121.564101,02-81018929
台北圓山聯誼會,健身中心櫃檯右後方層架上，飲水機旁,台北市,中山區,中山北路4段1巷1號,25.078357,121.526164,28861818*1750
台北金融大樓股份有限公司,辦公大樓59樓櫃台,台北市,信義區,信義路5段7號59樓,25.033718,121.564809,02-81018709
國立台灣大學,天文數學館,台北市,大安區,羅斯福路四段1號,25.021257,121.53787,33662003
國立台灣大學,管理2號館,台北市,大安區,羅斯福路四段1號,25.013289,121.537057,33662003
國立台灣大學,化學積學館,台北市,大安區,羅斯福路四段1號,25.019312,121.53787,33662003
國立台灣大學-醫學校區,醫學體育館,台北市,中正區,仁愛路1段1號,25.040543,121.519043,33662003
國立台灣大學,法律萬才館,台北市,大安區,羅斯福路四段1號,25.019774,121.545066,33662003
國立台灣大學,新體育館,台北市,大安區,羅斯福路四段1號,25.02147,121.535198,33662003
國立台灣大學-長興校區(長興街81號),生技中心,台北市,大安區,長興街81號,25.015676,121.547162,33662003
國立台灣大學,凝態物理館,台北市,大安區,羅斯福路四段1號,25.021723,121.536593,33662003
神旺大飯店股份有限公司,一樓服務中心,台北市,大安區,忠孝東路4段172號,25.041302,121.550981,02-2772-2121
台北醫學大學,體育館,台北市,信義區,吳興街250號,25.025238,121.561818,27361661~2250
臺北市大同區大龍國民小學,北側警衛室外,台北市,大同區,哈密街47號,25.073409,121.516692,25942635#827
國立台灣大學,研一女舍,台北市,大安區,羅斯福路4段1號,25.014947,121.535549,33662003
國立臺灣科技大學,體育館1樓游泳池入口左側,台北市,大安區,基隆路4段43號,25.01414,121.542962,02-27376136
Curves 女性專用30分鐘健身中心忠孝敦化店,二樓健身區樑柱牆上,台北市,大安區,忠孝東路4段250號2樓之3,25.041271,121.554177,02-27218828
英屬維京群島商品升健身(股)有限公司台灣分公司,B1櫃檯旁,台北市,大安區,信義路3段109號B1,25.033749,121.539185,02-27032324
中國文化大學推廣教育部 大夏館,"大夏館一樓,C樓梯梯間",台北市,大安區,建國南路2段231號一樓,25.025891,121.538096,02-27005858#8331
臺北市立萬華國民中學,健康中心內,台北市,萬華區,西藏路201號,25.029107,121.498835,23394567-129
中華電信數據通信分公司,警衛櫃台旁,台北市,中正區,信義路1段21號,25.03608,121.523335,02-23444738
泉心健康休閒事業股份有限公司,櫃檯前,台北市,松山區,健康路156號B1,25.053597,121.557174,988288020
和泰汽車股份有限公司,13樓職業安全衛生室,台北市,中山區,松江路121號13樓,25.052523,121.533406,(02)2506-2121#1296
聖宜診所,手術室內,台北市,大安區,忠孝東路4段126-24號,25.041026,121.547453,287725021
香港商世界健身事業有限公司公館分公司,2F櫃檯飲料販賣機旁邊,台北市,中正區,羅斯福路四段68號2F,25.014616,121.53423,963282716
家樂福(南港店),B2顧客休息區,台北市,南港區,南港路二段20巷5號B1樓之1,25.054463,121.605544,27882550
統一速達股份有限公司,5樓電梯出口正前方,台北市,南港區,重陽路200號5樓,25.057802,121.602424,0911-267-099
臺北市立北投國民中學,警衛室內,台北市,北投區,北投區溫泉路62號,25.13454,121.504331,28912091#308
財團法人公共電視文化事業基金會,A棟大廳警衛室右邊,台北市,內湖區,康寧路3段75巷50號,25.074366,121.609316,02-26338191
辛亥國小,健康中心內,台北市,文山區,辛亥路4段130號,25.00445,121.556723,02-29357282
香港商世界健身有限公司內湖民權分公司,櫃檯前方,台北市,內湖區,民權東路六段180巷6號B2,25.068201,121.592457,02-27905522
監察院,大門入口,台北市,中正區,忠孝東路一段2號,25.045221,121.519995,23413183#608
國立臺北科技大學,中正館,台北市,大安區,忠孝東路3段1號,25.043352,121.535811,27712171#1265
微風．三總商店街,服務台前方展示櫃下方,台北市,內湖區,成功路二段325號B1,25.072194,121.593775,02-6600-1962
天母國際聯誼會,B2健身房前,台北市,士林區,中山北路六段88號B1,25.104917,121.525007,939323224
艾奕康工程顧問股份有限公司,辦公室入口電梯牆面,台北市,信義區,信義路五段8號16樓,25.03275,121.561219,27200999
臺北市立蘭州國民中學,本校大門口穿堂,台北市,大同區,大龍街187巷1號,25.069322,121.516736,25918269分機305
臺北市大同區雙蓮國小,警衛室,台北市,大同區,錦西街51號,25.060161,121.51669,02-25570309#1026
臺北市大同區雙蓮國小,健康中心內,台北市,大同區,錦西街51號,25.060161,121.51669,02-25570309#1026
臺北市藝文推廣處-大稻埕戲苑,9樓劇場服務台後方,台北市,大同區,迪化街一段21號8、9樓,25.054862,121.51055,25569101#283
臺北市私立稻江高級護理家事職業學校,稻江護家警衛室,台北市,中山區,新生北路3段55號,25.065354,121.528616,25955161轉117
中央研究院,行政大樓警衛室,台北市,南港區,研究院路2段128號,25.042294,121.616651,02-27899894
台北市成功高中運動中心,地下1樓電梯出口旁,台北市,中正區,濟南路一段71號,25.042334,121.523687,932342067
北都汽車股份有限公司-松山廠,3樓結帳櫃檯後方,台北市,信義區,基隆路一段88號,25.046411,121.567326,02-2769-5823
北都汽車股份有限公司-光復所廠,1樓結帳辦公室,台北市,松山區,光復北路15號,25.049718,121.558073,02-27487669
北都汽車lexus仁愛營業所,一樓展示間,台北市,大安區,仁愛路三段32號,25.037616,121.53682,27058111
國立臺灣師範大學,校本部體育館2樓,台北市,大安區,和平東路1段162號,25.026414,121.527575,02-77343107
國立臺灣師範大學,校本部男一舍1樓,台北市,大安區,師大路11號,25.025765,121.528664,02-77343107
國家表演藝術中心國家兩廳院,音樂廳一號門售票口,台北市,中正區,中山南路21-1號,25.037355,121.519244,02-33939583
馬偕醫護管理專科學校,關渡校區大禮堂門口,台北市,北投區,聖景路92號,25.12188,121.464511,02-28584180#2153
Curves 女性專用30分鐘健身中心文山保儀店,服務櫃台右手邊,台北市,文山區,保儀路11號4F-1,24.988631,121.568659,935101556
台北世貿中心展覽大樓,世貿中心展覽大樓二樓貴賓室旁,台北市,信義區,信義路5段5號,25.033259,121.562324,02-27251361
Curves女性專用30分鐘健身中心民生圓環店,櫃臺旁,台北市,松山區,民生東路五段133號2樓,25.059079,121.5625,982489831
北都汽車股份有限公司-敦化所,展示間吧台處,台北市,松山區,八德路三段2號1樓,25.048114,121.549426,02-25796285
Curves女性專用30分鐘健身中心圓山花博店,大門左側,台北市,大同區,承德路三段229號3F-4,25.070537,121.518707,02-25997138
臺北市立重慶國民中學,總務處外牆,台北市,大同區,敦煌路19號,25.076266,121.518102,02-25948631*239
台北世貿中心展覽大樓,世貿中心展覽大樓西大門郵局旁,台北市,信義區,信義路5段5號,25.033259,121.562324,02-27251361
Curves 女性專用30分鐘健身中心東湖店,一樓櫃台旁,台北市,內湖區,東湖路33巷17號,25.069596,121.613479,979679662
國家表演藝術中心國家兩廳院,戲劇院大廳,台北市,中正區,中山南路21-1號,25.035168,121.517812,02-33939583
國都濱江服務廠,服務廠展間,台北市,中山區,濱江街269號,25.072604,121.542531,25158747
Curves女性專用30分鐘健身中心石牌店,櫃檯左後方,台北市,北投區,裕民六路120號5樓,25.114535,121.517648,935932621
Curves女性專用30分鐘健身中心建國長春店,運動區,台北市,中山區,建國北路二段74號3F,25.055038,121.536441,910006131
Curves女性專用30分鐘健身中心和平建國店,"2F大門進入,櫃台旁邊約200公分距離",台北市,大安區,和平東路2段53巷2號2樓,25.02587,121.538452,920095613
北都汽車股份有限公司-lexus敦南所,展示間,台北市,松山區,敦化南路1段25號,25.046326,121.549264,(02)2579-1633
台北市成功高中運動中心,8樓健身房入口旁,台北市,中正區,濟南路一段71號,25.042672,121.523528,932342067
臺北市信義老人服務暨日間照顧中心,臺北市信義老人服務中心(松興大樓4樓),台北市,信義區,松隆路36號4樓,25.043361,121.567473,8787-0300#107
汎宇創新有限公司,汎宇創新有限公司,台北市,大安區,敦化南路一段232巷6號B1,25.036164,121.548469,937354180
統一時代百貨台北店,7樓,台北市,信義區,忠孝東路5段8號,25.040587,121.565888,27299699
臺北市士林區士東國民小學,士東國小健康中心及幼兒園室內,台北市,士林區,中山北路六段392號,25.112934,121.526814,02-28710064
臺北市士林區平等國民小學,學校穿堂,台北市,士林區,臺北市士林區平菁街101號,25.129443,121.576607,0958-323-233
潤泰百益股份有限公司,2樓服務台 右方,台北市,信義區,松山路11號,25.049192,121.578299,02-25280666
台北健身院(八德店),精漢堂開發股份有限公司八德門市部,台北市,松山區,八德路4段656號B1,25.049894,121.575492,987773650
誠隆汽車股份有限公司北投分公司,展示中心,台北市,北投區,大業路265號,25.126846,121.497744,02-87925000
誠隆汽車股份有限公司萬華服務廠,萬華服務廠終檢區,台北市,萬華區,莒光路328號,25.031299,121.497335,02-87925000
仙妮蕾德餐旅管理有限公司 王朝大酒店,5樓 健身中心,台北市,松山區,敦化北路100號,25.052339,121.548598,2719-7199*3220
臺北市私立泰北高級中學,泰北高中向榮樓川堂廣場,台北市,士林區,福林路240號,25.097366,121.533946,28825560*341
欣葉國際餐飲-台灣料理忠孝店,餐廳櫃檯前與#10桌間”大柱子”上,台北市,大安區,忠孝東路4段112號2樓,25.041364,121.546893,933711765
臺北市私立大誠高級中學,健康中心,台北市,文山區,秀明路2段175號,24.991053,121.578524,02-22348989
松山文創園區,辦公廳1F,台北市,信義區,光復南路133號,25.043708,121.559325,02-2765-1388分機129
松山文創園區,二號倉庫旁,台北市,信義區,光復南路133號,25.044363,121.559901,02-2765-1388分機129
臺灣士林地方法院,法警室門口,台北市,士林區,士東路190號,25.112514,121.53308,928027851
陽明山國家公園管理處陽明書屋管理站,陽明書屋遊客服站入口臨櫃台右側方向,台北市,北投區,中興路12號,25.162666,121.54056,919590555
台北市私立薇閣高級中學,薇閣高中健康中心門口,台北市,北投區,珠海路50號,25.138913,121.503334,921821083
喜都(男仕)三溫暖,B1樓走道休息區,台北市,松山區,南京東路五段38號B1,25.051425,121.55977,02-2766-3358
臺北市立石牌國民中學,總務處外靠近川堂走廊,台北市,北投區,石牌路一段139號,25.114965,121.514231,28224682*234
臺北榮民總醫院,第一門診大樓癌症篩檢暨資源整合中心,台北市,北投區,石牌路二段201號,25.120184,121.52016,938597512
北都汽車股份有限公司-大安所廠,A廠出入口,台北市,大安區,和平東路二段128號,25.024602,121.543701,02-27329295
北都汽車股份有限公司-東湖廠,工廠內客戶休息室,台北市,內湖區,潭美街791號,25.063786,121.610599,02-2793-9639
北都汽車股份有限公司-撫遠廠,服務接待櫃台後方,台北市,松山區,撫遠街419號,25.067394,121.566188,02-2761-8676
北都汽車雙園所,1樓櫃台後方,台北市,萬華區,西園路2段161號,25.028871,121.495889,933011795
天溪綠地游泳池,游泳池入口進入泳池旁,台北市,士林區,中山北路7段219巷3弄170號,25.128423,121.53118,0932-056557
Curves女性專用30分鐘健身中心台大公館店,櫃檯後方,台北市,中正區,羅斯福路4段64號4樓,25.014576,121.53419,933060705
中央研究院生物化學研究所,一樓詢問台旁牆邊,台北市,南港區,研究院路2段128號,25.042294,121.616651,02-27855696-1160
國立臺北藝術大學,活動中心衛生保健組,台北市,北投區,學園路1號,25.133197,121.469935,02-28938803
統一健身俱樂部,統一健身俱樂部,台北市,松山區,民生東路5段149號B1,25.059103,121.56212,27673148
交通部公路總局臺北市區監理所,監理所1樓,台北市,松山區,八德路4段21號,25.048478,121.558997,02-27630155#606
日勝生加賀屋國際溫泉飯店,4樓櫃檯後方,台北市,北投區,光明路236號,25.135934,121.506839,02-28985555
北投焚化廠回饋設施洲美運動公園(主題館),北投焚化廠回饋設施洲美運動公園主題館服務台,台北市,北投區,洲美街271號(洲美運動公園),25.109602,121.499364,02-28360050轉162
誠隆汽車股份有限公司大安服務廠,大安服務廠客休室,台北市,大安區,和平東路三段268號,25.021244,121.555587,02-87925000
誠隆汽車股份有限公司萬華展示中心,萬華展示中心,台北市,萬華區,南寧路68-70號,25.035264,121.503745,02-87925000
誠隆汽車股份有限公司木柵服務廠,木柵服務廠出納櫃台,台北市,文山區,木柵路一段257巷1號,24.988156,121.553019,02-87925000
誠隆汽車股份有限公司交車中心,交車中心辦公室,台北市,中山區,濱江街199巷1號,25.073389,121.540041,02-87925000
誠隆汽車股份有限公司忠孝服務廠,忠孝服務廠客休室,台北市,南港區,忠孝東路6段101號,25.048365,121.584999,02-87925000
民生承安診所,民生承安診所,台北市,中山區,民生東路三段90號,25.057454,121.543485,25032633#233
展昭國際企業(股)公司國立台北護理健康大學水療中心,水療中心,台北市,北投區,明德路365號,25.117796,121.518053,02 28281528
敦南莊子社區管理室,敦南莊子社區管理室,台北市,文山區,木柵路二段109巷100弄1號,24.991445,121.563018,0988-303659
再興摩登天廈社區管理委員會,再興摩登天廈社區管理委員會,台北市,文山區,木柵路二段55號,24.988862,121.560288,0936-557266
臺灣集中保管結算所股份有限公司(10F),台北市松山區復興北路363號10樓,台北市,松山區,復興北路363號10樓,25.060561,121.544388,02-25141432
臺北市影視音實驗教育機構,台北市中正區汀州路三段230巷18弄5-2號,台北市,中正區,汀州路三段230巷18弄5-2號,25.010089,121.532141,02-77055355
貝克漢運動健康世界,貝克漢地下一樓門口,台北市,內湖區,民權東路六段15巷1號B1,25.067984,121.580166,02-6602-9969
私立圓心康復之家,機構內,台北市,大安區,羅斯福路2段75號7樓,25.02641,121.523213,02-23632811
臺北市萬華運動中心,3樓櫃檯後方,台北市,萬華區,西寧南路6-1號B2-7樓,25.026286,121.497029,02-23759900#618
臺北市南港運動中心,3樓籃球場,台北市,南港區,玉成街69號,25.048938,121.58184,26532279
統一健身俱樂部-京站館,京站館8樓心肺區,台北市,大同區,市民大道1段209號8樓,25.048786,121.518569,02-25588148
泰山企業股份有限公司,辦公室右側入口,台北市,中山區,長安東路二段99號10樓,25.048569,121.534922,0931-968-860
中華民國紅十字會臺灣省分會,走道,台北市,中正區,博愛路230巷6號,25.033752,121.509952,23814571
臺北市文山區明興里辦公處,臺北市文山區明興里辦公處門前,台北市,文山區,木柵路二段109巷25弄6號,24.990145,121.562851,0917-556568
觀星台北社區管理委員會,D棟閱報室,台北市,文山區,木柵路二段109巷100弄66號1樓,24.992593,121.561685,0928-506209
觀星台北社區C棟閱報室,觀星台北社區C棟閱報室,台北市,文山區,木柵路二段109巷100弄32號,24.992346,121.561749,0920-103361
南山人壽保險股份有限公司-南山人壽大樓,1樓大廳,台北市,中山區,民權東路二段144號,25.062269,121.533887,02-87589539
臺北市中山區吉林國民小學,台北市中山區吉林國小健康中心,台北市,中山區,長春路116號,25.054721,121.52963,0225219196轉555
天母新城社區,天母新城A區中庭,台北市,北投區,天母西路117巷52弄,25.121298,121.525197,937525740
臺北市工務局公園處圓山所,新生公園圓山所辦公室1樓,台北市,中山區,新生北路3段105號,25.068582,121.529609,25850192#217
國立臺北教育大學-學生活動中心,學生活動中心,台北市,大安區,和平東路二段134號,25.024624,121.544637,02-66396688分機82048
台北市萬華龍山老人服務暨日間照顧中心,中庭角落,台北市,萬華區,梧州街36號3樓,25.037357,121.497388,23361-1881#17
台北市投區清江國民小學,本校後穿堂,台北市,北投區,公館路220號,25.12683,121.507488,28912764/205
遠傳電信台北資訊園區,包膜櫃台旁,台北市,中正區,市民大道三段2號1樓,25.045482,121.531127,936237844
鐵人工廠,運動場,台北市,松山區,八德路三段12巷16弄10號1樓,25.047265,121.550096,955551950
臺北市政府環境保護局內湖垃圾焚化廠,管理大樓1樓廠房電梯前,台北市,內湖區,安康路290號,25.062515,121.605298,02-27961833轉352
北都汽車股份有限公司-中正廠,1樓辦公室結帳櫃檯後方,台北市,中正區,忠孝東路2段122號,25.042475,121.531596,02-23956502
300壯士跨時代健身中心,健身房入口處,台北市,萬華區,漢口街2段73號B1,25.046266,121.504491,912989919
台北健身院新生店,入門處左斜方柱子,台北市,大安區,新生南路3段58號B1,25.020372,121.533839,02-23632298
台北國際會議中心,1樓大廳服務台,台北市,信義區,信義路5段1號,25.03369,121.561022,02-27255200ext.3543
台象股份有限公司,台象總公司9樓櫃台,台北市,中山區,長安東路2段100號9樓,25.04819,121.535019,02-25069009#328
康寧醫護暨管理專科學校,野聲館,台北市,內湖區,康寧路3段75巷137號,25.076465,121.610531,02-26321181分機430
新光三越百貨股份有限公司台北信義分公司四館,5F醫護室,台北市,信義區,松高路19號,25.039329,121.567026,87801000
新光三越百貨股份有限公司台北信義分公司,6F醫護室,台北市,信義區,松壽路11號,25.036218,121.567269,87801000#2086
臺北市北投區立農國小,一樓川堂 電梯旁,台北市,北投區,立農街一段250號,25.119147,121.505128,28210702*211
台北信義威秀影城,2F售票處,台北市,信義區,松壽路20號,25.035636,121.567099,02-87805566#209
時代國際飯店股份有限公司(台北W飯店),1樓員工出入口,台北市,信義區,忠孝東路5段10號,25.040671,121.565975,02-77038911
國立台灣大學-長興校區(長興街50號),男一舍,台北市,大安區,長興街50號,25.016473,121.544436,33662003
國立台灣大學,國青宿舍,台北市,大安區,羅斯福路四段1號,25.020192,121.54447,33662003
國立台灣大學,新生大樓,台北市,大安區,羅斯福路四段1號,25.01974,121.538403,33662003
台北金融大樓股份有限公司,商場2樓中環,台北市,信義區,市府路45號,25.033493,121.564101,02-81018929
國立台灣大學,舊體育館,台北市,大安區,羅斯福路四段1號,25.019701,121.536354,33662003
國立台灣大學,社科學院警衛室,台北市,大安區,羅斯福路四段1號,25.020953,121.541208,33662003
香港商世界健身事業有限公司大安分公司,健身中心三樓入口大廳,台北市,大安區,信義路4段6號三樓,25.033107,121.544108,988776309
臺北市大安運動中心,一樓大廳,台北市,大安區,辛亥路3段55號,25.020777,121.545636,919278483
國立台灣大學,行政大樓,台北市,大安區,羅斯福路4段1號,25.016959,121.533851,33662003
香港商世界健身事業有限公司天母分公司,會所一樓,台北市,士林區,中山北路7段34號,25.119924,121.531148,(02)2875-5050
台北金融大樓股份有限公司,商場B1客服櫃台,台北市,信義區,市府路45號,25.033493,121.564101,02-81018929
台北金融大樓股份有限公司,商場B1美食街往辦公大樓電扶梯旁,台北市,信義區,市府路45號,25.033734,121.564434,02-81018929
國立台灣大學-水源校區(思源街18號),水源校區C棟宿舍,台北市,大安區,思源街18號,25.012808,121.529008,33662003
國立台灣大學,管理1號館,台北市,大安區,羅斯福路四段1號,25.013848,121.537891,33662003
國立台灣大學,食科館,台北市,大安區,羅斯福路四段1號,25.013892,121.539117,33662003
國立故宮博物院,展覽館一樓大廳,台北市,士林區,至善路2段221號,25.10409,121.555946,66103600*2267
國立台灣大學-醫學校區,公衛學院,台北市,中正區,仁愛路1段1號,25.041015,121.52326,33662003
國立台灣大學,博雅教學館,台北市,大安區,羅斯福路四段1號,25.018933,121.53685,33662003
國立台灣大學,新農化館,台北市,大安區,羅斯福路四段1號,25.016143,121.535981,33662003
國立台灣大學,第一活動中心,台北市,大安區,羅斯福路四段1號,25.017839,121.540286,33662003
台北醫學大學,拇山學院,台北市,信義區,吳興街250號,25.025951,121.561267,27361661~2250
國立台灣大學,工科海洋館,台北市,大安區,羅斯福路四段1號,25.0171,121.542588,33662003
國立台灣大學,社工館,台北市,大安區,羅斯福路四段1號,25.020061,121.541735,33662003
Breeze Center 微風廣場,GF  L7電梯旁,台北市,松山區,復興南路1段39號,25.046063,121.544172,6600-8888 #3528
國立台灣大學,AED-長興崗亭,台北市,大安區,羅斯福路四段1號,25.017601,121.54373,33662003
國家文官學院,行政大樓1樓菁英講堂前,台北市,南港區,忠孝東路7段576號,25.052615,121.613619,02-26531667
國立臺灣科技大學,管理大樓大門左側,台北市,大安區,基隆路4段43號,25.01238,121.541314,02-27376136
交通部民用航空局臺北國際航空站(松山機場)-國際線入境大廳,國際線入境大廳,台北市,松山區,敦化北路340-9號,25.064269,121.551895,02-87703418
交通部臺灣鐵路管理局臺北運務段臺北站,B1F東側出口內方,台北市,中正區,北平西路3號,25.047924,121.517081,02-2381-5226#2476
交通部臺灣鐵路管理局臺北運務段臺北站,B1F西側出口內方,台北市,中正區,北平西路3號,25.047924,121.517081,02-2381-5226#2476
中央研究院,學術活動中心,台北市,南港區,研究院路2段128號,25.041044,121.612617,27852717-1224
市府轉運站,售票大廳,台北市,信義區,忠孝東路5段6號,25.040914,121.565136,02-27221166
德明財經科技大學,綜合大樓六樓體育館,台北市,內湖區,環山路1段56號,25.086532,121.565506,(02)26585801-2241
立法院委員研究大樓,1樓大廳,台北市,中正區,台北市濟南路1段3之1號,25.043032,121.521261,02-23585238
內湖防災科學教育館,1樓入口處,台北市,內湖區,成功路2段376號4樓,25.06935,121.590338,2791-9786
臺北市政府環境保護局山豬窟游泳池館,游泳池館大廳,台北市,南港區,舊莊街1段290巷32號,25.030603,121.623886,2654-8933
Curves女性專用30分鐘健身中心承德南京店,店內,台北市,大同區,承德路一段77-1號2樓,25.052264,121.517719,25550665
太子城三溫暖,太子城三溫暖大廳服務區,台北市,大安區,忠孝東路4段330號地下室,25.041134,121.557353,933136999
台北市私立喬治高級工商職業學校,浩然樓1樓教務處內,台北市,信義區,基隆路二段155號,25.025804,121.554405,27386515*248
台北市北投區義方國民小學,健康中心,台北市,北投區,珠海路155號,25.141948,121.509851,28917433-126
全真概念健康事業股份有限公司-內湖分公司,電腦訂課區,台北市,內湖區,內湖路1段659號B1,25.080302,121.575345,02-77461111
大湖公園游泳池健身房,健身房入口左側,台北市,內湖區,成功路5段31號,25.082582,121.603847,02-27939859#13
宜家家居股份有限公司南京分公司,B1餐具區樓梯口,台北市,松山區,敦化北路100號B1,25.052339,121.548598,988635529
華山1914文化創意產業園區,東2 倉庫,台北市,中正區,八德路一段一號,25.04413,121.529399,02-23581914#582
台北市市立桃源國民中學,健康中心,台北市,北投區,中央北路4段48號,25.134647,121.4773,2892-9633*236
那米哥國際股份有限公司,大門入口處,台北市,信義區,松仁路101號B1,25.036248,121.568689,982849080
台北喜來登大飯店,大廳櫃檯旁的服務中心櫃台後方,台北市,中正區,忠孝東路1段12號,25.044972,121.522054,02-66331680
立榮航空股份有限公司,立榮客機,台北市,中山區,長安東路二段117號8樓,25.048501,121.535545,03-3515340
立榮航空股份有限公司,立榮客機,台北市,中山區,長安東路二段117號8樓,25.048501,121.535545,03-3515340
水立方時尚館,地下1樓至地下2樓樓梯轉彎處,台北市,內湖區,成功路2段373號,25.074488,121.590189,988524041
衛生福利部,1樓東側梯廳前,台北市,南港區,忠孝東路六段488號,25.050209,121.595464,02-85906522
台北市北投國小,行政大樓1樓的川堂,台北市,北投區,中央北路1段73號,25.134142,121.500216,"28912052*191,192"
Curves女性專用30分鐘健身中心 內湖西湖店,休息區飲水機旁,台北市,內湖區,內湖路1段387巷3弄4號1樓,25.082436,121.570654,02-26276550
臺北市北投區大屯國民小學,警衛室,台北市,北投區,復興三路312號,25.154895,121.503983,28914353轉15
臺北市立興隆國民小學,大門口警衛室,台北市,文山區,福興路2號,25.002436,121.551888,29323131分機615
國立歷史博物館,3樓展場,台北市,中正區,南海路49號,25.031454,121.511227,02-23610270-316
大河之戀皇后號,一樓客艙接待櫃檯左側,台北市,北投區,關渡碼頭,25.120927,121.461921,930448833
萬美社區管理委員會,7號樓梯間,台北市,文山區,萬美街2段2巷7號,25.002648,121.562769,921887937
台北市私立崇生康復之家,機構活動區,台北市,大同區,重慶北路2段188號3樓,25.062297,121.513358,02-25538802
萬美社區管理委員會,1號1樓梯間,台北市,文山區,萬美街2段2巷1號,25.003439,121.562612,921887937
財團法人公共電視文化事業基金會,B棟警衛室對面(玻璃門旁),台北市,內湖區,康寧路3段75巷70號B棟,25.080745,121.590836,02-26338191
微風台大醫院,微風台大醫院服務台右邊,台北市,中正區,中山南路7號B1,25.04075,121.518625,975791292
臺北市立士林國民中學,警衛室內,台北市,士林區,中正路345號,25.094366,121.52257,02-88613411
臺北市政府環境保護局北投垃圾焚化廠,值班宿舍1樓辦公室,台北市,北投區,洲美街271號,25.100116,121.498582,02-28360050轉162
國立臺北藝術大學,展演中心內,台北市,北投區,學園路1號,25.131803,121.469779,02-28938803
微風置地股份有限公司信義分公司,3F服務台旁,台北市,信義區,忠孝東路五段86號3F,25.041035,121.567002,02-66366699#3528
中鼎工程公司,中鼎大樓10F觀景窗旁,台北市,士林區,中山北路六段89號,25.105726,121.524397,28339999轉12225
臺北市松山地政事務所,一樓大廳,台北市,信義區,莊敬路391巷11弄2號,25.028846,121.566153,27230711
國立臺灣師範大學,公館校區校門口警衛室內,台北市,文山區,汀州路4段88號,25.007963,121.536905,02-77343107
財團法人台北市文化基金會台北當代藝術館,售票大廳處,台北市,大同區,長安西路39號,25.050725,121.518975,02-25523721#231
交通部民用航空局臺北國際航空站(松山機場)-出境證照查驗大廳,國際線2樓外候機室,台北市,松山區,敦化北路340-9號,25.063676,121.552858,02-87703418
國立臺灣師範大學,圖書館校區校門口警衛室外,台北市,大安區,和平東路1段129號,25.026732,121.528263,02-77343107
交通部民用航空局臺北國際航空站(松山機場)-出境證照查驗大廳,國際線出境證照查驗大廳,台北市,松山區,敦化北路340-9號,25.063685,121.551645,02-87703418
交通部民用航空局臺北國際航空站(松山機場)-國際線候機室,國際線2樓內候機室,台北市,松山區,敦化北路340-9號,25.064205,121.553397,02-87703418
台灣鐵路管理局臺北運務段萬華車站,一月台行車室,台北市,萬華區,康定路382號,25.033349,121.500442,02-23020481
臺北市北投區明德國民小學,一樓健康中心前走廊,台北市,北投區,明德路190號,25.112123,121.521788,(02)2822-9651#1205
台北市北投區關渡國小,健康中心內,台北市,北投區,中央北路4段581號,25.126631,121.466292,28912847#236
Curves女性專用30分鐘健身中心南京三民店,店內運動區,台北市,松山區,台北市南京東路5段202號3F-5,25.051191,121.564835,02-27483316
華山1914文化創意產業園區,小雪人空間,台北市,中正區,八德路一段一號,25.04413,121.529399,02-23581914#582
Curves女性專用30分鐘健身中心北投店,會員休息區,台北市,北投區,磺港路8號4樓,25.133249,121.502095,972352607
台北市私立金甌女子高級中學,教官室,台北市,大安區,杭州南路2段1號,25.034768,121.524182,02-23214765#201
國都L濱江廠,服務廠客休室,台北市,中山區,濱江街233號,25.072726,121.541244,2508-1288
臺北市北投區逸仙國民小學,川堂,台北市,北投區,新民路2號,25.138372,121.505163,28914537分機125
臺北市立建成國民中學,大門口警衛室內,台北市,大同區,長安西路37之1號,25.051648,121.518626,02-25587042*626
臺北市北投區公所,北投區行政中心1樓,台北市,北投區,新市街30號4樓,25.132426,121.503,28912105#207
家福股份有限公司台北桂林分公司,3樓手扶梯梯廳處,台北市,萬華區,桂林路1號,25.037743,121.50629,937189442
台灣家樂福股份有限公司北投分公司,B1F服務中心,台北市,北投區,中和街366號B1F,25.141693,121.499305,970843408
華信航空,27排CD行李櫃內,台北市,松山區,敦化北路405巷123弄3號,25.06304,121.557636,0227171188 ext.3603
華信航空,27排CD行李櫃內,台北市,松山區,敦化北路405巷123弄3號,25.06304,121.557636,0227171188 ext.3603
華信航空,27排CD行李櫃內,台北市,松山區,敦化北路405巷123弄3號,25.06304,121.557636,0227171188 ext.3603
天龍三溫暖,大廳,台北市,大同區,重慶北路1段73號9樓,25.052139,121.514196,02-2555-2277
雅芙美容坊(市招維納斯),櫃檯,台北市,大安區,仁愛路4段112巷5號地下室,25.035762,121.549711,910165266
Curves女性專用30分鐘健身中心內湖成功店,二樓進門左手邊,台北市,內湖區,成功路四段34號二樓,25.081816,121.591676,02-27948659
欣葉國際餐飲-台灣料理創始店,1樓門市入口處,台北市,中山區,雙城街34-1號,25.066547,121.524153,0926-238-803
欣葉國際餐飲-101食藝軒,餐廳櫃台右方,台北市,信義區,信義路5段7號85樓之1,25.033718,121.56481,02-8101-0185
欣葉國際餐飲-日本料理中山店,餐廳櫃台入口處,台北市,中山區,中山北路2段52號,25.056304,121.522522,02-2542-5858
臺北市士林運動中心,三樓游泳池場館,台北市,士林區,士商路一號,25.089668,121.521411,02-2880-6066分機104
仙妮蕾德餐旅管理有限公司 王朝大酒店,1樓大廳,台北市,松山區,敦化北路100號,25.052888,121.548314,2719-7199*3162
台北福華大飯店,飯店大廳,台北市,大安區,仁愛路3段160號,25.037704,121.543377,955609700
神旺商務酒店,一樓柏晶廳,台北市,中山區,南京東路1段128號,25.051864,121.527041,02-2511-5185
臺北市藝文推廣處-文山劇場,文山劇場一樓大廳休息區,台北市,文山區,景文街32號,24.991961,121.541233,29332199分機506
福德坑環保復育園區,管理辦公室1樓,台北市,文山區,木柵路5段151號,25.007261,121.589505,(02)8230-1969
臺北市立浩然敬老院,致和1樓大廳,台北市,北投區,關渡里知行路75號,25.118367,121.467733,28581081分機318
台北市北投區石牌國民小學,石牌國小警衛室,台北市,北投區,致遠二路80號,25.115729,121.511757,28227484#227
臺北市北投區文林國民小學,健康中心內,台北市,北投區,文林北路155號,25.105905,121.514744,28234212-306
臺北市私立惇敘高級工商職業學校,學務處,台北市,北投區,泉源路221號,25.144552,121.527099,28912630轉181
全真概念健康事業股份有限公司-環亞分公司,9樓櫃台旁,台北市,松山區,南京東路三段337號9樓,25.052006,121.548289,02-27161234
城市學校財團法人臺北城市科技大學,行政大樓1樓健康中心旁,台北市,北投區,學園路2號,25.133617,121.468879,02-2895-2619
凱達格蘭文化館,一樓大廳大門左側,台北市,北投區,中山路3-1號,25.137067,121.505788,02-27206001轉26
台北市私立志仁高級中學職業進修學校,1樓辦公室,台北市,大同區,南京西路64巷17號,25.052162,121.518758,(02)25551656
日勝生加賀屋國際溫泉飯店,2樓手扶梯上來右側,台北市,北投區,光明路236號,25.136081,121.507055,0975-355-636
松山文創園區,服務中心,台北市,信義區,光復南路133號,25.04396,121.561124,02-2765-1388分機129
松山文創園區,檢查哨,台北市,信義區,光復南路133號,25.044684,121.559563,02-2765-1388分機129
台北市私立靜修女子高級中學,警衛室,台北市,大同區,寧夏路59號,25.057931,121.515496,2557-4345轉307
柔昱健康事業有限公司,會館大廳會員休憩區,台北市,中山區,復興北路150號2樓,25.052772,121.543813,02-2712-8722
誠品生活松菸店,B2F誠品電影院,台北市,信義區,菸廠路88號,25.043938,121.559302,266365888
文山區茶展中心步道旁茶展中心,茶展中心展覽室右門口之樓梯間內,台北市,文山區,指南路3段40巷8號之2,24.968532,121.595254,02-27828877
臺北市教師研習中心,研習大樓一樓講座休息室外,台北市,北投區,建國街2號,25.150405,121.549845,28616942轉256
日本伊藤萬游泳學校(台北艋舺校),游泳池櫃台大廳民眾休息區,台北市,萬華區,西園路2段55弄3號B1,25.032914,121.498157,919312648
國立臺北科技大學,學生宿舍一舍,台北市,大安區,忠孝東路3段1號,25.042434,121.535636,27712171#1265
臺北市水源劇場,劇場大廳內,台北市,中正區,羅斯福路四段92號10樓,25.013651,121.534973,02-23625259 #111
沃田有限公司,1樓櫃檯,台北市,士林區,中山北路7段127號,25.122814,121.531848,963573283
臺北市大安區金華國民小學,川堂左側/警衛室門旁,台北市,大安區,愛國東路79巷11號,25.032275,121.527675,(02)2391-7402  分機829
松山奉天宮,香客大樓1樓餐廳外,台北市,信義區,福德街221巷12號,25.037385,121.584669,02-27279765
台北北投雅樂軒酒店,1F櫃檯旁,台北市,北投區,大業路300巷1號,25.12839,121.498579,277011832
國立陽明大學,研究大樓一樓門口,台北市,北投區,台北市北投區立農街二段155號,25.123577,121.515654,02-28267000#2358
國立陽明大學警衛室,國立陽明大學警衛室,台北市,北投區,立農街2段155號,25.119633,121.513336,28267000#2358
國泰商旅和逸台北忠孝館,2樓餐廳入口,台北市,中正區,忠孝東路一段31號,25.044655,121.525393,936286196
臺北市大安區大安國民小學,大安國小,台北市,大安區,臥龍街129號,25.020012,121.549076,27322332*886
臺北捷運港墘站BR17,主詢問處附近,台北市,內湖區,內湖路1段663號,25.080048,121.575024,(02)87975345
臺北市大安區新生國民小學,游泳池,台北市,大安區,新生南路二段36號,25.02982,121.53362,23913122-234
景美仙岩廟(仙跡岩風景區),仙岩廟內,台北市,文山區,景興路243巷,24.992328,121.547567,02-27593001
臺北市立文獻館,西本願寺廣場本堂臺基北側入口處,台北市,萬華區,中華路一段174之1號,25.040198,121.507287,02-23115355#13
教育部第三辦公室,2樓大廳正面左側,台北市,中正區,徐州路48-1號,25.040115,121.525078,277366014
玉泉公園游泳池,入口大廳右側,台北市,大同區,西寧北路28號,25.049723,121.507347,225509828
文山區三玄宮步道旁指南國小內,運動中心大門旁,台北市,文山區,臺北市文山區指南路三段38巷5-2號,24.976411,121.58373,22393546#23
臺北市萬華區龍山國小,健康中心內,台北市,萬華區,和平西路3段235號,25.035631,121.495845,23082977-721
內湖區碧山露營場,碧山露營場小白屋,台北市,內湖區,碧山路26-7號,25.104706,121.578851,922636885
柔昱健康事業有限公司大安分公司(羅福館),會館B教室門口,台北市,大安區,羅斯福路2段91號B1,25.02561,121.523869,02-2364-6433
臺北市中山區中山國民小學,一樓川堂,台北市,中山區,民權東路1段69號,25.062796,121.52563,25914085*22
鼎鼎大飯店股份有限公司,6樓健身房,台北市,大安區,敦化南路二段201號,25.026612,121.549282,931077362
臺北市大安區新生國民小學,健康中心外面,台北市,大安區,新生南路二段36號,25.02982,121.53362,23913122-234
財團法人台灣文學發展基金會臺北市紀州庵新館,紀州庵文學森林1樓樓梯口,台北市,中正區,同安街107號,25.021649,121.520421,02-23687577
松山慈惠堂,鼓樓左側，飲水機旁,台北市,信義區,福德街251巷33號,25.03652,121.587484,02-27261735
臺北找茶園-南港茶葉製造示範場,入口大廳,台北市,南港區,舊莊街二段336號,25.027406,121.664012,02-2653-0333
財團法人台北市南海普陀山慧濟寺,寺務處門口,台北市,士林區,中山北路七段190巷34-1號,25.12634,121.536201,02-28715131
台北美福大飯店,4樓健身中心櫃台前,台北市,中山區,樂群二路55號,25.080489,121.553897,277223399
英屬百慕達商友邦人壽保險股份有限公司台灣分公司,台北市松山區區南京東路四段1號13樓,台北市,松山區,區南京東路四段1號13樓,25.051974,121.549531,66058692
財團法人中華民國佛教慈濟慈善事業基金會-台北東區聯絡處,台北市信義區松隆路327號1樓,台北市,信義區,松隆路327號1樓,25.048578,121.578673,02-2764-3060
台北北投雅樂軒酒店,B1保安室旁(員工出入口),台北市,北投區,大業路300巷1號B1,25.12839,121.498579,968053090
克強公園游泳池,入口大廳右側,台北市,士林區,磺溪街55巷2號,25.107885,121.521889,8866-5105
財團法人國家實驗研究院台灣颱風洪水研究中心(台北辦公室),11樓辦公室入口右轉處,台北市,中正區,羅斯福路1段91號11樓,25.03112,121.519863,02-23219660#138
新光保全科技總部5樓,5樓辦公室內,台北市,內湖區,行愛路128號,25.063886,121.580105,920837888
臺北市立兒童新樂園,一樓緊急救護站前,台北市,士林區,承德路5段55號,25.097094,121.514709,28333823#621
臺北市立陽明教養院華岡院區,大門進入行政大樓1樓,台北市,士林區,凱旋路61巷4弄9號,25.135194,121.541256,2861-1380-355
台北市東湖國小,台北市東湖國小,台北市,內湖區,東湖路115號,25.06916,121.616068,26332932
臺北市立動物園,兒童動物區,台北市,文山區,新光路2段30號,24.999234,121.582308,02-29382300-613
臺北市立動物園,非洲區,台北市,文山區,新光路2段30號,24.993585,121.587592,02-29382300-613
臺北市立動物園,園內站,台北市,文山區,新光路2段30號,24.990145,121.587241,02-29382300-613
臺北市立兒童新樂園,1樓停車場停管室旁,台北市,士林區,承德路5段55號,25.097094,121.514709,963199598
臺北市立民權國民中學,秝秧樓1樓,台北市,大同區,重慶北路3段1號,25.063772,121.51382,(02)25931951-125
臺北市信義區博愛國民小學,1F健康中心前走廊,台北市,信義區,松仁路95巷20號,25.035815,121.570663,(02)23450616#340
臺北市立動物園,澳洲區,台北市,文山區,新光路2段30號,24.994076,121.585468,02-29382300-613
臺北市立動物園,教育中心,台北市,文山區,新光路2段30號,24.997737,121.58182,02-29382300-613
臺北市立動物園,教育中心,台北市,文山區,新光路2段30號,24.997732,121.581989,02-29382300-613
臺北市立動物園,行政大樓,台北市,文山區,新光路2段30號,24.997392,121.582362,02-29382300-613
臺北市立動物園,新光特展館,台北市,文山區,新光路2段30號,24.997474,121.583076,02-29382300-613
臺北市立動物園,爬蟲館,台北市,文山區,新光路2段30號,24.994771,121.589132,02-29382300-613
柯達大飯店股份有限公司中山分公司,接待大廳自動門左側,台北市,中山區,中山北路二段139號,25.061986,121.523074,25255555
柯達大飯店股份有限公司松江分公司,一樓電梯口左側,台北市,中山區,松江路251號,25.05933,121.533459,25159999
臺北市立動物園,溫帶區,台北市,文山區,新光路2段30號,24.992778,121.590366,02-29382300-613
臺北市立動物園,非洲區,台北市,文山區,新光路2段30號,24.994567,121.588376,02-29382300-613
臺北市立動物園,非洲區,台北市,文山區,新光路2段30號,24.995014,121.586053,02-29382300-613
Curves女性專用30分鐘健身中心信義永康店,辦公室,台北市,大安區,信義路二段222號2樓,25.033409,121.531367,33222610
交通部臺灣鐵路管理局臺北運務段臺北站,B2F月台層第三月台旅客響導室內,台北市,中正區,北平西路3號,25.047924,121.517081,02-2381-5226#2476
交通部臺灣鐵路管理局臺北運務段臺北站,1樓北側鐵路警察局外,台北市,中正區,北平西路3號,25.047924,121.517081,02-2381-5226#2476
Curves 女性專用30分鐘健身中心南京小巨蛋店,伸展區前方,台北市,松山區,南京東路4段50號4樓之2,25.051527,121.553446,02-2579-8181
臺北市文山區萬興國小,活動中心1樓游泳池入口處,台北市,文山區,秀明路2段114號,24.990429,121.576593,02-29381721*160
台北市士林區蘭雅國小,一樓川堂,台北市,士林區,磺溪街57號,25.10841,121.523137,02-28366052#225
臺北市信義區興雅國民小學,臺北市信義區興雅國民小學,台北市,信義區,基隆路一段83巷9號,25.054159,121.563862,27618156-632
安心食品服務股份有限公司總部8樓,安心食品服務股份有限公司8樓電梯前,台北市,中山區,松江路156-1號8樓,25.054624,121.532793,02-25675001#202
HiFIT運動空間,櫃檯旁,台北市,大安區,復興南路一段125號3樓,25.043336,121.544038,926184621
台北國賓大飯店,大廳,台北市,中山區,中山北路2段63號,25.056582,121.52313,02-2100-2100#2245
臺北市士林區葫蘆國民小學,中正樓一樓學務處門外,台北市,士林區,環河北路三段95號,25.084102,121.507947,02-28129586#826
Curves女性專用30分鐘健身中心忠孝新生店,店內櫃台旁,台北市,中正區,新生南路1段60號3樓,25.040679,121.53245,33222610
陽明山國家公園龍鳳谷遊客服務站,服務站入口處右方,台北市,北投區,泉源路200號,25.143153,121.526371,(02)2893-5580
台北市景興國小,警衛室外,台北市,文山區,景華街150巷21號,24.996434,121.548293,29329438#37
臺北市士林區社子國小,校門口左方民族樓穿堂,台北市,士林區,延平北路六段308號,25.085495,121.507988,02-28129059轉836
台北市立金華國民中學,金華國中中穿堂,台北市,大安區,新生南路二段32號,25.031201,121.533178,33931799#361
臺北市西湖老人日間照顧中心,近辦公室門口,台北市,內湖區,內湖路一段285號6 樓,25.081205,121.568493,02-2656-1700轉214
臺北市文山區力行國民小學,健康中心內,台北市,文山區,木新路三段155巷7號2樓,24.980969,121.561162,02-29363995#850
臺北市士林區富安國小,警衛室,台北市,士林區,延平北路8段135號,25.105869,121.482442,28103192*110
臺北市立蘭雅國民中學,1樓川堂(校門口),台北市,士林區,忠誠路2段51號,25.110656,121.531042,02-28329377 *251
新光人壽保險股份有限公司前瞻大樓,1樓,台北市,松山區,南京東路五段1、3號,25.051819,121.557367,02-77072606
英屬百慕達商友邦人壽保險股份有限公司台灣分公司,台北市大安區敦化南路二段333號17樓,台北市,大安區,敦化南路二段333號17樓,25.022086,121.549117,66058692
國立臺北科技大學,忠孝東路警衛室,台北市,大安區,忠孝東路3段1號,25.042434,121.535636,27712171#1265
教育部,大廳右側,台北市,中正區,中山南路5號,25.042548,121.519184,277366014
臺北市私立南華高中,一樓川堂,台北市,中正區,汀州路三段58號,25.01568,121.531079,02-23686818-112
前港公園游泳池,入口大廳右側,台北市,士林區,前港街45號,25.085832,121.521127,2880-5598
臺北市開平餐飲職業學校,校本部中庭,台北市,大安區,復興南路二段148巷24號,25.028796,121.542081,(02)27556939#255
開平餐飲學校主廚之家,主廚之家穿堂,台北市,大安區,復興南路2段148巷15號,25.028543,121.542372,(02)27556939#255
晶華國際酒店股份有限公司,地下3樓健身房,台北市,中山區,中山北路二段39巷3號,25.054067,121.524579,955086579
故宮晶華股份有限公司,故宮晶華股份有限公司,台北市,士林區,至善路二段221號,25.101359,121.547821,02-28829393
遠企中心高級商業辦公大樓,一樓大廳會客沙發區,台北市,大安區,敦化南路二段207號,25.025986,121.549306,02-27369880
內溝溪生態展示館,1樓大門入口右側,台北市,內湖區,康樂街236之3號,25.087244,121.622896,（02）2634-7851
薩摩亞商亞立基國際股份有限公司台灣分公司,健身房入口處右側,台北市,大同區,寧夏路11號B1,25.054697,121.515032,(02)77321069
老爺榮康股份有限公司_北投老爺酒店,1F大廳,台北市,北投區,中和街2號,25.138848,121.501697,02-2896-9777*8665
台北美福大飯店,1樓商務中心,台北市,中山區,樂群二路55號,25.080489,121.553897,277223399
國泰商旅敦南分公司(台北慕軒),一樓大廳走道,台北市,大安區,敦化南路1段331號,25.034065,121.549284,938698063
臺北市大安區老人日間照顧服務,臺北市大安區老人日間照顧服務,台北市,大安區,新生南路三段52-5號5樓,25.021179,121.533992,02-23661321
台灣新光保全股份有限公司3館波士頓大樓,電梯3樓右側,台北市,內湖區,行愛路140巷25號3樓,25.063635,121.579337,(02)7719-9888#20205
台灣新光保全股份有限公司2館優勢領航大樓,3樓左側屋內,台北市,內湖區,新湖二路128號3樓,25.062436,121.578749,7719-9888#21531
北投老人日間照顧中心,台北市北投區裕民六路120號3樓,台北市,北投區,裕民六路120號3樓,25.114535,121.517648,28218267*105
超越體能顧問有限公司,下樓梯右側,台北市,松山區,南京東路四段17號b1,25.051908,121.550245,02-27152733
台北市內湖區南湖國民小學,學校五樓之體育組辦公室外面走廊,台北市,內湖區,康寧路三段200號,25.068697,121.612033,02-26321296#36
台北君悅酒店,5樓健身中心,台北市,信義區,松壽路2號,25.035486,121.563018,02-27201233
東南亞秀泰影城,2樓販賣部旁邊,台北市,中正區,羅斯福路4段136巷3號,25.012775,121.535355,02-23678999
台北市松山區西松國民小學,總務處前,台北市,松山區,三民路5號,25.052246,121.563345,27609221#340
國立陽明大學醫學院二館1樓,國立陽明大學醫學院二館1樓,台北市,北投區,石牌立農街二段155號醫學院二館1樓,25.119633,121.513336,28267000#2358
藍鵲地景(圓山風景區),藍鵲地景,台北市,中山區,中山北路4段1號,25.079063,121.528468,02-27593001
遠東百貨股份有限公司台北分公司,1樓服務台,台北市,中正區,寶慶路32號,25.041642,121.509108,931091203
京站時尚廣場,Q1出入口卡務中心外,台北市,大同區,承德路一段一號,25.049345,121.516825,02-2182-8888
台北西華大飯店,1樓員工出入口,台北市,松山區,民生東路三段111號,25.057954,121.545709,988235123
立榮航空股份有限公司,立榮客機,台北市,中山區,長安東路二段117號8樓,25.048501,121.535545,03-3515340
立榮航空股份有限公司,立榮客機,台北市,中山區,長安東路二段117號8樓,25.048501,121.535545,03-3515340
立榮航空股份有限公司,立榮客機,台北市,中山區,長安東路二段117號8樓,25.048501,121.535545,03-3515340
桑富士運動俱樂部,地下2樓健身房櫃檯旁,台北市,大同區,平陽街29號,25.055138,121.516998,02-25527579
微風台北車站,二樓西北角落,台北市,中正區,北平西路3號2樓,25.048203,121.516535,921652270
衛生福利部,3樓西側哺乳室前,台北市,南港區,忠孝東路六段488號,25.050197,121.595335,02-85906522
衛生福利部,8樓西側公共空間,台北市,南港區,忠孝東路六段488號,25.050261,121.595335,02-85906522
陽明山國家公園擎天崗遊客服務站,服務站大門入口處,台北市,士林區,菁山路101巷246號,25.167212,121.574182,228615404
陽明山國家公園冷水坑遊客服務站,一樓展場內,台北市,士林區,菁山路101巷170號,25.165613,121.56391,(02)2861-0036
長源汽車台北營業處,顧客休息室,台北市,中山區,濱江街321號,25.072451,121.547381,02-25152108
醫療財團法人病理發展基金會台北病理中心,1樓入口處右側,台北市,大同區,重慶北路3段146號,25.06793,121.513493,85962050分機707
臺北市立民族國中,川堂,台北市,大安區,羅斯福路4段113巷13號,25.011186,121.538874,27322935分機227
臺北市立古亭國中,古亭國中一校健康中心門口,台北市,中正區,中華路二段465號,25.024756,121.509983,23090986*314
貓空纜車貓空站,大廳,台北市,文山區,指南路3段38巷35號,24.968538,121.588107,02-29363730#3678
Curves女性專用30分鐘健身中心士林店,櫃檯內,台北市,士林區,中山北路五段687號2樓之1,25.097215,121.527219,02-28341248
博愛國小運動中心-舞動陽光有限公司,博愛國小學生活動中心B1,台北市,信義區,松仁路95巷20號,25.036375,121.570903,02-8789-2525
新光人壽保險股份有限公司,1F,台北市,中正區,忠孝西路一段66號,25.046245,121.515283,938521301
臺北市萬華區西門國小,川堂,台北市,萬華區,成都路98號,25.043172,121.503597,23113519*1104
臺北市立螢橋國中,健康中心前走廊,台北市,中正區,汀州路三段4號,25.019355,121.526235,23688667#223
臺北市立動物園,昆蟲館,台北市,文山區,新光路2段30號,24.996648,121.580694,02-29382300-613
臺北市立動物園,蟲蟲探索谷,台北市,文山區,新光路2段30號,24.993658,121.581166,02-29382300-613
私立大同高中,健康中心櫃架,台北市,中山區,中山北路三段40號,25.066838,121.522184,(02)25984405
臺北捷運中山地下街,中山地下書街 R8逃生出口旁,台北市,中山區,南京西路16號B1樓,25.052429,121.520526,25238993#261
臺北捷運北投會館,活動中心地下2樓公共區域服務台附近,台北市,北投區,大業路527巷88號,25.13455,121.483311,02-28930105#8308
貓空纜車動物園站,車站4樓,台北市,文山區,新光路2段8號,24.99569,121.577094,02-29363730#3678
臺北市政府警察局松山分局,10樓大禮堂內,台北市,松山區,南京東路4段12號10樓,25.051286,121.552394,02-25796532
金年華三溫暖,進大門口左側,台北市,中山區,天津街56號B1,25.050479,121.523039,02-2531-3141
仰德區民活動中心,仰德區民活中心內德行里里辦公處門口,台北市,士林區,德行西路30號,25.105669,121.523262,02-8866-2865
臺北市立格致國民中學,臺北市立格致國民中學健康中心,台北市,士林區,仰德大道四段75號健康中心,25.13085,121.546354,28610079-122
臺北市身心障礙福利會館,1樓大廳,台北市,中山區,長安西路5巷2號,25.050578,121.52082,02-25222486
艾大米工作室,艾大米工作室,台北市,南港區,南港區昆陽街157巷3號,25.030861,121.611958,929055536
豪景大酒店,大廳大門左方等待區電腦旁,台北市,萬華區,環河南路一段77號,25.044624,121.501439,23719777*8211
豪景大酒店,四樓健身房內,台北市,萬華區,環河南路一段77號4樓,25.044624,121.501439,23719777*8211
臺北市立聯合醫院松德院區,第三院區一樓走廊,台北市,信義區,松德路309號,25.029184,121.574562,979307861
臺北市立聯合醫院松德院區,第二院區一樓大廳,台北市,信義區,松德路309號,25.029724,121.573774,979307861
Choice Fitness,Choice Fitness,台北市,松山區,南京東路5段268號3樓,25.051139,121.566723,27679027
台北市私立光仁國小,校門口警衛室,台北市,萬華區,萬大路423巷15號,25.021416,121.499571,23032874轉830
台北喜來登大飯店,B2宴會廳,台北市,中正區,忠孝東路1段12號,25.044972,121.522054,02-66331680
南港區北興宮步道之北興宮,北興宮正門口供桌左手邊,台北市,南港區,成福路272號,25.037749,121.590403,02-27828877
我們的健身房,位於大門前方.櫃檯旁邊,台北市,信義區,崇德街43號1樓,25.024413,121.554292,921200808
信義區虎山步道之瑤池宮,信義區瑤池宮大門口供桌左手邊,台北市,信義區,松山路677之25號,25.028922,121.583363,02-27828877
臺北市內湖運動中心,5F,台北市,內湖區,洲子街12號,25.078233,121.575154,02-26277776#128
台北市私立滬江高級中學,滬江高中學務處,台北市,文山區,羅斯福路六段336號,24.989488,121.538885,8663-1122
晶華國際酒店股份有限公司,飯店大廳,台北市,中山區,中山北路2段39巷3號,25.054187,121.52424,930884397
國立臺北科技大學,衛生保健組,台北市,大安區,忠孝東路3段1號,25.042434,121.535636,27712171#1265
臺北市立兒童新樂園,三樓第二出口旁,台北市,士林區,承德路5段55號,25.097079,121.514502,28333823#621
高勁健身事業股份有限公司永春分公司,健身房的櫃台旁,台北市,信義區,忠孝東路5段451號B1,25.041104,121.576252,02-27650700
高勁健身事業股份有限公司巨蛋分公司,營運櫃台斜對面,台北市,松山區,南京東路4段2號,25.051346,121.549569,(02)25796565
京華城全生活廣場,一樓服務台,台北市,松山區,八德路4段138號,25.04762,121.561902,953552535
陽明海運股份有限公司台灣營業部,陽明海運重慶大樓一樓大廳,台北市,大同區,重慶北路2段243號,25.062502,121.5139,(02)2181-6808
交通部臺灣鐵路管理局臺北運務段臺北站,1樓大廳南側服務中心內,台北市,中正區,北平西路3號,25.047924,121.517081,02-2381-5226#2476
台灣鐵路管理局臺北運務段萬華車站,萬華站西剪票口,台北市,萬華區,康定路382號,25.033397,121.500439,02-23020481
陽明山國家公園管理處行政中心,大門進入後右側,台北市,北投區,竹子湖路1-20號,25.155667,121.54769,02-28613601分機606
柯達大飯店台北一店,一樓商務中心內,台北市,中山區,中山北路二段11巷1號,25.052813,121.523346,25422222
台北市立景興國民中學,健康中心外走廊,台北市,文山區,景興路46巷2號,24.996187,121.544225,29323796*125
臺北市立動物園,亞洲熱帶雨林區,台北市,文山區,新光路2段30號,24.998853,121.581068,02-29382300-613
台北市信義區福德國小,福德國小健康中心,台北市,信義區,福德街253號,25.038899,121.586503,27277992*35
台北市老松國民小學,川堂,台北市,萬華區,桂林路64號,25.038046,121.502725,02-23361266-126
臺北市立中正國民中學,警衛室,台北市,中正區,愛國東路158號,25.032339,121.522007,912511138
臺北市立動物園,非洲區,台北市,文山區,新光路2段30號,24.995442,121.587088,02-29382300-613
臺北市立動物園,溫帶區,台北市,文山區,新光路2段30號,24.992763,121.59014,02-29382300-613
臺北市立動物園,鳥園車站,台北市,文山區,新光路2段30號,24.994815,121.589588,02-29382300-613
台北市龍山國民中學,穿堂,台北市,萬華區,南寧路46號,25.036077,121.504618,23362789*305
臺北市立弘道國民中學,穿堂,台北市,中正區,公園路21號,25.037488,121.515293,23715520#331
臺北市立文山區永建國民小學,校門口警衛室,台北市,文山區,試院路2號,24.98758,121.550043,02-22363855#102
台北市立五常國民小學,川堂至健康中心之走廊上,台北市,中山區,台北市五常街16號,25.063715,121.541984,02-25023416*826
台北市立北安國民中學,學校門口川堂,台北市,中山區,明水路325號,25.077734,121.541646,25333888轉235
台北市中山區濱江國小,1樓聯合辦公室(靠近總務處)入口處,台北市,中山區,樂群二路266巷99號,25.078001,121.561637,85021571
臺北市立雙園國中,雙園國中警衛室旁,台北市,萬華區,興義街2號,25.027554,121.492646,02-23037605*136
臺北市信義區永春國民小學,操場與忠孝樓雅士廊交接處,台北市,信義區,松山路225巷48號,25.044198,121.579342,02-27641314#620
臺北市立長安國中,學務處前樓梯轉角處,台北市,中山區,松江路70巷11號,25.046389,121.533164,2511-2382*123
臺北市立忠孝國民中學,穿堂,台北市,大同區,西寧北路32號,25.051223,121.508218,25524890#37
台北市立中山女子高級中學,逸仙樓一樓,台北市,中山區,長安東路2段141號,25.079202,121.542709,25073148
台北市立景美國民中學,會議室一門口,台北市,文山區,台北市文山區景中街27號,24.993038,121.543066,89353130#307
中華工程股份有限公司,B1F及13F,台北市,松山區,東興路12號,25.049888,121.565201,933600801
環球世貿大樓,1樓大廳右側消防箱旁,台北市,信義區,信義路5段150巷2號,25.028196,121.570994,02-27207691
臺北市立天母國民中學,健康中心,台北市,士林區,天母東路120號,25.117097,121.538127,28754864-235
臺北市立至善國民中學,健康中心門外走廊,台北市,士林區,至善路二段360號,25.103587,121.555425,28411350轉33
臺北市士林區三玉國民小學,健康中心,台北市,士林區,天母東路116號,25.118013,121.537344,28751369#722
臺北市內湖國民小學,一樓和平走廊,台北市,內湖區,內湖路2段41號,25.079126,121.580239,02-227970237#232
二二八國家紀念館,一樓大廳右側(志工服務台前方),台北市,中正區,南海路54號,25.031614,121.51379,02-23326228*206
台北市新和國小,健康中心側門外牆,台北市,萬華區,西藏路125巷31號,25.025983,121.503337,23038298*53
臺北市立木柵國民中學,木柵國中警衛室門口外牆,台北市,文山區,木柵路3段102巷12號,24.987413,121.567643,(02)29393031轉331
臺北市萬華區福星國民小學,警衛室,台北市,萬華區,中華路一段66號,25.046784,121.507931,02-23144668-132
錢穆故居,錢穆故居多媒體教室,台北市,士林區,臨溪路72號,25.094169,121.548009,02-2880-5809
陽明山國家公園竹子湖蓬萊米原種田故事館,竹子湖路15-1號,台北市,北投區,竹子湖路15-1號,25.168282,121.539439,02-28625545
臺北市中正區忠義國民小學,川堂,台北市,中正區,中華路二段307巷17號,25.02963,121.506346,23038752
台北市內湖區大湖國小,警衛室,台北市,內湖區,大湖山莊街170號,25.088121,121.60048,27915870-36
台北市中山老人住宅暨服務中心,1F大廳接待區,台北市,中山區,新生北路2段101巷2號,25.057314,121.528413,0912-290166
全民運動健身中心,全民運動健身中心,台北市,松山區,八德路三段34-1號地下一樓,25.048091,121.552336,931411100
臺北市立動物園,企鵝館,台北市,文山區,新光路2段30號,24.998347,121.581036,02-29382300-613
臺北市立動物園,列車總站,台北市,文山區,新光路2段30號,24.99798,121.582684,02-29382300-613
臺北市立動物園,兒童動物區,台北市,文山區,新光路2段30號,24.998466,121.582233,02-29382300-613
臺北市立動物園,臺灣動物區,台北市,文山區,新光路2段30號,24.998184,121.580549,02-29382300-613
臺北市立動物園,昆蟲館,台北市,文山區,新光路2段30號,24.996312,121.580731,02-29382300-613
臺北小巨蛋冰上樂園,2樓售票櫃台前,台北市,松山區,南京東路4段2號,25.050808,121.549795,25783536#726
臺北市立動物園,大門廣場,台北市,文山區,新光路2段30號,24.998772,121.581665,02-29382300-613
臺北市立動物園,臺灣動物區,台北市,文山區,新光路2段30號,24.99728,121.580903,02-29382300-613
臺北市立動物園,亞洲熱帶雨林區,台北市,文山區,新光路2段30號,24.995637,121.583564,02-29382300-613
臺北市立動物園,沙澳區,台北市,文山區,新光路2段30號,24.99535,121.585795,02-29382300-613
臺北市立動物園,亞洲熱帶雨林區,台北市,文山區,新光路2段30號,24.998853,121.581068,02-29382300-613
貓空纜車指南宮站,車站1樓,台北市,文山區,指南路3段157巷200號,24.979083,121.589534,02-29363730#3678
雙園國中室內綜合球館-舞動陽光有限公司,雙園國中綜合大樓5樓,台北市,萬華區,西園路二段320巷55弄3號5樓,25.027812,121.491591,2785-2354
柯達大飯店台北敦南,一樓接待大廳,台北市,大安區,敦化南路二段238號,25.021106,121.548324,27323333
特力屋士林店,1F入口處,台北市,士林區,基河路258號1F,25.092605,121.5202,02-2889-1000*669
寒舍國際酒店股份有限公司,6樓服務中心櫃檯旁,台北市,信義區,松高路18號,25.038884,121.567516,916065909
臺北市立動物園,鳥園,台北市,文山區,新光路2段30號,24.995364,121.590146,02-29382300-613
交通部臺灣鐵路管理局臺北運務段松山站,東邊剪收票口入口右前方,台北市,信義區,松山路11號,25.049192,121.577918,02-27666323
財團法人國家實驗研究院國家地震工程研究中心,1樓大廳,台北市,大安區,辛亥路3段200號,25.017325,121.547896,(02)66300820
成德國中運動中心-舞動陽光,一樓櫃台前,台北市,南港區,東新街108巷23號,25.045059,121.587751,2782-5000
Curves女性專用30分鐘健身中心復興北路店,伸展區右方,台北市,中山區,南京東路三段208號五樓,25.051672,121.543218,988188573
TOP運動健身俱樂部,櫃台左走方,台北市,大安區,忠孝東路四段285號4樓之3,25.04169,121.55413,972219786
台北市信義區光復國小,健康中心門口,台北市,信義區,光復南路271號,25.04027,121.557853,27585076*826
台北市河堤國民小學,警衛室,台北市,中正區,汀州路2段180號,25.042141,121.519872,928231418
臺北市立北政國民中學,警衛室,台北市,文山區,指南路3段2巷14號,24.98498,121.578255,29393651轉33
臺北市文山區志清國民小學,川堂內,台北市,文山區,景福街21巷5號,24.998665,121.538908,2932-3875 #35
臺北市萬華區福星國民小學,學群大樓五樓游泳池旁,台北市,萬華區,中華路一段66號,25.046784,121.507931,02-23144668-132
臺北市士林區雙溪國民小學,吟風樓大門,台北市,士林區,中社路2段66號,25.106069,121.563886,02-28411038#22
臺北市立福安國民中學,總務處及健康中心外走廊,台北市,士林區,延平北路七段250號,25.102855,121.488071,28108766＃135
台北市士林區溪山國民小學,健康中心,台北市,士林區,至善路3段199號,25.095049,121.524608,28411010轉111
台北市文山區萬福國民小學,川堂,台北市,文山區,台北市羅斯福路5段170巷32號,25.004893,121.536712,29353123*128
臺北市士林區文昌國民小學,健康中心門口外之牆邊,台北市,士林區,文林路615巷20號,25.09941,121.521296,28365411*125
台北市大佳國小,大佳國小,台北市,中山區,濱江街107號,25.073294,121.536367,25035816-112
臺北市大安區銘傳國民小學,學校川堂,台北市,大安區,羅斯福路4段21號,25.014065,121.535576,23639815*24
臺北市立動物園,圖書館,台北市,文山區,新光路2段30號,24.997494,121.582351,02-29382300-613
臺北捷運東區地下街,第四廣場10號出入口,台北市,大安區,大安路1段77號地下1樓,25.041981,121.546266,87733329#234
貓空纜車動物園南站,車站1樓,台北市,文山區,新光路2段30-2號,24.990172,121.587576,02-29363730#3678
交通部臺灣鐵路管理局臺北運務段臺北站,B2F地下二樓月台層第四月台嚮導室內,台北市,中正區,北平西路3號,25.047924,121.517081,02-2381-5226#2476
臺北市大安區仁愛國民小學,進穿堂左邊佈告欄旁,台北市,大安區,安和路1段60號,25.035773,121.55235,227053402
臺北市立芳和國民中學,川堂,台北市,大安區,臥龍街170號,25.018672,121.55032,27321961*305
臺北市政府警察局萬華分局莒光派出所,一樓大門旁,台北市,萬華區,莒光路171號,25.031112,121.502761,02-23064987
臺北市政府警察局內湖分局康樂派出所,一樓值班臺,台北市,內湖區,康樂街110巷16弄20號,25.070427,121.618388,226342237
臺北市政府警察局北投分局關渡派出所,值班台右側,台北市,北投區,關渡里大度路3段305號,25.122997,121.465947,02-28583864
臺北市政府警察局大安分局新生南路派出所,1樓大門出入口旁,台北市,大安區,仁愛路3段18號,25.037815,121.534012,02-23258611
臺北市政府警察局南港分局南港派出所,1樓大廳值班台旁,台北市,南港區,興中路12巷2號1樓,25.054945,121.607169,937087884
臺北市政府警察局中山分局,1樓大廳出入口右側,台北市,中山區,中山北路2段1號,25.052488,121.522842,02-25415341
臺北市政府警察局萬華分局西園路派出所,值勤臺後方,台北市,萬華區,東園街17號,25.028113,121.495711,02-23032943
臺北市政府警察局北投分局公園派出所,門口旁,台北市,北投區,紗帽路110號,25.148752,121.548615,978950910
臺北市政府警察局中正第二分局思源街派出所,值班台後方,台北市,中正區,汀州路三段72號,25.015134,121.532063,02-23650844
臺北市政府警察局交通警察大隊大安分隊,值班台旁,台北市,大安區,新生南路1段157巷19號4樓,25.035039,121.535775,02-23250004
臺北市政府警察局中山分局長安東路派出所,值班台旁,台北市,中山區,長安東路2段165號,25.04835,121.540421,933612115
臺北市政府警察局萬華分局警備隊,1樓備勤室內,台北市,萬華區,長沙街2段169號,25.04056,121.501966,02-2361-0080
臺北市政府警察局中山分局警備隊,一樓辦公室(大門入口左側),台北市,中山區,長安東路二段11號,25.048636,121.530532,02-25372521
臺灣警察專科學校,游泳池入口處,台北市,文山區,興隆路3段153號,24.999827,121.560357,02-22308272
臺北市政府警察局信義分局福德街派出所,1樓值班台後方,台北市,信義區,福德街198號,25.037297,121.581632,988006999
臺北市政府警察局,服務中心大廳,台北市,中正區,延平南路96號,25.043907,121.509477,02-2331-9225
台北大倉久和大飯店健身俱樂部,20樓健身房入口正前方,台北市,中山區,南京東路1段9號20樓,25.052506,121.523313,02-2181-5123
及人大廈,大門左側,台北市,松山區,民生東路4段80巷7號,25.057108,121.553116,227154357
財團法人台北市木柵忠順廟,大廳金紙放置旁,台北市,文山區,中崙路13號,24.983651,121.564602,986911915
內政部,九樓公共區域,台北市,中正區,徐州路5號,25.04221,121.51947,02-23565310
臺灣警察專科學校,後操場司令台,台北市,文山區,興隆路3段153號,25.003795,121.572905,02-22308272
臺灣警察專科學校,民族樓3樓,台北市,文山區,興隆路3段153號,24.998026,121.559363,02-22308272
國立政治大學,研究總中心,台北市,文山區,指南路二段64號,24.987331,121.576128,02-29393091轉69327
臺北市立聯合醫院林森中醫昆明院區,中醫門診中心一樓候診區,台北市,萬華區,昆明街100號,25.044324,121.50492,23887088-3911
遠東航空股份有限公司,35排DEF行李櫃內,台北市,松山區,敦化北路405巷123弄5號,25.062695,121.555896,02-2712-1555*5821
臺北市市政大樓,市政府地下1樓餐廳門口,台北市,信義區,市府路1號地下1樓,25.037461,121.563823,227258658
臺北市立大同高級中學,活動中心３樓,台北市,中山區,長春路167號,25.054911,121.535161,(02)25054269-124
臺北市士林區公所,9樓洽公民眾區,台北市,士林區,中正路439號9樓,25.092762,121.519559,28826200#6601
臺北市文山區公所,行政中心8樓區公所大門口入口,台北市,文山區,木柵路3段220號8.9樓,24.98964,121.570083,29365522-324
台北市立中崙高級中學,1樓川堂,台北市,松山區,八德路四段101號,25.048712,121.561191,2528-4156
臺北田徑場,臺北田徑場行政廊道,台北市,松山區,敦化北路3號,25.049461,121.551034,25702330#6531
臺北市立懷生國民中學,2F訓導處內,台北市,大安區,忠孝東路3段248巷30號,25.04015,121.540847,02-27215078-225
臺北市立松山高中,本校穿堂,台北市,信義區,基隆路一段156號,25.043646,121.565588,27535968轉253
臺北市立成德國民中學,校區內社區大學辦公室前走廊,台北市,南港區,東新街108巷23號,25.045021,121.587729,02-26515636-341
臺北市立聯合醫院陽明院區,健檢中心入口左側櫃檯旁,台北市,士林區,雨聲街105號,25.105342,121.531736,979309091
國立臺灣戲曲學院,演藝中心大廳,台北市,文山區,木柵路三段66巷8之1號,24.986839,121.566684,27962666#1420
臺北市政府警察局信義分局吳興街派出所,派出所大門進入右方,台北市,信義區,吳興街262號,25.026586,121.563928,27398997
實踐大學台北校區,警衛室,台北市,中山區,大直街70號,25.083077,121.54527,915292426
臺北市政府體育局體育行政樓1樓,1樓電梯旁,台北市,松山區,南京東路4段10號1樓,25.051292,121.552094,25702330
臺北市政府警察局交通警察大隊士林分隊,交通分隊辦公室值勤台後方,台北市,士林區,福港街151號6樓,25.08728,121.517957,02-28881995
台北市松山區東昌里民活動場所,台北市松山區東昌里里辦公處大門口,台北市,松山區,民生東路4段112巷7弄24號,25.056572,121.555272,227154357
台北市私立育達高級商業家事學校,學校健康中心,台北市,松山區,寧安街12號,25.04992,121.554447,25706767@314
財團法人台北市私立愛愛院,愛愛院入口1樓接待大廳,台北市,萬華區,大理街175巷27號,25.034614,121.495453,02-2306-0493#2250
保證責任臺北市站前地下街場地利用合作社,控制中心門口,台北市,中正區,忠孝西路1段50-1號 B1,25.046937,121.515029,(02)2375-1567#23
國立政治大學,商學院1樓管理室外面,台北市,文山區,指南路2段64號,24.987331,121.576128,(02)29393091-88625
臺北市立民生國民中學,民生國中室內游泳池,台北市,松山區,新東街30巷1號,25.059805,121.566737,02-27653433#203
臺北市政府警察局交通警察大隊信義分隊,一樓辦公室為民服務區,台北市,信義區,信義路5段17號西側,25.03317,121.567508,02-2758-3420~1
臺北市政府警察局內湖分局,1樓便民服務臺後面,台北市,內湖區,民權東路6段101號,25.069189,121.589565,27909716*1105
臺北市政府警察局萬華分局,一樓值勤台旁,台北市,萬華區,康定路22號,25.045123,121.502931,23111475
臺北市政府警察局北投分局奇岩派出所,1樓值班台旁,台北市,北投區,公館路209巷11號,25.127651,121.508044,02-28913531
臺北市政府警察局北投分局石牌派出所,1樓偵詢室旁,台北市,北投區,文林北路296號,25.109935,121.512458,02-28231513
臺北市政府警察局北投分局永明派出所,值勤臺旁,台北市,北投區,石牌路2段101號,25.117934,121.516949,02-28213110
臺灣警察專科學校,中興樓1樓,台北市,文山區,興隆路3段153號,24.998026,121.559363,02-22308272
臺北市信義區永吉國民小學,至善樓112教室,台北市,信義區,松山路287巷5號,25.04308,121.579487,(02)87858111#113
好市多股份有限公司北投分公司,賣場B1,台北市,北投區,立德路117號,25.126936,121.471839,02-28986150
臺北市中正運動中心,2樓體適能中心,台北市,中正區,信義路一段1號,25.038234,121.519291,02-2396-3358
國立政治大學,後山警衛室,台北市,文山區,指南路2段64號,24.979936,121.568203,29387285
松山慈惠堂,義消辦公室外左側,台北市,信義區,福德街251巷33號,25.03652,121.587484,02-27261735
三軍總醫院,國醫致德堂旁入口,台北市,內湖區,成功路二段325號,25.071562,121.593965,02-87923311-16826
陸軍後勤指揮部,忠勤營區醫務所,台北市,南港區,忠孝東路六段360號,25.0496,121.591483,02-26512300
臺北市青少年發展處,本處1樓大廳,台北市,中正區,仁愛路一段17號,25.038999,121.522365,02-23514078#1753
康寧國民小學,康寧國小操場旁文化走廊,台北市,內湖區,臺北市內湖區星雲街121號,25.080064,121.594819,27901237
台北市南港區成德國小,http://www.ctps.tp.edu.tw/enab,台北市,南港區,東新街65號,25.04709,121.586873,2785-1376#131
臺北市中山區長安國民小學,本校活力新天地大樓1樓,台北市,中山區,吉林路15號,25.049769,121.530163,25118736
臺北市信義區興雅國民小學,臺北市信義區興雅國民小學,台北市,信義區,基隆路一段83巷9號,25.054159,121.563862,27618156-632
國立故宮博物院,圖書文獻大樓,台北市,士林區,至善路2段221號,25.101992,121.548663,66103600*2267
臺北市大同區公所,為民服務區(西側入口),台北市,大同區,昌吉街57號4樓,25.066061,121.515106,911196518
臺北小巨蛋,1樓北大廳,台北市,松山區,南京東路4段2號,25.051346,121.549767,25783536#631
中國文化大學,曉峰紀念館(圖書館),台北市,士林區,華岡路55號,25.137718,121.541006,(02)28610511#12304
臺北市大同區戶政事務所,大門入口明顯處,台北市,大同區,昌吉街57號3樓之1,25.066061,121.515106,2594-2569分機518
私立協和祐德高中,操場旁祐德大樓 1樓 樓梯間,台北市,信義區,忠孝東路5段790巷27號,25.041676,121.583725,02-27263131-267
臺北市立中山國中,健康中心內,台北市,松山區,復興北路361巷7號,25.060514,121.545643,02-27126701#323
台北市松山區松山國小,健康中心內,台北市,松山區,八德路4段746號,25.051109,121.579143,27672907#623
台北市立敦化國民中學,第一穿堂公布欄前,台北市,松山區,南京東路三段300號,25.051542,121.546707,87717890*34
臺北巿立介壽國中,校門口穿堂右側女廁門口前,台北市,松山區,延壽街401號,25.056424,121.556427,27674496*305
臺北市立聯合醫院附設政大門診部,1樓門診大廳入口右側,台北市,文山區,指南路2段117號,24.987703,121.575646,02-82377444
臺北市立聯合醫院附設萬華聯合診所,大門入口右側,台北市,萬華區,東園街152號,25.023174,121.497642,02-2339-5383
臺北市立?公國中,健康中心,台北市,信義區,福德街221巷15號,25.03682,121.586144,27261481轉311
台北市立西松高級中學,活動中心一樓,台北市,松山區,健康路325巷7號,25.055551,121.567082,25286618-215
臺北市立三民國民中學,川堂口,台北市,內湖區,民權東路六段45號,25.069154,121.586407,02-27924772*238
臺北市第二殯儀館,第二殯儀館化妝室入口處,台北市,大安區,辛亥路3段330號,25.013753,121.553039,02-87329721
臺北體育館羽球場,7樓羽球場,台北市,松山區,南京東路4段10號7樓,25.051292,121.552094,25702330
大安森林公園,音樂台辦公室,台北市,大安區,新生南路2段1號,25.031061,121.535552,2700-3830
臺北市立誠正國民中學,一樓川堂右側,台北市,南港區,富康街1巷24號,25.054232,121.618819,27828094*1341
大同大學-德惠宿舍,德惠宿舍,台北市,中山區,德惠街3巷3號,25.067245,121.523674,225984405
臺北市政府警察局內湖分局文德派出所,派出所值班台後方,台北市,內湖區,民權東路6段26號,25.066589,121.578944,02-27944946
臺北市內湖區公所,1樓駐警台旁,台北市,內湖區,民權東路6段99號,25.069239,121.589128,0227925828分機365
台北市立百齡高級中學,一樓川堂公用電話旁,台北市,士林區,承德路四段177號,25.08699,121.523062,0933-054454
臺北市信義區戶政事務所,行政中心2樓手扶梯入口右側,台北市,信義區,信義路5段15號2樓,25.03312,121.566864,02-27233977#310
臺北市立育成高級中學,大門中央穿堂,台北市,南港區,重陽路366號,25.058598,121.609333,937177485
臺北市南港區戶政事務所,民眾洽公區,台北市,南港區,南港路1段360號4樓,25.053315,121.607409,27825196-121
臺北市大安區公所,區公所8樓大廳(電梯出口),台北市,大安區,新生南路2段86號,25.02642,121.534511,02-23511711-9208
臺北市立和平高級中學,一樓川堂,台北市,大安區,臥龍街100號,25.019827,121.548893,27324300*134
國立臺灣師範大學,校本部游泳館一樓,台北市,大安區,和平東路1段162號,25.026215,121.527795,02-77343107
臺北市立啟聰學校,一樓健康中心,台北市,大同區,重慶北路3段320號,25.074684,121.513385,25924446*104
臺北市萬華區戶政事務所,4樓服務台旁,台北市,萬華區,和平西路3段120號4樓,25.035002,121.499888,23062706分機5306
三軍總醫院,一樓住出院櫃檯,台北市,內湖區,台北市內湖區成功路二段325號,25.071761,121.592404,02-87923311-16826
國立政治大學,體育館大門入口處,台北市,文山區,指南路2段64號,24.987331,121.576128,(02)29387087
國立臺灣師範大學校本部,校本部誠大樓5樓走廊,台北市,大安區,和平東路1段162號,25.025005,121.527798,02-77343107
國立臺北教育大學,衛生保健組A109門口,台北市,大安區,和平東路2段134號,25.024551,121.544599,02-66396688分機82048
臺北市立大安高級工業職業學校,大安高工健康中心,台北市,大安區,復興南路2段52號,25.032033,121.54336,02-27091630#1205
國立臺北藝術大學,女一舍入口處,台北市,北投區,學園路1號,25.135834,121.471936,02-28938803
臺北市大安運動中心,中心三樓,台北市,大安區,辛亥路三段55號,25.020777,121.545636,917559986
國立政治大學,自強2舍內公共區域,台北市,文山區,指南路2段64號,24.982557,121.57608,(02)29393091轉67161
臺北市政府警察局內湖分局東湖派出所,1樓進門左側便民服務區,台北市,內湖區,五分街10號,25.067469,121.61299,02-26313350
臺北市政府警察局內湖分局潭美派出所,辦公室內,台北市,內湖區,新明路324號,25.055359,121.581576,952384773
臺北市政府警察局交通警察大隊直屬第三分隊,10樓值班台前,台北市,中正區,泉州街40號10樓,25.024225,121.512129,(02)23052870
臺北市政府警察局交通警察大隊中山分隊,值班台左側,台北市,中山區,長安西路3號3樓,25.05021,121.520954,02-25815046
臺北市政府警察局松山分局民有派出所,民有派所值班台旁,台北市,松山區,民權東路3段162號,25.061853,121.54812,2712-3638
臺北市政府警察局大同分局重慶北路派出所,值勤臺右側,台北市,大同區,重慶北路三段320之2號,25.075351,121.513553,25910370
臺北市政府警察局北投分局大屯派出所,值班台後方,台北市,北投區,中和街534號,25.145513,121.49335,28913971
臺北市政府警察局文山第二分局景美派出所,值班台旁,台北市,文山區,景中街2號,24.992734,121.541107,02-29313459
臺北市政府警察局文山第一分局萬芳派出所,大門入口左側,台北市,文山區,萬美街1段50號,25.002266,121.566897,02-22391753
臺北市政府警察局萬華分局漢中街派出所,進大門口右側受理報案區前方,台北市,萬華區,漢中街122號,25.042162,121.507287,02-23312790
臺北市政府警察局,正門進入右側服務台旁,台北市,中正區,延平南路96號,25.043887,121.509787,02-2331-9225
臺北市政府警察局萬華分局昆明街派出所,1樓電腦桌辦公室內,台北市,萬華區,昆明街245號,25.037834,121.503935,02-23082353
臺北市政府警察局中正第一分局忠孝東路派出所,大門口旁,台北市,中正區,忠孝東路二段10號,25.043674,121.527171,912282237
臺北市內湖運動中心,1F大廳,台北市,內湖區,洲子街12號,25.078266,121.575229,02-26277776#128
臺北市立士林高級商業職業學校,體育組,台北市,松山區,士商路150號,25.094596,121.516611,28313114-304
臺北市政府警察局文山第一分局復興派出所,受理民眾E化報案區旁,台北市,文山區,木柵路一段54號,24.986769,121.547017,02-22367140
臺北市政府警察局交通警察大隊中正第二分隊,8樓勤臺旁,台北市,中正區,泉州街40號8樓,25.024511,121.512328,02-23030608
臺北市政府警察局交通警察大隊,1樓值勤臺左側門旁,台北市,中正區,愛國西路26號,25.035408,121.510986,02-23752100*1603
臺北市政府警察局士林分局溪山派出所,大門入口右側,台北市,士林區,至善路3段263號,25.119736,121.584527,28411110
臺北市政府警察局松山分局松山派出所,值班台旁,台北市,松山區,八德路4段692號,25.049957,121.577389,2767-0446
臺北市政府警察局士林分局後港派出所,大門右邊,台北市,士林區,福港街151號1樓,25.08728,121.517957,02-28812212
臺北市政府警察局內湖分局港墘派出所,值勤臺後方,台北市,內湖區,內湖路1段550號,25.078846,121.576762,02-87518690
臺北市政府警察局交通警察大隊文山一分隊,辦公室門口,台北市,文山區,萬美街1段50號3樓,25.002266,121.566897,02-22393757
臺北市政府警察局中正第一分局博愛路派出所,1樓辦公室走道底,台北市,中正區,博愛路119號,25.041782,121.511569,02-23118175
臺北市政府警察局萬華分局青年路派出所,1樓值勤臺旁,台北市,萬華區,萬大路423巷112號,25.021913,121.50212,02-23054219
臺北市政府警察局交通大隊直屬第一分隊,一樓隊部值班臺右前方,台北市,文山區,景豐街79號,25.002059,121.544671,(02)8932-1417
臺北市政府警察局內湖分局康寧派出所,值勤臺後方,台北市,內湖區,金湖路83號,25.081261,121.597549,87920061
臺北市政府警察局內湖分局內湖派出所,便民服務室內,台北市,內湖區,內湖路二段261號,25.082075,121.590133,27931031
臺北市政府警察局交通警察大隊內湖分隊,值班台正後方,台北市,內湖區,五分街8號六樓,25.067475,121.612902,02-26324701
臺北市政府警察局中正第二分局廈門街派出所,值班台旁,台北市,中正區,廈門街43號,25.025864,121.517685,(02)2368-4427
臺北市政府警察局中正第二分局南昌路派出所,值班台後方往二樓樓梯間。,台北市,中正區,南昌路1段7號,25.032327,121.516608,23218148
臺北市政府警察局刑事警察大隊,1樓入口右邊,台北市,中正區,武昌街一段69號,25.044246,121.509996,02-23817273
臺北市政府警察局中正第二分局南海路派出所,值班台旁,台北市,中正區,南海路35號,25.032041,121.513975,23752835
臺北市政府警察局中正第二分局泉州街派出所,值班台旁,台北市,中正區,中華路二段503號,25.024304,121.512073,02-23039915
高速公路局北區工程處,行政大樓1樓大廳,台北市,內湖區,成功路2段193巷12號,25.066416,121.591392,02-27936555*2891
臺灣警察專科學校,樂群樓2樓,台北市,文山區,興隆路三段153號,24.998724,121.561658,02-22308272
愛客發有限公司開封館,台北市中正區開封街一段33號,台北市,中正區,開封街一段33號,25.04614,121.512947,02-2388-5828
臺北市信義區信義國民小學,活動中心一樓,台北市,信義區,松勤街60號,25.03186,121.563206,27204005#827
健康國民小學,校園內,台北市,松山區,延壽街168號,25.056667,121.562785,25282814-125
臺北市松山區三民國民小學,三民國小校門口,台北市,松山區,民權東路五段1號,25.063178,121.564286,27646080*226
臺北市內湖區明湖國民小學,明湖國小警衛室,台北市,內湖區,康寧路三段105號,25.065697,121.584921,26323477#28
臺北市南港區修德國小,1樓視聽教室前,台北市,南港區,東新街118巷86號,25.045532,121.589636,02-27880500#133
台北市中山區懷生國民小學,懷生國小健康中心走廊,台北市,中山區,中山區安東街16巷2號,25.054159,121.563862,27710846
臺北市松山區民權國民小學,南大門川堂,台北市,松山區,民權東路4段200號,25.062525,121.562292,27652327-119
臺北市中山區長春國民小學,信義樓一樓樓梯間,台北市,中山區,長春路165號,25.054936,121.533901,25024366分機133
台北市信義區三興國小,忠孝樓一樓健康中心,台北市,信義區,基隆路二段99號,25.029467,121.558267,27385488-27
臺北市極限運動訓練中心,訓練中心一樓重訓室,台北市,南港區,忠孝東路七段382號,25.051855,121.607311,02-25702330分機6507
艋舺公園,艋舺公園管理室,台北市,萬華區,西園路1段145號,25.036085,121.499544,02-23026256
蔣中正宋美齡士林官邸正館,正館一樓,台北市,士林區,福林路60號,25.094898,121.530152,02-2883-6340#201
臺北市藝文推廣處-城市舞台(前台),本處城市舞台前台處,台北市,松山區,八德路三段25號,25.048494,121.551495,25775931分機265
光華數位新天地,1樓服務台,台北市,中正區,市民大道三段8號,25.045059,121.53191,02-23917105
臺北市政府警察局信義分局五分埔派出所,一樓後門旁,台北市,信義區,永吉路333號,25.045646,121.575887,02-27653349
臺北市政府警察局北投分局竹子湖派出所,派出所內值班台左側,台北市,北投區,竹子湖路16號,25.167467,121.540207,935766192
財團法人臺北市會展產業發展基金會(花博公園),爭豔館內,台北市,中山區,玉門街一號,25.070064,121.520483,2182-8886*7593
臺北市政府警察局交通警察大隊萬華分隊,值班台入口前,台北市,萬華區,環河南路2段102號6樓,25.036893,121.495492,(02)2302-3807
臺北市政府警察局中正第一分局仁愛路派出所,值班臺旁,台北市,中正區,仁愛路1段19號,25.038957,121.522662,02-2321-2067
臺北市松山區民生國民小學,本校正門進入左側警衛室外,台北市,松山區,敦化北路199巷18號,25.056515,121.552179,02-27122452
臺北市南港區南港國民小學,南港國小 健康中心外走廊,台北市,南港區,惠民街67號,25.057163,121.610384,27834678
臺北市市立明湖國中,健康中心內,台北市,內湖區,康寧路3段60號,25.07062,121.610643,26320617#312、313
臺北市信義國中,信義國中門口警衛室,台北市,信義區,松仁路158巷1號,25.028601,121.568125,27236771-383
內政部移民署台北市服務站,一樓大廳服務台旁邊,台北市,中正區,廣州街15號,25.036052,121.507998,(02)2388-9393-3104
台北二二八紀念館,1樓服務台,台北市,中正區,凱達格蘭大道3號,25.040363,121.515469,23897228轉22
遠東航空股份有限公司,36排DEF行李櫃內,台北市,松山區,敦化北路405巷123弄5號,25.062695,121.555896,02-2712-1555*5821
遠東航空股份有限公司,36排DEF行李櫃內,台北市,松山區,敦化北路405巷123弄5號,25.062695,121.555896,02-2712-1555*5821
臺北市政府警察局大同分局寧夏路派出所,一樓值勤臺右斜前方,台北市,大同區,錦西街200號,25.059372,121.515091,225575011
臺北市政府警察局文山第一分局指南派出所,值班台後方,台北市,文山區,指南路2段177號1樓,24.987381,121.577867,02-29382712
臺北市政府警察局文山第一分局木柵派出所,通往地下室樓梯平台(1樓往地下室1樓),台北市,文山區,木柵路二段202號,24.988789,121.563546,02-29397141
臺北市政府警察局士林分局蘭雅派出所,大門口右側，民眾服務區後方,台北市,士林區,中山北路6段153號,25.106571,121.524685,933895824
臺北市政府警察局士林分局永福派出所,派出所後方停車場,台北市,士林區,仰德大道三段49號,25.118447,121.552328,02-28611100
臺北市政府警察局士林分局溪山派出所平等駐在所,值勤臺後方,台北市,士林區,平等里平菁街86號,25.131156,121.576473,02-2861-0411
臺北市政府警察局大同分局建成派出所,值班台右後側,台北市,大同區,承德路1段80號,25.052725,121.517341,02-25565856
臺北市政府警察局松山分局三民派出所,三民派出所備勤室內,台北市,松山區,三民路5段163之1號,25.059536,121.563066,02-27621708
臺北市政府警察局萬華分局桂林路派出所,調閱監視器專區旁邊,台北市,萬華區,西園路1段156-1號,25.037225,121.499352,(02)2331-4823
臺北市政府警察局萬華分局東園街派出所,值勤臺旁,台北市,萬華區,長泰街130號,25.022316,121.498205,02 2303 3247
中國青年救國團臺北市信義運動中心,4樓男生更衣室前,台北市,信義區,松勤街100號,25.031644,121.5668,87861911#222.232
臺北市政府警察局中正第一分局介壽路派出所,派出所1樓辦公室後方,台北市,中正區,公園路54號,25.039994,121.515535,931126260
青年公園棒球場,正門入口處,台北市,萬華區,水源路199號,25.022052,121.506905,02-25702330分機6507
臺北市政府警察局大安分局安和路派出所,一樓值班臺旁,台北市,大安區,信義路四段216號,25.032995,121.552185,02-27025232
臺北市政府警察局大安分局瑞安街派出所,值班台旁鏡子前,台北市,大安區,瑞安街23巷17號,25.031193,121.545068,952768449
臺北市政府警察局大安分局和平東路派出所,1樓門口值班臺前,台北市,大安區,和平東路1段143號,25.026615,121.530509,02-23218073
臺北市政府警察局大安分局敦化南路派出所,值班臺旁,台北市,大安區,敦化南路一段236巷26號,25.040373,121.546911,27710400
臺北市政府警察局北投分局光明派出所,大門進入右側,台北市,北投區,泉源路14號,25.13737,121.504243,02-28912047
臺北市政府警察局北投分局長安派出所,入口進門左手邊,台北市,北投區,中央北路1段1號1樓,25.133282,121.501298,02-28912029
臺北市政府警察局中山分局建國派出所,1樓門口,台北市,中山區,民族東路284號,25.068007,121.536047,02-25091990
臺北市政府警察局中山分局民權一派出所,派出所內，詳洽值班台,台北市,中山區,新生北路二段127之1號,25.059955,121.527944,02-253146571
臺北市政府警察局中山分局大直派出所,大門口旁,台北市,中山區,北安路456號,25.079511,121.544124,2533-2984
臺北市稅捐稽徵處,前棟1樓服務中心,台北市,中正區,北平東路7之2號,25.046835,121.523005,(02)23949211#423
臺北市政府警察局刑事警察大隊特勤中隊,大門入口左側,台北市,中山區,長安西路3號5樓,25.05021,121.520954,02-25213116
臺北市政府警察局萬華分局武昌派出所,值勤臺前,台北市,萬華區,西寧南路4號1樓,25.047897,121.506356,02 2331 2212
臺北市政府警察局中山分局中山二派出所,大門入口右側,台北市,中山區,中山北路二段90號,25.057752,121.522617,02-25412002
臺灣警察專科學校,中正堂1樓,台北市,文山區,興隆路3段153號,25.000255,121.560727,02-22308272
臺北市政府警察局信義分局六張犁派出所,派出所大門進入右方,台北市,信義區,嘉興街301號,25.023702,121.555085,27355068
臺北市政府警察局南港分局玉成派出所,受理報案區內,台北市,南港區,向陽路150號,25.055028,121.594756,02-27886958
環南市場,環南市場自治會巡邏室,台北市,萬華區,環河南路二段245號,25.029942,121.489814,2305-1702
永吉市場,永吉市場自治會辦公室,台北市,信義區,永吉路278巷1弄30號,25.044334,121.574385,913353618
永樂市場布業商場,永樂市場布業商場二樓自治會辦公室,台北市,大同區,迪化街1段21號,25.054862,121.51055,02-25568483
臺北市寧夏商圈發展協會,寧夏夜市(寧夏路35號靠近蓬萊國小後門),台北市,大同區,位於民生西路至南京西路間。,25.062724,121.511306,933858140
臺北市大同區健康服務中心,大門入口處,台北市,大同區,昌吉街52號,25.065792,121.516316,02-25853227*6662
臺北花卉批發市場,A館管理室入口旁,台北市,內湖區,新湖三路28號,25.062877,121.574525,922648606
臺灣警察專科學校,醫務室外傷處理室,台北市,文山區,興隆路三段153號,24.998038,121.561478,02-22308272
國立政治大學,行政大樓2樓大廳,台北市,文山區,指南路2段64號,24.987331,121.576128,(02)29393091-62100
內雙溪自然中心,辦公室旁,台北市,士林區,至善路3段150巷27號,25.113449,121.577057,2841-4705
臺北市私立立人高中,校長室門口,台北市,萬華區,桂林路171號,25.038721,121.496553,23113423
臺北市政府警察局南港分局舊莊派出所,一樓大門入口左側，值勤檯前,台北市,南港區,舊莊街一段213號,25.038431,121.622663,02-27822492
臺北市政府警察局中山分局圓山派出所,一樓值班檯旁,台北市,中山區,中山北路3段62號,25.072731,121.523861,02-25942750
臺北市政府警察局內湖分局西湖派出所,派出所備勤室,台北市,內湖區,瑞光路515號,25.079179,121.569151,02-27987505
大同大學,體育室-辦公室,台北市,中山區,中山北路3段40號,25.068147,121.520622,2182928轉7519
臺北市政府警察局交通警察大隊文山第二分隊,1樓辦公室內,台北市,文山區,興隆路2段95巷8號,25.000021,121.546886,932916292
臺北市政府警察局文山第一分局木新派出所,一樓為民服務區內,台北市,文山區,恆光街45號,24.982404,121.567298,"02-29372488,0937-816930"
臺北市政府警察局士林分局文林派出所,一樓值勤台旁,台北市,士林區,文林路235號,25.090688,121.526763,02-28812211
臺北網球場,臺北網球場一樓門廳,台北市,松山區,南京東路四段6號,25.051286,121.5518,25702330
臺北市政府警察局南港分局同德派出所,1樓辦公室內,台北市,南港區,同德路83號,25.046109,121.585677,27851062
臺灣警察專科學校,民生樓1樓,台北市,文山區,興隆路三段153號,24.998026,121.559363,02-22308272
內政部營建署,一樓大門口,台北市,松山區,八德路二段342號,25.047595,121.544682,02-87712534
松山慈祐宮,服務台正前方,台北市,松山區,八德路4段761號,25.050271,121.579278,02-27659017
臺北市政府警察局萬華分局華江派出所,值勤台右側,台北市,萬華區,環河南路2段196號,25.034285,121.493218,02-23061531
台北市立景美女中,健康中心外走廊,台北市,文山區,木新路3段312號,24.980744,121.556181,02-29379885
臺北市孔廟,孔廟明倫堂1樓近4D劇院,台北市,大同區,大龍街275號,25.072762,121.516179,25923934分機18
臺北市立中正高級中學,警衛室,台北市,北投區,文林北路77號,25.104472,121.516541,02-28234811*342
臺北市立松山高級商業家事職業學校,健康中心,台北市,信義區,松山路655號,25.034963,121.580112,27261118*342
臺北市內湖區戶政事務所,3樓入口服務臺,台北市,內湖區,民權東路6段99號3樓,25.069239,121.589128,02-27912277轉313
台北市立南湖高級中學,東風樓3樓學務處,台北市,內湖區,康寧路3段220號,25.066494,121.610413,02-26308889#506
台北市立陽明高級中學,學校健康中心,台北市,士林區,中正路510號,25.09184,121.517131,28316675*126
彩色人生興業股份有限公司(三二行館),二樓迎賓櫃檯旁,台北市,北投區,中山路32號,25.137778,121.510497,02-66117888#203
臺北市中正區戶政事務所,AED放置7樓大廳門口電梯旁,台北市,中正區,忠孝東路1段108號7樓,25.044353,121.524604,23948838-218
臺北市立大同高級中學,健康中心前走廊,台北市,中山區,長春路167號,25.055031,121.535198,(02)25054269-124
臺北市文山區戶政事務所（景美辦事處）,3樓戶政事務所民眾等待區,台北市,文山區,興隆路2段160號3樓,25.001586,121.55142,29395885#2104
臺北市北投區健康服務中心,1樓服務台,台北市,北投區,石牌路2段111號,25.11825,121.517163,28261026#7263
國立政治大學附屬高級中學,體育館,台北市,文山區,政大一街353號,24.98668,121.583376,02-82377500#9331
彩色人生興業股份有限公司(三二行館),3F VIP室,台北市,北投區,中山路32號,25.137778,121.510497,02-66117888#203
臺北市中山運動中心,1樓客梯旁,台北市,中山區,中山北路2段44巷2號,25.054844,121.521326,02-25811060轉222
臺北市立成功高級中學,學務處前走廊,台北市,中正區,濟南路1段71號,25.042334,121.523687,23216256*229
好市多股份有限公司內湖分公司,1樓賣場提貨區旁,台北市,內湖區,舊宗路1段268號,25.064292,121.575899,937222199
臺北自來水園區,思源票口,台北市,中正區,思源街1號,25.013286,121.530253,02-83695108
原民風味館,一樓正門口旁,台北市,中山區,中山北路3段181號,25.069959,121.523428,27208889轉2011
臺北市立動物園,大門入口服務台,台北市,文山區,新光路2段30號,24.998347,121.581036,02-29382300-613
臺北市信義區公所,1樓大廳,台北市,信義區,信義路5段15號7樓,25.03312,121.566864,2723-9777*715
臺北市大同運動中心,B2泳池館救護站,台北市,大同區,大龍街51號,25.065281,121.516175,02-2592-0055ext.101
臺北市市政大樓,2樓親子劇場前右側,台北市,信義區,市府路1號2樓,25.037423,121.563855,227258658
台北市松山區松山國小,活動中心2F羽球場,台北市,松山區,八德路4段746號,25.05106,121.579621,27672907#623
臺北市市政大樓,市政府地下2樓,台北市,信義區,市府路1號地下2樓,25.037413,121.563863,227258658
台北府城隍廟,大門右側櫃檯內,台北市,松山區,虎林街3號,25.047184,121.577092,27692220
國立政治大學,傳播學院,台北市,文山區,指南路2段64號,24.983026,121.574349,(02)29394784-66894
三軍總醫院,女醫護宿舍,台北市,內湖區,成功路二段325號,25.071562,121.593965,02-87923311-16826
松山慈惠堂,文昌帝君殿左側,台北市,信義區,福德街251巷33號,25.03652,121.587484,02-27261735
三軍總醫院,一樓門診大廳入口,台北市,內湖區,成功路二段325號,25.071654,121.593418,02-87923311-16826
松山慈惠堂,服務台外左側,台北市,信義區,福德街251巷33號,25.03652,121.587484,02-27261735
陸軍後勤指揮部,忠勤營區2號門,台北市,南港區,忠孝東路六段360號,25.0496,121.591483,02-26512300
陸軍後勤指揮部,成德營區副總值日室,台北市,南港區,忠孝東路六段360號,25.0496,121.591483,02-26512300
臺北市碧湖國小,穿堂旁,台北市,內湖區,金龍路100號,25.085311,121.59111,2790-7161#136
臺北市文山運動中心,三樓游泳池,台北市,文山區,興隆路三段222號,24.997017,121.559673,02-22308268
社團法人中華民國軍人之友社台北國軍英雄館,7樓1至3號電梯外,台北市,中正區,台北市長沙街1段20號,25.040286,121.508698,02-23715434
臺北市內湖區麗山國民小學,一樓前棟川堂(電話亭旁),台北市,內湖區,港華街100號,25.083679,121.572465,26574158分機331
台北市中山區永安國小,一年1班教室旁空地,台北市,中山區,明水路397巷19弄1號,25.078776,121.549406,25334799
台北日記股份有限公司中華二館,台北市萬華區中華路一段90號3樓,台北市,萬華區,中華路一段90號3樓,25.044688,121.508476,02-2311-2996
台北日記股份有限公司台北門旅店,台北市中正區漢口街一段64,台北市,中正區,漢口街一段64號,25.045129,121.512626,02-2331-0065
愛客發有限公司萬年館,台北市萬華區西寧南路70號6樓,台北市,萬華區,西寧南路70號6樓,25.043508,121.505886,02-2361-9069
台北市麗山國中,健康中心,台北市,內湖區,內湖路一段629巷42號,25.081617,121.575688,02-27991867#335
臺北市文山老人服務中心,中心內大廳,台北市,文山區,萬壽路27號6樓,24.988769,121.576779,02-2234-4893
臺北市南港區東新國民小學,仁愛樓穿堂右側,台北市,南港區,興南街62號,25.054423,121.596285,02-27837577#23
臺北市立民族國民小學,操場旁近樓梯口處,台北市,松山區,民生東路4段97巷7號,25.05935,121.551337,928823916
台北市內湖區文湖國民小學,文湖國小川堂,台北市,內湖區,文湖街15號,25.085771,121.560122,26583515-1057
天母運動園區網球場,網球場辦公室南側大門旁,台北市,士林區,臺北市士林區忠誠路二段77號,25.113749,121.535564,25702330
臺北市政府警察局中正第一分局忠孝西路派出所,一樓值勤台旁,台北市,中正區,公園路15號,25.045088,121.517314,02-23142722
臺北市政府警察局大安分局羅斯福路派出所,派出所一樓值班台旁,台北市,大安區,羅斯福路4段113巷13號,25.011194,121.538127,02-27351743
臺北市政府警察局內湖分局大湖派出所,大湖所值班台左側,台北市,內湖區,成功路五段1號,25.084248,121.601403,02-27909521
臺北市政府警察局交通警察大隊中正第一交通分隊,駐地大門外側,台北市,中正區,北平東路1號,25.047222,121.520938,23413342
臺北市政府警察局文山第二分局萬盛派出所,一樓受理報案區旁,台北市,文山區,羅斯福路5段151號,25.003904,121.538908,02-29312502
臺北市政府警察局松山分局中崙派出所,大門入口右側,台北市,松山區,南京東路4段12號,25.051286,121.552394,2579-0718
臺北市政府警察局士林分局山仔后派出所,派出所內值班台旁,台北市,士林區,格致路39號,25.137285,121.546359,02-28611295
臺北市政府警察局婦幼警察隊,1樓大廳右方,台北市,信義區,信義路5段180號,25.033095,121.574318,02-27590840
華山1914文化創意產業園區,文化部小客廳外公共區,台北市,中正區,八德路一段一號,25.04413,121.529399,02-23581914#582
國立政治大學,游泳館門口,台北市,文山區,指南路2段64號,24.987331,121.576128,(02)29393091-62192
臺北體育館技擊館,電梯出口左側通道,台北市,松山區,南京東路4段10號4樓,25.051128,121.552002,25702330
臺北市政府警察局信義分局三張犁派出所,派出所大門前(入口左側),台北市,信義區,信義路5段17號1樓,25.033097,121.568098,02-27295561
臺北巿松山運動中心,一樓泳池,台北市,松山區,敦化北路1號,25.048607,121.550231,02-66176789
臺北市政府警察局大同分局民族路派出所,進門右手邊角落(警報台旁),台北市,大同區,重慶北路三段168號,25.068829,121.51348,02-25944832
臺北市政府警察局中山分局長春路派出所,值班台旁,台北市,中山區,長春路206號1樓,25.05464,121.536047,02-25010644
臺北市政府警察局文山第二分局興隆派出所,派出所大門口,台北市,文山區,興隆路2段156號,25.001512,121.551187,02-29313842
臺北市政府警察局大安分局臥龍街派出所,大門入口處,台北市,大安區,臥龍街185號,25.018001,121.551835,02-27334439
臺北市政府警察局中山分局中山一派出所,志工服務台左側,台北市,中山區,中山北路一段110號,25.050006,121.521431,02-25111499
臺北市政府警察局內湖分局警備隊,值勤臺旁,台北市,內湖區,文德路22巷120號1樓,25.074742,121.581166,26583211
臺北市政府警察局士林分局芝山岩派出所,一樓便民服務區內,台北市,士林區,仰德大道一段16號,25.101122,121.537886,932655105
臺北市政府警察局士林分局翠山派出所,值班台左前方,台北市,士林區,中社路一段56號,25.108126,121.560262,28411423
臺北市政府警察局松山分局東社派出所,值班台旁,台北市,松山區,敦化北路199巷5號,25.056688,121.550213,02-27135253
臺北市政府警察局士林分局社子派出所,值勤台旁,台北市,士林區,延平北路6段237號,25.089275,121.504709,973207657
臺北市政府警察局士林分局天母派出所,派出所內值勤台旁,台北市,士林區,中山北路七段192號,25.125001,121.532966,02-28714110
臺北市政府警察局萬華分局康定路派出所,辦公室內,台北市,萬華區,和平西路3段112號,25.035082,121.50051,02-23027632
臺灣警察專科學校,樹人樓1樓,台北市,文山區,興隆路3段153號,24.998879,121.560647,02-22308272
臺灣警察專科學校,莊敬樓1樓,台北市,文山區,興隆路3段153號,25.000061,121.561586,02-22308272
台北偶戲館,2樓展場大門旁,台北市,松山區,市民大道五段99號2樓,25.047712,121.561213,02-25289553分機202
臺北市中正運動中心,B1游泳池入口,台北市,中正區,信義路一段1號,25.038234,121.519291,02-2396-3358
臺北市中正運動中心,3樓籃球場,台北市,中正區,信義路一段1號,25.038234,121.519291,2396-3358分機601
國立政治大學,中正圖書館入門左側壁,台北市,文山區,指南路2段64號,24.986058,121.576468,(02)29394784-63191
國立政治大學,藝文中心,台北市,文山區,指南路2段64號,24.982034,121.572318,(02)29394784-63393
三軍總醫院,西迴二樓入口,台北市,內湖區,成功路二段325號,25.071562,121.593965,02-87923311-16826
三軍總醫院,牙科門診入口,台北市,內湖區,成功路二段325號,25.071562,121.593965,02-87923311-16826
三軍總醫院,B1演講廳大廳,台北市,內湖區,成功路二段325號,25.071562,121.593965,02-87923311-16826
國立國父紀念館,1樓後舞台門外右側,台北市,信義區,仁愛路4段505號,25.03955,121.560265,27588008-563
新光保全波士頓大樓,3樓辦公室內,台北市,內湖區,行愛路140巷25號3樓,25.063251,121.582381,918837000
新光保全-優勢領航大樓,三樓出電梯左大門,台北市,內湖區,新湖二路128號3樓,25.062436,121.578749,972177017
新光信義傑仕堡,正門進入1樓大廳,台北市,信義區,信義路5段126-128號,25.032515,121.569156,87802288*31004
新光保全-建北大樓,1樓大門入口右側,台北市,中山區,建國北路一段126號1樓,25.05086,121.536064,928007793
國立政治大學,環山網球場管理室,台北市,文山區,指南路2段64號,24.979212,121.575308,(02)29387087
臺北市政府警察局交通警察大隊大同分隊,民眾洽公服務區,台北市,大同區,昌吉街57號5樓之2,25.066061,121.515106,933853353
國立政治大學,百年樓(文學院)1樓門口,台北市,文山區,指南路2段64號,24.981755,121.5738,02-29387040
臺北市政府警察局萬華分局大理街派出所,大門入口左側,台北市,萬華區,大理街99號,25.034403,121.498298,02-23027631
臺北市政府警察局大同分局民生西路派出所,值班台左後方，受理報案區,台北市,大同區,保安街47-1號,25.059224,121.512054,02-25538587
臺北市政府警察局保安警察大隊,2樓大廳入口處(中庭右側),台北市,松山區,延壽街339號,25.0568,121.559617,932210385
臺北市政府警察局大安分局,1樓大廳值班臺旁,台北市,大安區,仁愛路3段2號,25.037872,121.533106,02-23257215
臺北市政府警察局大同分局延平派出所,值班台旁,台北市,大同區,延平北路一段86號,25.052166,121.511693,02-25564340
臺北市中山堂管理所,中正廳入口,台北市,中正區,延平南路98號,25.043085,121.510168,23813137-152
臺北市立內湖國民中學,內湖國中學務處門口,台北市,內湖區,陽光街一號,25.075959,121.589041,27900843-225
臺北市立永吉國中,永吉國中前穿堂外面,台北市,信義區,松隆路161號,25.048236,121.574145,02-27649066*186或183
臺北市立東湖國中,總務處門口,台北市,內湖區,康樂街131號,25.072199,121.619458,02-26330373#638
台北市立第一女子高級中學,大門口內的會客室,台北市,中正區,重慶南路一段165號,25.038561,121.513103,23820484#541
臺北市立聯合醫院林森中醫昆明院區,4樓美沙冬門診批價櫃檯旁,台北市,萬華區,昆明街100號,25.044361,121.505053,23703739#1117
臺北市立啟明學校,本校學務處旁川堂,台北市,士林區,忠誠路二段207巷1號,25.116621,121.534969,02-28740670#1203
台北市立明倫高級中學,一樓健康中心後門門口,台北市,大同區,承德路3段336號,25.075448,121.519905,25961567轉146
臺北市立聯合醫院中興院區,1樓急診室入口左側,台北市,大同區,鄭州路145號,25.051196,121.50865,2552-3234轉6105
臺北市公有華山市場,2樓1號攤前公共走道,台北市,中正區,忠孝東路1段108號,25.044194,121.524834,02-23936571
臺北市立圖書館總館,總館1樓大門入口前方,台北市,大安區,建國南路二段125號,25.029152,121.538369,27552823分機2103
臺北市第一殯儀館,第一殯儀館遺體冷藏辦公室家屬休息室,台北市,中山區,民權東路二段145號,25.062981,121.536136,02-87329721
臺北市北投運動中心,一樓中控室前方,台北市,北投區,石牌路1段39巷100號,25.116473,121.509762,913162366
遠東航空股份有限公司,36排DEF行李櫃內,台北市,松山區,敦化北路405巷123弄5號,25.062695,121.555896,02-2712-1555*5821
遠東航空股份有限公司,2排AB行李櫃內,台北市,松山區,敦化北路405巷123弄5號,25.062695,121.555896,02-2712-1555*5821
遠東航空股份有限公司,35排DEF行李櫃內,台北市,松山區,敦化北路405巷123弄5號,25.062695,121.555896,02-2712-1555*5821
臺北市立文山特殊教育學校,特教一樓大廳,台北市,文山區,秀明路一段169號,24.99154,121.567807,02-86615183*312
西門紅樓,西門紅樓十字樓直段,台北市,萬華區,成都路10號1樓,25.042123,121.506597,2311-9380#29
臺北市政府社會局委託財團法人伊甸社會福利基金會經營管理臺北市大龍養護中心,1F醫護室,台北市,大同區,民族西路105號1F,25.068698,121.517352,02-25875879
華西街臨時攤販集中場,華西街商圈區協會辦公室(台北市華西街28之1號2樓),台北市,萬華區,華西街，位於廣州街至西園路一段72巷口,25.037647,121.498361,23025938
臺北市公有長春市場,長春路側出入口,台北市,中山區,長春路299號,25.054729,121.542336,(02)25073756
新生公園棒球場,正門入口處,台北市,中山區,新生北路3段105號,25.068958,121.532543,02-25702330#6524
國立政治大學,四維網球場內,台北市,文山區,指南路2段64號,24.987331,121.576128,(02)29387087
臺北市私立東方高級工商職業學校,大門口警衛室內,台北市,大安區,信義路四段186巷8號,25.032235,121.551453,27554616轉134
486CAFE,486cafe入口,台北市,松山區,復興北路313巷6號,25.058862,121.545003,(02)2715-2486
水源市場,水源市場一樓機房旁走道,台北市,中正區,羅斯福路4段92號,25.013743,121.535005,02-2341-5241*2116
兄弟大飯店,商店部門口,台北市,松山區,南京東路三段255號,25.051998,121.544478,日間0958-666-858 夜間0928-823-923
光復市場,光復市場自治會辦公室,台北市,信義區,仁愛路4段496巷19號,25.038218,121.544771,933205004
三軍總醫院,急診部辦公區,台北市,內湖區,成功路二段325號,25.071562,121.593965,02-87923311-16826
臺北市立聯合醫院忠孝院區,二樓東區門診,台北市,南港區,同德路87號,25.046533,121.586075,979311492
臺北市立中山女子高級中學,莊敬大樓入口飲水機旁,台北市,中山區,長安東路2段141號,25.048512,121.537212,02-25073148*421
台北市立中崙高級中學,1樓健康中心門口,台北市,松山區,八德路四段101號,25.049505,121.562213,02-25284156
臺北市南港區公所,2樓服務台旁,台北市,南港區,南港路1段360號,25.054514,121.606781,27837143-617
臺北市萬華運動中心,B1游泳池,台北市,萬華區,西寧南路6-1號,25.047075,121.50674,02-23759900#618
國立臺灣師範大學附屬高中,中正樓穿堂,台北市,大安區,信義路三段143號,25.033674,121.540411,02-27075215#213
臺北市立麗山高級中學,學務處門口,台北市,內湖區,環山路2段100號,25.084098,121.577832,937087310
臺北市立內湖高級中學,警衛室(傳達室),台北市,內湖區,文德路218號,25.078396,121.586581,02-27977035#230
臺北市中山區公所,社會課民眾等候休息區,台北市,中山區,松江路367號,25.064408,121.533456,25031369#613
台北市立建國高級中學,莊敬樓1樓,台北市,中正區,南海路56號,25.0312,121.512152,02-23034381分機306
臺北市立萬芳高級中學,警衛室,台北市,文山區,興隆路3段115巷1號,25.000625,121.558914,22309585分機360
臺北市立松山高級工農職業學校,松山工農警衛室,台北市,信義區,忠孝東路5段236巷15號,25.039727,121.572044,911265129
臺北市立復興高中,校門入口右側勤學樓1樓,台北市,北投區,復興四路70號,25.143591,121.5018,28914131-341
臺北市政府公務人員訓練處,E棟教務組旁,台北市,文山區,萬美街2段21巷20號,25.004329,121.560566,02-29320212#360
臺北市松山區公所,7樓民眾洽公等候區,台北市,松山區,八德路4段692號7樓,25.049907,121.57726,(02)87878787#152
國立中正紀念堂,4樓銅像大廳北側樓梯出口處,台北市,中正區,中山南路21號,25.034711,121.521825,23431100-1072
臺北市南港運動中心,六樓羽球場,台北市,南港區,玉成街69號,25.048938,121.58184,26532279
東吳大學〈雙溪校區〉,第一教研大樓門口,台北市,士林區,臨溪路70號,25.094415,121.545748,02-28819471-7523
國立臺灣師範大學校本部,校本部誠大樓6樓,台北市,大安區,和平東路1段162號,25.025084,121.527717,02-77343107
台北市立興雅國中,川堂,台北市,信義區,松德路168巷15號,25.03642,121.572237,27232771*336
好市多股份有限公司內湖分公司,3樓賣場眼鏡部與藥局櫃台中間,台北市,內湖區,舊宗路1段268號,25.064292,121.575899,911281451
關渡自然公園,自然中心一樓,台北市,北投區,關渡路55號,25.119378,121.471433,02-28587417#218
龍山寺地下街商場,B1 B區廣場,台北市,萬華區,西園路1段145號 B1 行政中心,25.036085,121.499544,02-23065988
天母運動園區棒球場,行政辦公室入口右側,台北市,士林區,忠誠路二段77號,25.113451,121.532875,02-28736548轉101
臺北市立大理高級中學,勤學樓穿堂,台北市,萬華區,長順街2號,25.03022,121.490958,23026959*139
臺北市中正運動中心,7樓羽球場,台北市,中正區,信義路一段1號,25.038234,121.519291,2396-3358分機601
臺北市立西湖國中,大門口穿堂,台北市,內湖區,環山路一段27號,25.085027,121.565695,27991817-220
臺北市青少年發展處,本處地下1樓直排輪場域,台北市,中正區,仁愛路1段17號,25.038975,121.522518,02-23514078#1753
臺北市鄉土教育中心,服務台,台北市,萬華區,廣州街101號,25.036655,121.503279,02-23361704＃41
臺北市立內湖高工,行政大樓1樓川堂,台北市,內湖區,內湖路一段520號,25.079458,121.574686,26574874轉204
高絲旅股份有限公司漢口館,台北市萬華區漢口街二段54號,台北市,萬華區,漢口街二段54號,25.045673,121.505792,02-2361-3350
愛客發有限公司成都館,台北市萬華區成都路101號,台北市,萬華區,成都路101號,25.043259,121.50437,02-2361-1010
台北市中山區大直國小,健康中心前走廊,台北市,中山區,大直街2號,25.080638,121.545851,2533-3953*23
臺北市內湖區潭美國民小學,潭美國小健康中心,台北市,內湖區,新明路22號,25.060345,121.59059,02-27917334-226
泉源國小,警衛室,台北市,北投區,東昇路34號,25.149216,121.524364,28951258轉136
台北市信義區光復國小,明德樓一樓,台北市,信義區,光復南路271號(健康中心),25.040623,121.557962,27585076*826
國立故宮博物院,1樓特展室入口,台北市,士林區,至善路2段221號,25.101992,121.548663,66103600
臺北市立動物園,爬蟲館,台北市,文山區,新光路2段30號,24.994163,121.589883,02-29382300-613
臺北市立南港高級中學,健康中心,台北市,南港區,向陽路21號,25.052412,121.595027,(02)27859522
台北市立大直高中,警衛室左側,台北市,中山區,北安路420號,25.07922,121.542837,02-25334017*138
臺北市大安區戶政事務所,一樓服務台旁,台北市,大安區,新生南路二段86號一樓,25.02642,121.534511,02-23587877-302
國立國父紀念館,1樓國父銅像大廳東側,台北市,信義區,仁愛路4段505號,25.03955,121.560265,27588008-563
臺北市立華江高中,健康中心,台北市,萬華區,西藏路213號,25.028594,121.496058,23019946#307
臺北市北投區戶政事務所,戶籍登記課後方,台北市,北投區,新市街30號3樓,25.132426,121.503,28924170分機671
臺北市政府公務人員訓練處,C棟客服中心前,台北市,文山區,萬美街2段21巷20號,25.004577,121.56104,02-29320212#360
二二八和平公園,二二八和平公園音樂臺,台北市,中正區,懷寧街103號,25.04184,121.514159,2381-5132轉332
臺北市大安區健康服務中心,1樓服務台,台北市,大安區,辛亥路3段15號,25.021577,121.544274,02-27335831#234
大同大學,大同大學警衛室,台北市,中山區,中山北路3段40號,25.065074,121.522758,0919-950386
交通部鐵路管理局南港火車站,南港火車站B2營運層旅客出口處,台北市,南港區,南港路1段313號,25.053123,121.607156,02-23815226*8722
臺北市市政大樓,市政府1樓東門,台北市,信義區,市府路1號1樓(靠松智路),25.037506,121.565099,227258658
臺北市北投區公所,北投區公所4樓服務台旁,台北市,北投區,新市街30號4樓,25.132431,121.503017,28912105#207
北投溫泉博物館,1樓哺乳室旁,台北市,北投區,中山路2號,25.136692,121.507149,28939981 #23
國立臺北大學臺北校區-民生校區,臺北大學民生校區正門左側崗亭內,台北市,中山區,民生東路3段67 號,25.059259,121.542478,(02)25024654#18229
華山1914文化創意產業園區,遊客服務中心,台北市,中正區,八德路一段一號,25.04413,121.529399,02-23581914#582
臺北市萬華區公所,11樓服務台,台北市,萬華區,和平西路3段120號11樓,25.035002,121.499888,02-23064468#317
臺北市立成淵高級中學,健康中心,台北市,大同區,承德路2段235號,25.061177,121.518454,(02)2553-1969 #136
臺北市立仁愛國民中學,川堂左側,台北市,大安區,仁愛路4段130號,25.037529,121.550674,27048677
台北市立西松高級中學,一樓穿堂,台北市,松山區,健康路325巷7號,25.055551,121.567082,25286618-215
臺北市立聯合醫院松德院區,第一院區一樓大廳(大門口第一棟即為第一院區),台北市,信義區,松德路309號,25.030508,121.574895,979307861
臺北市立大安國民中學,五育樓1樓樓梯間,台北市,大安區,大安路2段63號,25.03086,121.54625,27036560
國立臺灣戲曲學院,中正堂迎賓大廳,台北市,內湖區,內湖路2段177號,25.08128,121.58668,27962666#1420
臺北市立天文科學教育館,一樓大廳哺集乳室旁,台北市,士林區,基河路363號,25.095829,121.518299,28314551分機508
臺北市中山區戶政事務所,電機室門口,台北市,中山區,松江路367號2樓,25.064408,121.533456,02-25032461#209
臺北市松山區戶政事務所,4樓入口處進門右側服務檯內,台北市,松山區,八德路4段692號4樓,25.049907,121.57726,0227533043-517
臺北市士林區戶政事務所,3樓民眾等待區,台北市,士林區,中正路439號3樓,25.092762,121.519559,28803252#312
臺北市士林運動中心,二樓健身房設施,台北市,士林區,士商路一號,25.089668,121.521411,987899459
臺北市立啟智學校,一樓健康中心,台北市,士林區,忠誠路二段207巷3號,25.116617,121.536225,02-28749117#2102
遠東航空股份有限公司,36排DEF行李櫃內,台北市,松山區,敦化北路405巷123弄5號,25.062695,121.555896,02-2712-1555*5821
遠東航空股份有限公司,36排DEF行李櫃內,台北市,松山區,敦化北路405巷123弄5號,25.062695,121.555896,02-2712-1555*5821
陽明公園,遊客服務中心,台北市,北投區,湖山路2段26號,25.159213,121.540131,02-2861-6361
臺北自來水園區環境教育中心,環教中心1樓,台北市,中正區,思源街1號,25.012429,121.532382,02-83695083
永春市場,永春市場一樓128攤位旁,台北市,信義區,松山路294號,25.043069,121.577577,0928-226018
臺北市公有建國市場,臨固39號攤,台北市,中山區,伊通街94號,25.053268,121.534802,(02)25073756
臺北農產運銷股份有限公司,5樓行政中心,台北市,中山區,民族東路336號,25.067471,121.537218,923580262
